CustNo,Branch SDN Name,LATITUDE,LONGITUDE,reverse_geotag_mediatrac,address_sap,checking,revisi_latlong
5810031033,SDN Semarang,-6.96757,110.236146,"5810031033 Binangun, Kaliwungu Sel., Kendal, Jawa Tengah 51372, Indonesia 51372","JL. SROGO - PLANTARAN NO. 5 RT, 03 RW. 04 KALIWUNGU SELATAN KENDAL",ok,
5810011499,SDN Semarang,-7.302186,110.489872,"5810011499 Blotongan Blok A No.1, Sidorejo, Kota Salatiga, Jawa Tengah 50715, Indonesia 50715",JL. DELIKO V/ 59 SALATIGA -,not ok,
5810011827,SDN Semarang,-7.253485,110.413328,"5810011827 Bougenvile IIIA, Ambarawa, Semarang, Jawa Tengah 50612, Indonesia 50612",JL. BOUGENVILE I NO. 08 ( BLKG BKKBN ) KUPANG AMBARAWA,ok,
5810035547,SDN Semarang,-6.912414,110.633265,"5810035547 Gang 2, Wonosalam, Demak, Jawa Tengah 59571, Indonesia 59571",JL. JOGOLOYO NO. 67 JOGOLOYO WONOSALAM DEMAK,not ok,
5810011873,SDN Semarang,-7.006627,110.466314,"5810011873 Gg. 1, Pedurungan, Kota Semarang, Jawa Tengah 50246, Indonesia 50246",JL. PALEBON RAYA NO. 184 SEMARANG -,ok,
5810011801,SDN Semarang,-6.9764551,110.42567,"5810011801 Gg. Baru No.5, Semarang Tengah, Kota Semarang, Jawa Tengah 50139, Indonesia 50139",JL. GANG BARU  106  SEMARANG -,ok,
5810011802,SDN Semarang,-6.9764551,110.42567,"5810011802 Gg. Baru No.5, Semarang Tengah, Kota Semarang, Jawa Tengah 50139, Indonesia 50139",JL. GANG BARU 12  SEMARANG -,ok,
5810011803,SDN Semarang,-6.9764551,110.42567,"5810011803 Gg. Baru No.5, Semarang Tengah, Kota Semarang, Jawa Tengah 50139, Indonesia 50139",JL. GANG BARU 124 SEMARANG -,ok,
5810011804,SDN Semarang,-6.9764551,110.42567,"5810011804 Gg. Baru No.5, Semarang Tengah, Kota Semarang, Jawa Tengah 50139, Indonesia 50139",JL. GANG BARU 63 - SEMARANG -,ok,
5810011891,SDN Semarang,-6.9764551,110.42567,"5810011891 Gg. Baru No.5, Semarang Tengah, Kota Semarang, Jawa Tengah 50139, Indonesia 50139",JL. GANG BARU 68  -  SEMARANG -,ok,
5810011805,SDN Semarang,-6.9764551,110.42567,"5810011805 Gg. Baru No.5, Semarang Tengah, Kota Semarang, Jawa Tengah 50139, Indonesia 50139",JL. GANG BARU NO.74 SEMARANG -,ok,
5810012190,SDN Semarang,-6.9764551,110.42567,"5810012190 Gg. Baru No.5, Semarang Tengah, Kota Semarang, Jawa Tengah 50139, Indonesia 50139",JL. GANG BARU NO.77  SEMARANG -,ok,
5810032232,SDN Semarang,-6.9764868,110.4275123,"5810032232 Gg. Besen, Semarang Tengah, Kota Semarang, Jawa Tengah 50139, Indonesia 50139",GANG BESEN NO. 73 KRANGGAN SEMARANG TENGAH SEMARANG,ok,
5810019118,SDN Semarang,-6.919686,110.205597,"5810019118 Gg. Gembyang III, Kendal, Kendal, Jawa Tengah 51311, Indonesia 51311",PS. PAGI - KALIWUNGU -,not ok,"-6.956752, 110.250385"
5810035853,SDN Semarang,-7.021771299999999,110.5137904,"5810035853 Gg. Jagalan Baru, Mranggen, Demak, Jawa Tengah 59567, Indonesia 59567",JL. BRUMBUNG NO. 19 RT. 1 RW. 03 MRANGGEN DEMAK,ok,
5810035734,SDN Semarang,-7.021771299999999,110.5137904,"5810035734 Gg. Jagalan Baru, Mranggen, Demak, Jawa Tengah 59567, Indonesia 59567",JL. BRUMBUNG RT. 01 RW. 2 MRANGGEN -,ok,
5810011899,SDN Semarang,-7.054759199999999,110.3964404,"5810011899 Gg. Jeruk, Gn. Pati, Kota Semarang, Jawa Tengah 50229, Indonesia 50229",JL. RAYA SEKARAN GG. JERUK NO. 5 RT. 003 RW. 002 GUNUNG PATI SEMARANG,ok,
5810012256,SDN Semarang,-7.0102427,110.3909755,"5810012256 Gg. Menoreh Tengah III, Gajahmungkur, Kota Semarang, Jawa Tengah 50232, Indonesia 50232",JL. MENOREH TENGAH III / 17B SEMARANG -,ok,
5810032250,SDN Semarang,-7.103116,110.408334,"5810032250 Gg. Sido Sari, Banyumanik, Kota Semarang, Jawa Tengah 50265, Indonesia 50265",PERUM PESONA ASRI NO. 54 GEDAWANG SEMARANG,ok,
5810012237,SDN Semarang,-7.018228,110.3900076,"5810012237 Gg. Talang Sendang I, Gajahmungkur, Kota Semarang, Jawa Tengah 50235, Indonesia 50235",JL. TALANG SENDANG I RT. 001 RW. 002 BENDAN DUWUR SEMARANG,ok,
5810012025,SDN Semarang,-7.055415999999999,110.4007551,"5810012025 Jalan Cempaka Sari, Gn. Pati, Kota Semarang, Jawa Tengah 50229, Indonesia 50229",JL. CEMPAKA SARI TIMUR NO. 85 SEKARAN SEMARANG,ok,
5810002434,SDN Semarang,-6.9003375,110.6261097,"5810002434 Jalan Flamboyan I, Kec. Demak, Demak, Jawa Tengah 59511, Indonesia 59511",JL. FLAMBOYAN BLOK M-14 RT. 004 RW. 005 KATONSARI DEMAK,ok,
5810011852,SDN Semarang,-7.016386,110.39318,"5810011852 Jalan Kendeng Barat 6 No.36, Gajahmungkur, Kota Semarang, Jawa Tengah 50232, Indonesia 50232",JL. LAMONGAN RAYA 8A SEMARANG -,ok,
5810002425,SDN Semarang,-6.8747604,110.6791886,"5810002425 Jalan Kyai Palembang, Kec. Demak, Demak, Jawa Tengah 59517, Indonesia 59517",JL. KYAI PALEMBAN DEMAK -,ok,
5810012297,SDN Semarang,-6.994579,110.418089,"5810012297 ""Jalan Menteri Supeno I, Semarang Sel., Kota Semarang, Jawa Tengah 50249, Indonesia 50249",JL. MENTERI SUPENO I/1 SEMARANG SEMARANG MUGASSARI,ok,
5810002462,SDN Semarang,-6.898336,110.635173,"5810002462 Jalan Sultan Fatah, Kec. Demak, Demak, Jawa Tengah 59515, Indonesia 59515",Jl. Sultan Fatah Demak PS. BINTORO A2 NO. 34 ( DEPAN TANGGA ) BINTORO DEMAK,ok,
5810029464,SDN Semarang,-6.8983363,110.6351734,"5810029464 Jalan Sultan Fatah, Kec. Demak, Demak, Jawa Tengah 59515, Indonesia 59515",JL. SULTAN FATAH NO. 02 RT. 010 RW. 002 BINTORO DEMAK,ok,
5810002491,SDN Semarang,-6.898336,110.635173,"5810002491 Jalan Sultan Fatah, Kec. Demak, Demak, Jawa Tengah 59515, Indonesia 59515","JL. SULTAN FATAH NO. 7-667 BOGORAME, MAN GUNJIWAN, DEMAK, DEMAK, JAWA TENGAH 5951",ok,
5810011823,SDN Semarang,-6.991448,110.437846,"5810011823 Jalan Sumbawa I, Semarang Tim., Kota Semarang, Jawa Tengah 50232, Indonesia 50232","JL. PURI ANJASMORO BL.C-1 NO. 10 RT.009 RW.002, TAWANG MAS, SEMARANG BARAT",not ok,"-6.970225, 110.386216"
5820000215,SDN Semarang,-6.900338,110.627088,"5820000215 Jalan Teuku Umar, Kec. Demak, Demak, Jawa Tengah 59511, Indonesia 59511",JL. TEUKU UMAR NO. 76 DEMAK -,ok,
5810035362,SDN Semarang,-7.089612799999999,110.4232005,"5810035362 Jalan Watukaji Raya, Banyumanik, Kota Semarang, Jawa Tengah 50266, Indonesia 50266",JL. RAYA WATU KAJI NO. 41 GEDAWANG BANYUMANIK SEMARANG,ok,
5810012283,SDN Semarang,-6.999406,110.43245,"5810012283 Jalan Wonodri Krajan II, Semarang Sel., Kota Semarang, Jawa Tengah 50242, Indonesia 50242",JL. MT. HARYONO NO. 655 RT. 001 RW. 007 WONODRI SEMARANG SELATAN SEMARANG,ok,
5810005506,SDN Semarang,-6.925923,110.154149,"5810005506 Jalur Pantura No.107, Cepiring, Kendal, Jawa Tengah 51352, Indonesia 51352",JL. RAYA CEPIRING -,ok,
5810012136,SDN Semarang,-7.002526,110.449208,"5810012136 Jend. S Sudiarto, Gayamsari, Kota Semarang, Jawa Tengah 50248, Indonesia 50248",PS. GAYAM LOS TENGAH JL. MAJAPAHIT SEMARANG,ok,
5810022420,SDN Semarang,-6.9998,110.44467,"5810022420 Jend. S Sudiarto, Gayamsari, Kota Semarang, Jawa Tengah 50249, Indonesia 50249",BINTORO KECIL II PANDEAN LAMPER SEMARANG,not ok,"-6.992518, 110.441717"
5810002643,SDN Semarang,-7.053386,110.661588,"5810002643 Jend. S Sudiarto, Gubug, Grobogan, Jawa Tengah 58164, Indonesia 58164",GUBUG RT. 003 RW. 009 GUBUG GROBOGAN -,ok,
5810002648,SDN Semarang,-7.053386,110.661588,"5810002648 Jend. S Sudiarto, Gubug, Grobogan, Jawa Tengah 58164, Indonesia 58164",JL. BHAYANGKARA 35 GUBUG -,not ok,"-7.080137, 110.916901"
5810002432,SDN Semarang,-7.040554,110.56458,"5810002432 Jend. S Sudiarto, Karangawen, Demak, Jawa Tengah 59566, Indonesia 59566",JL RAYA KARANGAWEN ( SBLM PASAR KANAN JALAN ) DEMAK,ok,
5810002442,SDN Semarang,-7.0397854,110.5615258,"5810002442 Jend. S Sudiarto, Karangawen, Demak, Jawa Tengah 59566, Indonesia 59566",JL. RAYA TEGOWANU KARANGAWEN DEMAK -,ok,
5810017559,SDN Semarang,-7.039785,110.561526,"5810017559 Jend. S Sudiarto, Karangawen, Demak, Jawa Tengah 59566, Indonesia 59566",PS. KARANG AWEN0 -,ok,
5810012324,SDN Semarang,-7.001803,110.380257,"5810012324 Jl. Abdul Rahman Saleh, Semarang Bar., Kota Semarang, Jawa Tengah 50183, Indonesia 50183",JL. ABDUL RAHMAN SALEH NO. 570 MANYARAN SEMARANG,ok,
5810011900,SDN Semarang,-7.039458,110.478602,"5810011900 Jl. Alam Raya, Tembalang, Kota Semarang, Jawa Tengah 50272, Indonesia 50272",JL. ALAM SARI PERUM ARDI MAS KLIPANG SENDANGMULYO TEMBALANG SEMARANG,ok,
5810011815,SDN Semarang,-6.980995,110.478988,"5810011815 Jl. Al-Masykur II, Genuk, Kota Semarang, Jawa Tengah 50115, Indonesia 50115",PERUM KORPRI BANGETAYU WETAN JL. MASYKUR I NO. 22 SEMARANG,ok,
5810019693,SDN Semarang,-6.9726696,110.3905416,"5810019693 Jl. Anjasmoro Raya, Semarang Bar., Kota Semarang, Jawa Tengah 50144, Indonesia 50144",PURI ANJASMORO A7 / 16 SEMARANG -,ok,
5810032255,SDN Semarang,-7.0131243,110.3336297,"5810032255 Jl. Anyar, Ngaliyan, Kota Semarang, Jawa Tengah 50188, Indonesia 50188",JL. ANYAR PERUM BERINGIN BLOK E / 4 BRINGIN NGALIYAN SEMARANG,ok,
5810032236,SDN Semarang,-6.979437,110.470379,"5810032236 Jl. Bangetayu Wetan, Genuk, Kota Semarang, Jawa Tengah 50196, Indonesia 50196",PS. BANGETAYU ( DEPAN MUSHOLA ) GENUK SEMARANG,ok,
5810032261,SDN Semarang,-6.9892584,110.4813937,"5810032261 Jl. Bangetayu Wetan, Pedurungan, Kota Semarang, Jawa Tengah 50113, Indonesia 50113",JL. BANGETAYU WETAN NO. 39 BANGETAYU WETAN GENUK SEMARANG,ok,
5810034836,SDN Semarang,-7.29051,110.471343,"5810034836 Jl. Banjaran Kesongo, Tuntang, Semarang, Jawa Tengah 50773, Indonesia 50773",JL. BANJARAN - KESONGO ( PS. KESONGO ) NO. 14 KESONGO TUNTANG KAB. SEMARANG,ok,
5810020225,SDN Semarang,-6.975166,110.406401,"5810020225 Jl. Banowati Sel. I, Semarang Utara, Kota Semarang, Jawa Tengah 50179, Indonesia 50179",PS. BULU LOS TENGAH SEMARANG -,not ok,"-6.985404, 110.406542"
5810012208,SDN Semarang,-6.996209,110.443839,"5810012208 Jl. Banteng Raya Utara, Gayamsari, Kota Semarang, Jawa Tengah 50249, Indonesia 50249",JL. BADAK V/25  SEMARANG -,ok,
5810011984,SDN Semarang,-6.9962094,110.4438388,"5810011984 Jl. Banteng Raya Utara, Gayamsari, Kota Semarang, Jawa Tengah 50249, Indonesia 50249",JL. BANTENG RAYA SEMARANG -,ok,
5810011807,SDN Semarang,-6.97361,110.441997,"5810011807 Jl. Barito, Semarang Tim., Kota Semarang, Jawa Tengah 50126, Indonesia 50126",JL. BARITO NO. 6 KARANG TEMPEL SEMARANG TIMUR SEMARANG,ok,
5810017243,SDN Semarang,-6.986842,110.439576,"5810017243 Jl. Barito, Semarang Tim., Kota Semarang, Jawa Tengah 50232, Indonesia 50232",RUKO SEMARANG INDAH BLOK B 14 NO. 23 TAWANG SEMARANG BARAT,not ok,
5810011972,SDN Semarang,-6.985374,110.416068,"5810011972 Jl. Batan Selatan, Semarang Tengah, Kota Semarang, Jawa Tengah 50134, Indonesia 50134",JL. BATAN SELATAN NO. 28 RT. 001 RW. 004 MIROTO SEMARANG TENGAH SEMARANG,ok,
5820000758,SDN Semarang,-7.0043285,110.4520008,"5820000758 Jl. Beruang Dalam Tim., Pedurungan, Kota Semarang, Jawa Tengah 50248, Indonesia 50248",JL. MAJAPAHIT NO. 294 SENDANGGUWO SEMARA NG TIMUR SEMARANG,ok,
5810034326,SDN Semarang,-6.986311,110.401819,"5810034326 Jl. Bojong Salaman, Semarang Bar., Kota Semarang, Jawa Tengah 50141, Indonesia 50141",PS PUSPANJOLO SELATAN SEBELAH BENGKEL BOJONG SALAMAN SMG BARAT,ok,
5810011929,SDN Semarang,-6.998999,110.3822651,"5810011929 Jl. Borobudur Utara Raya, Semarang Bar., Kota Semarang, Jawa Tengah 50147, Indonesia 50147",JL. BOROBUDUR SEMARANG -,ok,
5810011877,SDN Semarang,-6.998999,110.382265,"5810011877 Jl. Borobudur Utara Raya, Semarang Bar., Kota Semarang, Jawa Tengah 50147, Indonesia 50147",JL. BOROBUDUR UTAMA XVIII RT. 005 RW. 004 MANYARAN SEMARANG,ok,
5810012253,SDN Semarang,-6.9723,110.4084,"5810012253 Jl. Brotojoyo No.2D/7, Semarang Utara, Kota Semarang, Jawa Tengah 50171, Indonesia 50171",JL. BROTOJOYO 3 C / 17 RT. 008 RW. 002 PLOMBOKAN SEMARANG UTARA SEMARANG,ok,
5810012258,SDN Semarang,-6.9723,110.4084,"5810012258 Jl. Brotojoyo No.2D/7, Semarang Utara, Kota Semarang, Jawa Tengah 50171, Indonesia 50171",JL. BROTOJOYO 3 C NO. 17 RT. 008 RW. 002 PLOMBOKAN SEMARANG UTARA SEMARANG,ok,
5810012015,SDN Semarang,-6.9751341,110.4375168,"5810012015 Jl. Bugangan, Semarang Tim., Kota Semarang, Jawa Tengah 50126, Indonesia 50126",JL. BUGANGAN RAYA 67 SEMARANG -,ok,
5810012206,SDN Semarang,-6.9751341,110.4375168,"5810012206 Jl. Bugangan, Semarang Tim., Kota Semarang, Jawa Tengah 50126, Indonesia 50126",JL. RAYA BUGANGAN 75 SEMARANG -,ok,
5810022516,SDN Semarang,-6.975134,110.437517,"5810022516 Jl. Bugangan, Semarang Tim., Kota Semarang, Jawa Tengah 50126, Indonesia 50126",PS. BUGANGAN ( SBLH YK. 27 ) BUGANGAN SEMARANG,ok,
5810035720,SDN Semarang,-6.986708,110.325286,"5810035720 Jl. Bukit Beringin Utara, Ngaliyan, Kota Semarang, Jawa Tengah 50244, Indonesia 50244",JL. BUKIT BERINGIN UTARA V NO. D-67 WONOSARI NGALIYAN SEMARANG,ok,
5810012126,SDN Semarang,-7.063883,110.458170,"5810012126 Jl. Bukit Kelapa Hijau IX, Tembalang, Kota Semarang, Jawa Tengah 50271, Indonesia 50271",PS. METESEH JL. RAYA METESEH BLOK A-3 METESEH TEMBALANG,not ok,"-7.057254, 110.471086"
5810032267,SDN Semarang,-7.0600003,110.4625677,"5810032267 Jl. Bukit Safir Jaya, Tembalang, Kota Semarang, Jawa Tengah 50271, Indonesia 50271",JL. BUKIT KENCANA JAYA RAYA BULUSAN TEMBALANG SEMARANG,ok,
5810012135,SDN Semarang,-7.0501076,110.4325652,"5810012135 Jl. Bukit Tembakau, Banyumanik, Kota Semarang, Jawa Tengah 50261, Indonesia 50261",JL. BUKIT TEMBAKAU 2 BUKIT SARI KARANGKIDUL,ok,
5810026979,SDN Semarang,-6.985545,110.404405,"5810026979 Jl. Bulustalan V, Semarang Sel., Kota Semarang, Jawa Tengah 50245, Indonesia 50245",PS. BULU LOS DALAM NO. 8 SEMARANG -,ok,
5810012075,SDN Semarang,-7.0138653,110.380006,"5810012075 Jl. Candi Penataran I, Ngaliyan, Kota Semarang, Jawa Tengah 50183, Indonesia 50183",JL. CANDI PENATARAN I RT. 008 RW. 003 KA LIPANCUR - NGALIYAN SEMARANG 50183,ok,
5810012246,SDN Semarang,-7.0184703,110.3741807,"5810012246 Jl. Candi Penataran Raya, Ngaliyan, Kota Semarang, Jawa Tengah 50211, Indonesia 50211",JL. CANDI PENATARAN RAYA KAV. 4 RT. 05 RW. 10 MANYARAN SEMARANG,ok,
5810012339,SDN Semarang,-7.000259,110.439575,"5810012339 Jl. Cempedak Utara, Semarang Sel., Kota Semarang, Jawa Tengah 50249, Indonesia 50249",JL. CEMPEDAK UTARA II RT.007.RW.001 LAMPER LOR - SEMARANG SELATAN,ok,
5810011813,SDN Semarang,-6.979551,110.395064,"5810011813 Jl. Cempolorejo V, Semarang Bar., Kota Semarang, Jawa Tengah 50141, Indonesia 50141",JL. CEMPOLOREJO II KARANGAYU SEMARANG -,ok,
5810012203,SDN Semarang,-6.973075,110.438129,"5810012203 Jl. Citandui Selatan, Semarang Tim., Kota Semarang, Jawa Tengah 50126, Indonesia 50126",JL. CITANDUI SELATAN 16 / 14 RT. 008 RW. 003 BUGANGAN SEMARANG,ok,
5810011921,SDN Semarang,-6.9725209,110.4399749,"5810011921 Jl. Citarum Tengah, Semarang Tim., Kota Semarang, Jawa Tengah 50126, Indonesia 50126",JL. CITARUM TENGAH NO. 25 SEMARANG -,ok,
5810011889,SDN Semarang,-6.9725209,110.4399749,"5810011889 Jl. Citarum Tengah, Semarang Tim., Kota Semarang, Jawa Tengah 50126, Indonesia 50126",JL. CITARUM TENGAH NO.27 SEMARANG -,ok,
5820000733,SDN Semarang,-6.970317,110.438273,"5820000733 Jl. Citarum, Semarang Tim., Kota Semarang, Jawa Tengah 50126, Indonesia 50126","JL. CITARUM RAYA NO.47, BUGANGAN SEMARAN G TIMUR SEMARANG JAWA TENGAH - 50126",ok,
5820000733,SDN Semarang,-6.970317,110.438273,"5820000733 Jl. Citarum, Semarang Tim., Kota Semarang, Jawa Tengah 50126, Indonesia 50126","JL. CITARUM RAYA NO.47, BUGANGAN SEMARAN G TIMUR SEMARANG JAWA TENGAH - 50126",ok,
5810011935,SDN Semarang,-6.989006,110.407566,"5810011935 Jl. Cokroaminoto, Semarang Sel., Kota Semarang, Jawa Tengah 50245, Indonesia 50245",KOMPLEK SD PL BERNADUS JL. DR SUTOMO NO. 4 SEMARANG,ok,
5810012141,SDN Semarang,-7.0727446,110.4310347,"5810012141 Jl. Damar Raya Blok B No.8, Banyumanik, Kota Semarang, Jawa Tengah 50267, Indonesia 50267",PS. DAMAR JL. RAYA DAMAR BANYUMANIK SEMARANG,ok,
5810020733,SDN Semarang,-7.072831,110.431263,"5810020733 Jl. Damar Tim. I, Banyumanik, Kota Semarang, Jawa Tengah 50267, Indonesia 50267",PS. DAMAR BLOK A NO. 2 SEMARANG -,ok,
5810011959,SDN Semarang,-6.975391,110.435505,"5810011959 Jl. Dargo, Semarang Tim., Kota Semarang, Jawa Tengah 50126, Indonesia 50126",JL. DARGO NO.4 SEMARANG -,ok,
5810011914,SDN Semarang,-7.019993,110.387182,"5810011914 Jl. Dewi Sartika Bar. No.89, Gn. Pati, Kota Semarang, Jawa Tengah 50221, Indonesia 50221",JL. DEWI SARTIKA BARAT RT. 001 RW. 003 SUKOREJO SEMARANG,ok,
5810012205,SDN Semarang,-7.0662182,110.4633059,"5810012205 Jl. Dinar Mas, Tembalang, Kota Semarang, Jawa Tengah 50271, Indonesia 50271",JL. DINAR ELOK NO. 3 RT. 002 RW. 003 METESEH TEMBALANG SEMARANG,ok,
5810034069,SDN Semarang,-6.914328,110.634240,"5810034069 Jl. Diponegoro, Wonosalam, Demak, Jawa Tengah 59571, Indonesia 59571",JL. JOGOLOYO 25 WONOSALAM DEMAK -,ok,
5810031007,SDN Semarang,-6.9640344,110.1303795,"5810031007 Jl. DK Truko-Joho-Gebang, Gemuh, Kendal, Jawa Tengah 51356, Indonesia 51356",PEREMPATAN DESA GEBANG RT 02/07 NO. 8 KEL. GEBANG KEC. GEMUH KENDAL,ok,
5810005503,SDN Semarang,-6.980362100000001,110.2554767,"5810005503 Jl. Durian IV, Kaliwungu Sel., Kendal, Jawa Tengah 51372, Indonesia 51372",JL. DESA PROTOMULYO ( DEPAN MASJID ISTIQOMAH ) KALIWUNGU KENDAL,ok,
5810032270,SDN Semarang,-7.0632746,110.4227034,"5810032270 Jl. Durian Raya, Banyumanik, Kota Semarang, Jawa Tengah 50263, Indonesia 50263",JL. DURIAN RAYA NO. 63 A TEMBALANG SEMARANG,ok,
5810012043,SDN Semarang,-7.0093606,110.440767,"5810012043 Jl. Durian Timur, Semarang Sel., Kota Semarang, Jawa Tengah 50249, Indonesia 50249",JL. DURIAN BARAT NO. 18 LAMPER KIDUL SEMARANG,ok,
5810011982,SDN Semarang,-7.039352,110.465417,"5810011982 Jl. Elang Raya, Tembalang, Kota Semarang, Jawa Tengah 50272, Indonesia 50272","JL.MIRA DELIMA B.125, SAMBIROTO TEMBALAN G SEMARANG JAWA TENGAH - 00000",not ok,"-7.032562, 110.458894"
5810034598,SDN Semarang,-6.993361,110.426051,"5810034598 Jl. Erlangga Tengah, Semarang Sel., Kota Semarang, Jawa Tengah 50241, Indonesia 50241",JL. ERLANGGA BARAT VII NO. 1 PLEBURAN SEMARANG SELATAN SEMARANG,ok,
5810032272,SDN Semarang,-7.0214019,110.4697357,"5810032272 Jl. Fatmawati No.100, Pedurungan, Kota Semarang, Jawa Tengah 50246, Indonesia 50246",JL. FATMAWATI 83 KEDUNG MUNDU TEMBALANG SEMARANG,ok,
5810011941,SDN Semarang,-7.0214019,110.4697357,"5810011941 Jl. Fatmawati No.100, Pedurungan, Kota Semarang, Jawa Tengah 50246, Indonesia 50246",JL. FATMAWATI NO. 6 KEDUNGMUNDU SEMARANG,ok,
5810011858,SDN Semarang,-7.0214019,110.4697357,"5810011858 Jl. Fatmawati No.100, Pedurungan, Kota Semarang, Jawa Tengah 50246, Indonesia 50246",JL. FATMAWATI RAYA NO. 3 KEDUNGMUNDU RT. 006 RW. 008 SEMARANG,ok,
5810002486,SDN Semarang,-6.891979,110.743186,"5810002486 Jl. Gajah - Wilalung, Gajah, Demak, Jawa Tengah 59581, Indonesia 59581",JL. RAYA GAJAH NO.67  RT.03  RW. 02 GAJA H DEMAK DEMAK 59581,ok,
5810012292,SDN Semarang,-6.978506,110.457137,"5810012292 Jl. Gajah Birowo No.40, Pedurungan, Kota Semarang, Jawa Tengah 50196, Indonesia 50196",JL. GAJAH BIROWO NO. 1 TLOGOSARI SEMARANG,ok,
5810012344,SDN Semarang,-6.992765,110.452024,"5810012344 Jl. Gajah Tim. Dalam, Gayamsari, Kota Semarang, Jawa Tengah 50248, Indonesia 50248",JL. GAJAH NO. 5  RT.005 RW.001 SAMBIREJO  GAYAMSARI SEMARANG,ok,
5810032276,SDN Semarang,-6.998918,110.445408,"5810032276 Jl. Gajah, Gayamsari, Kota Semarang, Jawa Tengah 50249, Indonesia 50249",JL. GAJAH RAYA KOMPLEK MAJT BLOK A NO. 21-22 SEMARANG,ok,
5810032275,SDN Semarang,-6.998918,110.445408,"5810032275 Jl. Gajah, Gayamsari, Kota Semarang, Jawa Tengah 50249, Indonesia 50249",JL. GAJAH RAYA KOMPLEK MAJT BLOK A NO. 29 SEMARANG,ok,
5810032279,SDN Semarang,-6.9943317,110.3675151,"5810032279 Jl. Gatot Subroto, Ngaliyan, Kota Semarang, Jawa Tengah 50184, Indonesia 50184",JL. GATOT SUBROTO NO. 1 PURWOYOSO NGALIYAN,ok,
5810012191,SDN Semarang,-6.994332,110.367515,"5810012191 Jl. Gatot Subroto, Ngaliyan, Kota Semarang, Jawa Tengah 50184, Indonesia 50184",JL. GATOT SUBROTO NO. 21 ( PLN ) PURWOYOSO NGALIYAN SEMARANG,ok,
5810011937,SDN Semarang,-6.994332,110.367515,"5810011937 Jl. Gatot Subroto, Ngaliyan, Kota Semarang, Jawa Tengah 50184, Indonesia 50184","PLAZA BII MENARA II LT.17-20 JL.MH THAMR IN NO.51,GONDANGDIA MENTENG JAKPUS DKI J",not ok,
5810032280,SDN Semarang,-7.1539208,110.405101,"5810032280 Jl. Gedongsongo, Ungaran Bar., Semarang, Jawa Tengah 50512, Indonesia 50512",JL. GEDONGSONGO NO. 68 CANDIREJO UNGARAN KAB SEMARANG,ok,
5810005516,SDN Semarang,-6.9695247,110.1409193,"5810005516 Jl. Gemuh, Gemuh, Kendal, Jawa Tengah 51356, Indonesia 51356",JL. RAYA GEMUH NO. 2 GEMUH KENDAL -,ok,
5810012177,SDN Semarang,-6.9748883,110.4876563,"5810012177 Jl. Genuk Pedurungan, Genuk, Kota Semarang, Jawa Tengah 50116, Indonesia 50116",JL. GENUK PEDURUNGAN NO 7 SMG SMG -,ok,
5810032289,SDN Semarang,-7.086525,110.381523,"5810032289 Jl. Gg. 2, Gn. Pati, Kota Semarang, Jawa Tengah 50227, Indonesia 50227",JL. KEBON MANIS MANGUNSARI GUNUNGPATI SEMARANG,ok,
5810017411,SDN Semarang,-7.3393128, 110.508846,"5810017411 Jl. Gilingrejo, Tingkir, Kota Salatiga, Jawa Tengah 50743, Indonesia 50743",PASAR SALATIGA -,ok,
5810035076,SDN Semarang,-6.9842254,110.3706502,"5810035076 Jl. Hanoman Raya, Semarang Bar., Kota Semarang, Jawa Tengah 50146, Indonesia 50146",JL. HANOMAN RAYA NO. 22 B KRAYAK SEMARANG BARAT SEMARANG,ok,
5810012247,SDN Semarang,-6.9908613,110.435866,"5810012247 Jl. Hiri IV, Semarang Tim., Kota Semarang, Jawa Tengah 50232, Indonesia 50232",JL. HIRI IV / 11  SEMARANG -,ok,
5810011988,SDN Semarang,-6.9949612,110.4216902,"5810011988 Jl. Imam Barjo, Semarang Sel., Kota Semarang, Jawa Tengah 50241, Indonesia 50241",JL. IMAM BARJO NO.4  SEMARANG -,ok,
5810011790,SDN Semarang,-6.972716,110.416559,"5810011790 Jl. Imam Bonjol No.99, Semarang Utara, Kota Semarang, Jawa Tengah 50172, Indonesia 50172",JL. IMAM BONJOL NO. 95 BLOK C-3 PURWOSAR I SEMARANG UTARA SEMARANG JAWA TENGAH -,ok,
5810034715,SDN Semarang,-6.9788485,110.4061382,"5810034715 Jl. Indraprasta, Semarang Tengah, Kota Semarang, Jawa Tengah 50131, Indonesia 50131",JL. INDRAPRASTA NO. 109 PINDRIKAN LOR SEMARANG TENGAH SEMARANG,ok,
5810034715,SDN Semarang,-6.9788485,110.4061382,"5810034715 Jl. Indraprasta, Semarang Tengah, Kota Semarang, Jawa Tengah 50131, Indonesia 50131",JL. INDRAPRASTA NO. 109 PINDRIKAN LOR SEMARANG TENGAH SEMARANG,ok,
5810011495,SDN Semarang,-7.340554,110.488642,"5810011495 Jl. Irawan, Sidomukti, Kota Salatiga, Jawa Tengah 50722, Indonesia 50722","JL. DIPONEGORO NO. 13 KOTA SALATIGA, SAL ATIGA 50711",not ok,"-7.317301, 110.495470"
5810035265,SDN Semarang,-7.024205,110.511248,"5810035265 Jl. Jagalan, Mranggen, Demak, Jawa Tengah 59567, Indonesia 59567",JL. BRUMBUNG NO. 33 MRANGGEN DEMAK -,ok,
5810029449,SDN Semarang,-7.0242046,110.5112479,"5810029449 Jl. Jagalan, Mranggen, Demak, Jawa Tengah 59567, Indonesia 59567",JL. JAGALAN MRANGGEN NO. 19 MRANGGEN DEMAK,ok,
5810011976,SDN Semarang,-7.034198,110.34354,"5810011976 Jl. Jamalsari Tim. 3, Mijen, Kota Semarang, Jawa Tengah 50211, Indonesia 50211",JL. KEDUNG PANE SEMARANG -,not ok,"-7.018567, 110.337978"
5810012195,SDN Semarang,-7.0250337,110.4283042,"5810012195 Jl. Jangli No.61, Candisari, Kota Semarang, Jawa Tengah 50254, Indonesia 50254",JL. JANGLI RAYA 48 SEMARANG -,ok,
5810012035,SDN Semarang,-7.0330404,110.4270451,"5810012035 Jl. Jangli Perbalan Tim., Banyumanik, Kota Semarang, Jawa Tengah 50261, Indonesia 50261",JL. JANGLI PERBALAN NO. 2  NGESREP - BANYUMANIK SEMARANG,ok,
5810011922,SDN Semarang,-7.0292749,110.4287511,"5810011922 Jl. Jangli, Candisari, Kota Semarang, Jawa Tengah 50254, Indonesia 50254",JL. JANGLI KRAJAN NO. 201 RT. 004 RW.003  JATINGALEH SEMARANG,ok,
5810021737,SDN Semarang,-7.053688,110.337159,"5810021737 Jl. Jatibarang, Mijen, Kota Semarang, Jawa Tengah 50219, Indonesia 50219",DUDUHAN RT. 002 RW. 002 JATIBARANG MIJEN SEMARANG,ok,
5810036484,SDN Semarang,-7.07175,110.307797,"5810036484 Jl. Jatisari Sel., Mijen, Kota Semarang, Jawa Tengah 50275, Indonesia 50275",JL. JATISARI RT. 02 RW. 03 NO. 93 JATISARI MIJEN SEMARANG,ok,
5810034648,SDN Semarang,-7.07175,110.307797,"5810034648 Jl. Jatisari Sel., Mijen, Kota Semarang, Jawa Tengah 50275, Indonesia 50275",RUKO JATISARI INDAH A. NO 1 JATISARI MIJEN SEMARANG,ok,
5810021912,SDN Semarang,-7.163003,110.413383,"5810021912 Jl. Jaya Baya, Ungaran Bar., Semarang, Jawa Tengah 50518, Indonesia 50518",PS BABADAN LOS TENGAH BABADAN SIDOREJO LOR - UNGARAN,ok,
5810017269,SDN Semarang,-7.00381,110.45,"5810017269 Jl. Jembawan III, Gayamsari, Kota Semarang, Jawa Tengah 50248, Indonesia 50248",PASAR GAYAMSARI  SEMARANG SEMARANG,ok,
5810017290,SDN Semarang,-7.00381,110.45,"5810017290 Jl. Jembawan III, Gayamsari, Kota Semarang, Jawa Tengah 50248, Indonesia 50248",PS. GAYAMSARI SEMARANG SEMARANG,ok,
5810017270,SDN Semarang,-7.00381,110.45,"5810017270 Jl. Jembawan III, Gayamsari, Kota Semarang, Jawa Tengah 50248, Indonesia 50248",PS. GAYAMSARI SEMARANG SEMARANG,ok,
5810017273,SDN Semarang,-7.00381,110.45,"5810017273 Jl. Jembawan III, Gayamsari, Kota Semarang, Jawa Tengah 50248, Indonesia 50248",PS. GAYAMSARI SEMARANG SEMARANG,ok,
5810017214,SDN Semarang,-7.00381,110.45,"5810017214 Jl. Jembawan III, Gayamsari, Kota Semarang, Jawa Tengah 50248, Indonesia 50248",PS. GAYAMSARI SEMARANG SEMARANG,ok,
5810035670,SDN Semarang,-6.983191,110.377092,"5810035670 Jl. Jembawan Raya, Semarang Bar., Kota Semarang, Jawa Tengah 50146, Indonesia 50146",JL. JEMBAWAN RAYA NO. 9 KALIBANTENG KULON SEMARANG BARAT SEMARANG,ok,
5810011503,SDN Semarang,-7.334455500000001,110.5021706,"5810011503 Jl. Jend. Ahmad Yani, Sidomukti, Kota Salatiga, Jawa Tengah 50724, Indonesia 50724",JL. A. YANI NO. 56 SALTIGA -,ok,
5810011516,SDN Semarang,-7.334455500000001,110.5021706,"5810011516 Jl. Jend. Ahmad Yani, Sidomukti, Kota Salatiga, Jawa Tengah 50724, Indonesia 50724",JL. A.YANI 36 SALATIGA -,ok,
5810012260,SDN Semarang,-7.007026499999999,110.4310916,"5810012260 Jl. Jomblang Bar. IV, Candisari, Kota Semarang, Jawa Tengah 50257, Indonesia 50257",JL. JOMBLANG BARAT RT.07 RW. 03 NO. 624 CANDISARI SMG,ok,
5820000735,SDN Semarang,-7.099716,110.407772,"5820000735 Jl. Kali Pepe III, Banyumanik, Kota Semarang, Jawa Tengah 50265, Indonesia 50265", JL. KRAMAT II NO. 14 KWITANG JAKARTA PU SAT 10420,not ok,
5810017219,SDN Semarang,-6.9523,110.479755,"5810017219 Jl. Kaligawe Raya No.168, Sayung, Demak, Jawa Tengah 50118, Indonesia 50118",PS. GENUK 26 SEMARANG -,ok,
5810011476,SDN Semarang,-7.3304515,110.5074287,"5810011476 Jl. Kalinyamat, Tingkir, Kota Salatiga, Jawa Tengah 50742, Indonesia 50742",JL. KALINYAMAT NO. 65 SALATIGA -,ok,
5810017239,SDN Semarang,-7.3305234,110.5084366,"5810017239 Jl. Kalinyamat, Tingkir, Kota Salatiga, Jawa Tengah 50742, Indonesia 50742",PASAR RAYA I SALATIGA -,ok,
5810017209,SDN Semarang,-7.072032,110.429677,"5810017209 Jl. Kanfer Raya, Banyumanik, Kota Semarang, Jawa Tengah 50267, Indonesia 50267",PS. DAMAR SEMARANG SEMARANG,ok,
5810012242,SDN Semarang,-6.994406499999999,110.4508829,"5810012242 Jl. Kanguru Utara V, Gayamsari, Kota Semarang, Jawa Tengah 50248, Indonesia 50248",JL. KANGURU UTARA NO. 12 PEDURUNGAN SEMARANG,ok,
5810011947,SDN Semarang,-6.977975,110.453277,"5810011947 Jl. Karang Ingas - Dalam, Pedurungan, Kota Semarang, Jawa Tengah 50196, Indonesia 50196",JL. KARANGINGAS NO. 6 RT. 003 RW. 007 TLOGOSARI KULON SEMARANG,ok,
5810012362,SDN Semarang,-6.983892099999999,110.4272268,"5810012362 Jl. Karang Wulan Bar. I, Semarang Tengah, Kota Semarang, Jawa Tengah 50135, Indonesia 50135","JL. KARANG WULAN SELATAN NO. 805-B, JAGA LAN SEMARANG TENGAH SEMARANG",ok,
5810012239,SDN Semarang,-6.983766,110.428774,"5810012239 Jl. Karang Wulan Sari II, Semarang Tengah, Kota Semarang, Jawa Tengah 50135, Indonesia 50135",JL. KIMANGUN SARKORO 55 SEMARANG -,ok,
5810011898,SDN Semarang,-6.9701841,110.4946716,"5810011898 Jl. Karangroto, Genuk, Kota Semarang, Jawa Tengah 50117, Indonesia 50117",JL. KARANGROTO RT. 1 RW. 11 BANJARDOWO GENUK SEMARANG,ok,
5810011940,SDN Semarang,-7.0319925,110.4584546,"5810011940 Jl. Kecubung, Tembalang, Kota Semarang, Jawa Tengah 50276, Indonesia 50276",JL. RAYA SAMBIROTO NO. 62 SEMARANG -,ok,
5810032290,SDN Semarang,-7.023571,110.458277,"5810032290 Jl. Kedung Mundu Lama, Tembalang, Kota Semarang, Jawa Tengah 50276, Indonesia 50276",JL. KEDUNGMUNDU NO. 24 LAMPER TENGAH SEMARANG SELATAN SEMARANG,ok,
5810032291,SDN Semarang,-7.0230972,110.4575267,"5810032291 Jl. Kedung Mundu Lama, Tembalang, Kota Semarang, Jawa Tengah 50276, Indonesia 50276",JL. KEDUNGMUNDU RAYA NO. 38 B KEDUNGMUNDU TEMBALANG SEMARANG,ok,
5810011901,SDN Semarang,-7.011108,110.443863,"5810011901 Jl. Kedung Mundu Raya, Semarang Sel., Kota Semarang, Jawa Tengah 50256, Indonesia 50256",JL. KEDUNGMUNDU RAYA RT. 002 RW.004 ( SEBELAH INDOMARET KARANGGAWANG LAMPER,ok,
5810032293,SDN Semarang,-7.0011158,110.404143,"5810032293 Jl. Kelud Utara IV, Gajahmungkur, Kota Semarang, Jawa Tengah 50237, Indonesia 50237",JL. KELUD UTARA NO. 9 ( PKL ) PETOMPON GAJAHMUNGKUR SEMARANG,ok,
5810012322,SDN Semarang,-7.058026,110.435059,"5810012322 Jl. KH Sirajudin, Tembalang, Kota Semarang, Jawa Tengah 50275, Indonesia 50275",JL. JATI MULYO NO. 1 TEMBALANG -,ok,
5810017291,SDN Semarang,-6.998324,110.448553,"5810017291 Jl. Kijang Selatan, Gayamsari, Kota Semarang, Jawa Tengah 50248, Indonesia 50248",PS. GAYAMSARI SEMARANG -,ok,
5810020805,SDN Semarang,-6.998324,110.448553,"5810020805 Jl. Kijang Selatan, Gayamsari, Kota Semarang, Jawa Tengah 50248, Indonesia 50248",PS. GAYAMSARI SEMARANG -,ok,
5810011906,SDN Semarang,-7.0245154,110.497657,"5810011906 Jl. Klp. Gading Raya, Pedurungan, Kota Semarang, Jawa Tengah 50192, Indonesia 50192",JL. ANGGREK BULAN 132 PLAMONGAN -,ok,
5810012218,SDN Semarang,-7.0261616,110.4965891,"5810012218 Jl. Klp. Sawit Raya, Pedurungan, Kota Semarang, Jawa Tengah 50192, Indonesia 50192",JL. KELAPA SAWIT RAYA NO. 412 RT. 04 RW. 007 PLAMONGAN SARI PEDURUNGAN,ok,
5810032234,SDN Semarang,-7.1625508,110.4133781,"5810032234 Jl. Komp. Ps. Babadan, Ungaran Bar., Semarang, Jawa Tengah 50519, Indonesia 50519",PS. BABADAN BLOK B - 3 LANGENSARI UNGARAN BARAT KAB. SEMARANG,ok,
5810032235,SDN Semarang,-7.1625508,110.4133781,"5810032235 Jl. Komp. Ps. Babadan, Ungaran Bar., Semarang, Jawa Tengah 50519, Indonesia 50519",PS. BABADAN LOS SEMBAKO LANGEN SARI UNGARAN KAB SEMARANG,ok,
5810012073,SDN Semarang,-6.987630100000001,110.437159,"5810012073 Jl. Krakatau, Semarang Tim., Kota Semarang, Jawa Tengah 50232, Indonesia 50232",JL. KRAKATAU RAYA 96 SEMARANG -,ok,
5810011788,SDN Semarang,-7.125083,110.4108539,"5810011788 Jl. Kutilang I, Ungaran Bar., Semarang, Jawa Tengah 50517, Indonesia 50517",JL. KUTILANG NO. 5 UNGARAN -,ok,
5810012127,SDN Semarang,-6.97143,110.42642,"5810012127 Jl. Kyai H. Agus Salim No.22-23, Semarang Tengah, Kota Semarang, Jawa Tengah 50137, Indonesia 50137",PS. JOHAR LOS DALAM TENGAH JL. H. AGUS SALIM PUWODINATAN SEMARANG,ok,
5810011938,SDN Semarang,-6.9882815,110.4268274,"5810011938 Jl. Kyai H. Ahmad Dahlan, Semarang Tengah, Kota Semarang, Jawa Tengah 50241, Indonesia 50241",JL. KH. AHMAD DAHLAN SEMARANG -,ok,
5820000972,SDN Semarang,-7.051084,110.417016,"5820000972 Jl. Kyai Mojo, Banyumanik, Kota Semarang, Jawa Tengah 50263, Indonesia 50263",JL. MGR.SOEGIJOPRANOTO 58-60 SEMARANG SE LATAN SEMARANG 50141,not ok,"-6.983638, 110.407468"
5820001041,SDN Semarang,-7.051084,110.417016,"5820001041 Jl. Kyai Mojo, Banyumanik, Kota Semarang, Jawa Tengah 50263, Indonesia 50263",JL. MGR.SOEGIJOPRANOTO 58-60 SEMARANG SE LATAN SEMARANG 50141,not ok,"-6.983638, 110.407468"
5810029451,SDN Semarang,-6.8915576,110.6369649,"5810029451 Jl. Kyai Singkil, Kec. Demak, Demak, Jawa Tengah 59511, Indonesia 59511",JL. KIAI SINGKIL NO. 41 BINTORO DEMAK -,ok,
5810012313,SDN Semarang,-7.0122494,110.3927805,"5810012313 Jl. Lamongan Bar. IX, Gajahmungkur, Kota Semarang, Jawa Tengah 50232, Indonesia 50232",JL. LAMONGAN BARAT IX / 01 SEMARANG -,ok,
5810012356,SDN Semarang,-7.01425,110.396304,"5810012356 Jl. Lamongan, Gajahmungkur, Kota Semarang, Jawa Tengah 50233, Indonesia 50233",JL. LAMONGAN NO. 18 C BENDAN NGISOR GAJAHMUNGKUR SEMARANG,ok,
5810032295,SDN Semarang,-6.966533,110.4220153,"5810032295 Jl. Layur, Semarang Utara, Kota Semarang, Jawa Tengah 50173, Indonesia 50173",JL LAYUR NO. 160 KEL. DADAPSARI KEC. SMG UTARA,ok,
5810034725,SDN Semarang,-7.375321,110.438664,"5810034725 Jl. Magelang-Salatiga, Getasan, Semarang, Jawa Tengah 50774, Indonesia 50774",JL. RAYA SALATIGA - KOPENG KM. 1 NO. 11 GETASAN SALATIGA,ok,
5810012147,SDN Semarang,-6.9710762,110.3061178,"5810012147 Jl. Mangkang Stasiun, Tugu, Kota Semarang, Jawa Tengah 50156, Indonesia 50156",JL. RAYA MANGKANG KM. 15 SEMARANG -,ok,
5810017276,SDN Semarang,-6.961527,110.311108,"5810017276 Jl. Mangkang Wetan-Mangunharjo, Tugu, Kota Semarang, Jawa Tengah 50154, Indonesia 50154",PS. MANGKANG SEMARANG -,not ok,"-6.973357, 110.303324"
5810012325,SDN Semarang,-6.982528,110.429103,"5810012325 Jl. Mangun sarkoro, Semarang Tengah, Kota Semarang, Jawa Tengah 50135, Indonesia 50135",JL. KI MANGUNSARKORO ( SBLH VENTURA GARDEN ),ok,
5810017372,SDN Semarang,-6.9208312, 110.2036343,"5810017372 Jl. Masjid, Kendal, Kendal, Jawa Tengah 51319, Indonesia 51319","KENDAL PERMAI NO. 8,29,30 KENDAL -",ok,
5810032301,SDN Semarang,-7.0179617,110.3892311,"5810032301 Jl. Menoreh Raya No.33, Gajahmungkur, Kota Semarang, Jawa Tengah 50232, Indonesia 50232",PS. SAMPANGAN LT. 2 NO. 94 JL. MENOREH RAYA BENDAN DUWUR GAJAHMUNGKUR SEMARANG,ok,
5810011892,SDN Semarang,-7.011828,110.390827,"5810011892 Jl. Menoreh Raya No.53, Gajahmungkur, Kota Semarang, Jawa Tengah 50232, Indonesia 50232",JL. MENOREH RAYA 50 SEMARANG -,ok,
5810032300,SDN Semarang,-7.0118283,110.3908271,"5810032300 Jl. Menoreh Raya No.53, Gajahmungkur, Kota Semarang, Jawa Tengah 50232, Indonesia 50232",JL. MENOREH RAYA N0. 48 SAMPANGAN GAJAHMUNGKUR SEMARANG,ok,
5810011985,SDN Semarang,-7.0098883,110.3921369,"5810011985 Jl. Menoreh Raya No.53, Gajahmungkur, Kota Semarang, Jawa Tengah 50232, Indonesia 50232",JL. MENOREH TIMUR IV / 26 SEMARANG -,ok,
5810011943,SDN Semarang,-7.0109789,110.3899689,"5810011943 Jl. Menoreh Tengah VII, Gajahmungkur, Kota Semarang, Jawa Tengah 50232, Indonesia 50232",JL. MENOREH - SAMPANGAN SEMARANG ANGAN - GAJAHMUNGKUR SEMARANG - 50236,ok,
5810032302,SDN Semarang,-7.0736199,110.4212829,"5810032302 Jl. Meranti Tim. Dalam IV No.132, Banyumanik, Kota Semarang, Jawa Tengah 50263, Indonesia 50263",JL. MERANTI TIMUR DALAM IV NO. 117 PADANGSARI BANYUMANIK SEMARANG,ok,
5810012238,SDN Semarang,-7.001639,110.470756,"5810012238 Jl. Merpati Dalam, Pedurungan, Kota Semarang, Jawa Tengah 50192, Indonesia 50192",JL. MERPATI DALAM NO. 21 RT. 005 RW. 009 PEDURUNGAN TENGAH SEMARANG,ok,
5810032304,SDN Semarang,-7.2998106,110.4654982,"5810032304 Jl. Mertokusumo, Tuntang, Semarang, Jawa Tengah 50773, Indonesia 50773",JL. MERTOKUSUMO NO. 165 CANDIREJO TUNTANG KAB SEMARANG,ok,
5810032305,SDN Semarang,-7.2998106,110.4654982,"5810032305 Jl. Mertokusumo, Tuntang, Semarang, Jawa Tengah 50773, Indonesia 50773",KOMPLEK PASAR CANDIREJO JL. MERTOKUSUMO TUNTANG KAB. SEMARANG,ok,
5810032327,SDN Semarang,-6.9643885,110.4355787,"5810032327 Jl. Mlatibaru, Semarang Tim., Kota Semarang, Jawa Tengah 50122, Indonesia 50122",JL. RADEN PATAH NO. 282 KEMIJEN SEMARANG TIMUR SEMARANG,ok,
5810020237,SDN Semarang,-7.00289,110.433,"5810020237 Jl. MT. Haryono, Semarang Sel., Kota Semarang, Jawa Tengah 50242, Indonesia 50242",PS. PETERONGAN LOS BELAKANG SEMARANG SEMARANG,ok,
5810024537,SDN Semarang,-7.00289,110.433,"5810024537 Jl. MT. Haryono, Semarang Sel., Kota Semarang, Jawa Tengah 50242, Indonesia 50242",PS. PETERONGAN LOS KOPLAK SELATAN SEMARANG,ok,
5810011879,SDN Semarang,-6.989793,110.414769,"5810011879 Jl. Mugas Bar. IX, Semarang Sel., Kota Semarang, Jawa Tengah 50249, Indonesia 50249",JL. A. YANI WINONG,not ok,
5810011480,SDN Semarang,-7.3357803,110.4881426,"5810011480 Jl. Nakula Sadewa, Sidomukti, Kota Salatiga, Jawa Tengah 50722, Indonesia 50722",JL. NAKULA SADEWA I NO. 3 SIDOMUKTI SALA TIGA 50722,ok,
5810022219,SDN Semarang,-6.989882,110.358542,"5810022219 Jl. Ngaliyan, Ngaliyan, Kota Semarang, Jawa Tengah 50184, Indonesia 50184",GATOT SUBROTO BLOK D PURWOYOSO NGALIYAN SEMARANG,not ok,"-7.009191, 110.370680"
5810032310,SDN Semarang,-7.047825,110.4180747,"5810032310 Jl. Ngesrep Bar. V, Banyumanik, Kota Semarang, Jawa Tengah 50263, Indonesia 50263",JL. NGESREP BARAT III NO 44 SRONDOL KULON BANYUMANIK SEMARANG,ok,
5810012095,SDN Semarang,-6.9963809,110.3462177,"5810012095 Jl. Nusa Indah I, Ngaliyan, Kota Semarang, Jawa Tengah 50185, Indonesia 50185",JL. NUSA INDAH NGALIYAN SEMARANG -,ok,
5810017257,SDN Semarang,-7.220084, 110.360729,"5810017257 Jl. Nusa Indah, Bandungan, Semarang, Jawa Tengah 50614, Indonesia 50614",BANDUNGAN -,ok,
5810035228,SDN Semarang,-7.223221,110.322945,"5810035228 Jl. P.Diponegoro, Sumowono, Semarang, Jawa Tengah 50662, Indonesia 50662",JL. PALAGAN NO. 30 SUMOWONO KAB. SEMARANG,ok,
5810022791,SDN Semarang,-7.004576,110.466201,"5810022791 Jl. Palebon VIII No.8, Pedurungan, Kota Semarang, Jawa Tengah 50246, Indonesia 50246",PS. GAYAM B-12 PALEBON SEMARANG -,not ok,
5810011979,SDN Semarang,-6.9842917,110.4587852,"5810011979 Jl. Parang Kesit Raya, Pedurungan, Kota Semarang, Jawa Tengah 50196, Indonesia 50196",JL. PARANG KESIT NO. 25 RT. 011 RW. 005 TLOGOSARI KULON SEMARANG,ok,
5810020750,SDN Semarang,-6.986969,110.458029,"5810020750 Jl. Parang Kusumo Raya, Pedurungan, Kota Semarang, Jawa Tengah 50196, Indonesia 50196",PARANG KUSUMO SQUARE KAV. I TLOGOSARI SEMARANG,ok,
5810022771,SDN Semarang,-6.979871,110.394926,"5810022771 Jl. Pasar Karang Ayu, Semarang Bar., Kota Semarang, Jawa Tengah 50149, Indonesia 50149",PS. KARANG AYU BLOK B 6 SEMARANG -,ok,
5810017292,SDN Semarang,-6.979871,110.394926,"5810017292 Jl. Pasar Karang Ayu, Semarang Bar., Kota Semarang, Jawa Tengah 50149, Indonesia 50149",PS. KARANG AYU BLOK TENGAH SEMARANG -,ok,
5810017265,SDN Semarang,-6.9798706,110.394926,"5810017265 Jl. Pasar Karang Ayu, Semarang Bar., Kota Semarang, Jawa Tengah 50149, Indonesia 50149",PS. KARANG AYU SEMARANG -,ok,
5810017224,SDN Semarang,-6.9798706,110.394926,"5810017224 Jl. Pasar Karang Ayu, Semarang Bar., Kota Semarang, Jawa Tengah 50149, Indonesia 50149",PS. KARANG AYU SEMARANG -,ok,
5810034287,SDN Semarang,-6.9798706,110.394926,"5810034287 Jl. Pasar Karang Ayu, Semarang Bar., Kota Semarang, Jawa Tengah 50149, Indonesia 50149",PS. KARANGAYU LOS SAMPING SEMARANG BARAT SEMARANG,ok,
5810021966,SDN Semarang,-6.979871,110.394926,"5810021966 Jl. Pasar Karang Ayu, Semarang Bar., Kota Semarang, Jawa Tengah 50149, Indonesia 50149",PS. KARANGAYU LOS TENGAH NO. 2 KARANGAYU SEMARANG,ok,
5810017246,SDN Semarang,-6.9798706,110.394926,"5810017246 Jl. Pasar Karang Ayu, Semarang Bar., Kota Semarang, Jawa Tengah 50149, Indonesia 50149",PS. KARANGAYU SEMARANG -,ok,
5810017234,SDN Semarang,-6.9798706,110.394926,"5810017234 Jl. Pasar Karang Ayu, Semarang Bar., Kota Semarang, Jawa Tengah 50149, Indonesia 50149",PS. KR. AYU SEMARANG -,ok,
5810017318,SDN Semarang,-6.9798706,110.394926,"5810017318 Jl. Pasar Karang Ayu, Semarang Bar., Kota Semarang, Jawa Tengah 50149, Indonesia 50149",PS. KR.AYU B5/12 SEMARANG -,ok,
5810017321,SDN Semarang,-6.9798706,110.394926,"5810017321 Jl. Pasar Karang Ayu, Semarang Bar., Kota Semarang, Jawa Tengah 50149, Indonesia 50149",PS. KR.AYU SEMARANG -,ok,
5810031006,SDN Semarang,-7.089754,110.041515,"5810031006 Jl. Pasar, Sukorejo, Kendal, Jawa Tengah 51363, Indonesia 51363",PS. SUKOREJO BELAKANG NO. 2 SUKOREJO KENDAL,ok,
5810012241,SDN Semarang,-6.962067,110.408037,"5810012241 Jl. Pasir Mas 2, Semarang Utara, Kota Semarang, Jawa Tengah 50177, Indonesia 50177",JL. PANGGUNG MAS RAYA B 101 PANGGUNG LOR SEMARANG UTARA,ok,
5810012276,SDN Semarang,-6.9627738,110.4068383,"5810012276 Jl. Pasir Mas Selatan, Semarang Utara, Kota Semarang, Jawa Tengah 50177, Indonesia 50177",JL. PASIR MAS SELATAN B - 59 TANAH MAS SEMARANG,ok,
5810031010,SDN Semarang,-7.1040005,110.272907,"5810031010 Jl. Patean - Boja, Boja, Kendal, Jawa Tengah 51381, Indonesia 51381",JL. BEBENGAN - BOJA NO. 345 BOJA KENDAL -,ok,
5810022425,SDN Semarang,-7.1040005,110.272907,"5810022425 Jl. Patean - Boja, Boja, Kendal, Jawa Tengah 51381, Indonesia 51381",PS BOJA BLOK C1 BOJA KENDAL / DS GEDANGAN RT 07 RW 06 BOJA KENDAL,ok,
5810022466,SDN Semarang,-7.1040005,110.272907,"5810022466 Jl. Patean - Boja, Boja, Kendal, Jawa Tengah 51381, Indonesia 51381",PS BOJA LOS DALAM DESA BABANGAN  BOJA KENDAL,ok,
5810006017,SDN Semarang,-7.1040005,110.272907,"5810006017 Jl. Patean - Boja, Boja, Kendal, Jawa Tengah 51381, Indonesia 51381",PS. BOJA BLOK D JL. RAYA BOJA - KENDAL -,ok,
5810006032,SDN Semarang,-7.1040005,110.272907,"5810006032 Jl. Patean - Boja, Boja, Kendal, Jawa Tengah 51381, Indonesia 51381",PS. BOJA BLOK K 31-33 JL. RAYA BOJA - KENDAL,ok,
5810035438,SDN Semarang,-6.961908,110.152331,"5810035438 Jl. Patebon - Pegandon, Pegandon, Kendal, Jawa Tengah 51357, Indonesia 51357",PS. PEGANDON LOS TENGAH NO. 5 PENANGGULAN PEGANDON KENDAL,ok,
5810011498,SDN Semarang,-7.310713,110.506827,"5810011498 Jl. Patimura, Sidorejo, Kota Salatiga, Jawa Tengah 50712, Indonesia 50712",JL. PATTIMURA RT. 04 RW. 04 BUGEL SALATIGA,ok,
5810017227,SDN Semarang,-7.118556,110.403779,"5810017227 Jl. Patimura, Ungaran Bar., Semarang, Jawa Tengah 50511, Indonesia 50511",KOMPLEK DALAM PASARN MANAS BLOK A NO. 3 KEDUNG WULUNG PURWOKERTO BARAT,not ok,
5810020276,SDN Semarang,-7.2572586,110.403825,"5810020276 Jl. Patoman, Ambarawa, Semarang, Jawa Tengah 50613, Indonesia 50613",PS. AMBARAWA LOS DEPAN B-4 KUPANG AMBARAWA,ok,
5810012181,SDN Semarang,-6.985963,110.415797,"5810012181 Jl. Pekunden Tengah, Semarang Tengah, Kota Semarang, Jawa Tengah 50241, Indonesia 50241",JL. PEKUNDEN TENGAH NO. 1027 C RT. 006 RW. 002 PEKUNDEN SEMARANG TENGAH,ok,
5810011529,SDN Semarang,-7.327302,110.5018349,"5810011529 Jl. Pemotongan No.92, Sidorejo, Kota Salatiga, Jawa Tengah 50711, Indonesia 50711",JL. PEMOTONGAN NO. 86 RT. 05 RW. 03 SIDOREJO SALATIGA,ok,
5810002431,SDN Semarang,-6.889751,110.637028,"5810002431 Jl. Pemuda, Kec. Demak, Demak, Jawa Tengah 59511, Indonesia 59511",JL. PEMUDA 106 DEMAK -,ok,
5810002450,SDN Semarang,-6.8898401,110.6374869,"5810002450 Jl. Pemuda, Kec. Demak, Demak, Jawa Tengah 59511, Indonesia 59511",JL. PEMUDA BINTORO - DEMAK -,ok,
5810012249,SDN Semarang,-6.9764038,110.4175709,"5810012249 Jl. Pemuda, Semarang Tengah, Kota Semarang, Jawa Tengah 50139, Indonesia 50139",JL. PEMUDA NO. 76 RT. 008 RW. 002 KEMBAN GSARI SEMARANG TENGAH JATENG,ok,
5810032316,SDN Semarang,-6.9663604,110.4188386,"5810032316 Jl. Petek, Semarang Utara, Kota Semarang, Jawa Tengah 50173, Indonesia 50173",JL. PETEK NO. 101 DADAPSARI SEMARANG UTARA SEMARANG,ok,
5810034828,SDN Semarang,-6.9678435,110.4199887,"5810034828 Jl. Petek, Semarang Utara, Kota Semarang, Jawa Tengah 50173, Indonesia 50173",JL. PETEK NO. 138 KUNINGAN SEMARANG UTARA SEMARANG,ok,
5810022079,SDN Semarang,-7.001952,110.435603,"5810022079 Jl. Peterongan Raya, Semarang Sel., Kota Semarang, Jawa Tengah 50242, Indonesia 50242",PS. PETERONGAN LOS BELAKANG DEPAN PETERONGAN SEMARANG SELATAN SEMARANG,ok,
5810019610,SDN Semarang,-7.001952,110.435603,"5810019610 Jl. Peterongan Raya, Semarang Sel., Kota Semarang, Jawa Tengah 50242, Indonesia 50242",PS. PETERONGAN LOS BELAKANG SEMARANG SEMARANG,ok,
5810032317,SDN Semarang,-7.0031157,110.434763,"5810032317 Jl. Peterongan Tengah, Semarang Sel., Kota Semarang, Jawa Tengah 50242, Indonesia 50242",JL. PETERONGAN TENGAH NO. 10 ( BLK PS. PETERONGAN ) SEMARANG SELATAN SEMARANG,ok,
5810012279,SDN Semarang,-6.9758641,110.4227652,"5810012279 Jl. Plampitan, Semarang Tengah, Kota Semarang, Jawa Tengah 50139, Indonesia 50139",JL. K.H. WAHID HASYIM SEMARANG   SEMARAN G,ok,
5820000736,SDN Semarang,-7.057235,110.414907,"5820000736 Jl. Potrosari I, Banyumanik, Kota Semarang, Jawa Tengah 50263, Indonesia 50263",JL. JEND. POLISI ANTON SUJARWO NO. 119 S RONDOL KULON BANYUMANIK SEMARANG,ok,
5810011893,SDN Semarang,-7.1045742,110.4068487,"5810011893 Jl. Pramuka, Banyumanik, Kota Semarang, Jawa Tengah 50265, Indonesia 50265",JL. PRAMUKA NO 4 PUDAKPAYUNG SMG -,ok,
5810011789,SDN Semarang,-6.9824936,110.4274504,"5810011789 Jl. Pringgading I, Semarang Tengah, Kota Semarang, Jawa Tengah 50135, Indonesia 50135",JL. PRINGGADING NO. 18 RT. 004 RW. 001 BRUMBUNGAN SEMARANG,ok,
5810012334,SDN Semarang,-6.9832914,110.4287979,"5810012334 Jl. Pringgading, Semarang Tengah, Kota Semarang, Jawa Tengah 50135, Indonesia 50135",JL. PRINGGADING RAYA NO. 110 SEMARANG -,ok,
5810032319,SDN Semarang,-6.9742723,110.395708,"5810032319 Jl. Pringgodani Raya, Semarang Bar., Kota Semarang, Jawa Tengah 50141, Indonesia 50141",JL. PRINGGODANI RAYA NO 14 KROBOKAN SEMARANG BARAT SEMARANG,ok,
5810011871,SDN Semarang,-6.9718236,110.4243547,"5810011871 Jl. Ps. Johar, Semarang Tengah, Kota Semarang, Jawa Tengah 50188, Indonesia 50188",JL. PASAR JOHAR TENGAH -,ok,
5810029453,SDN Semarang,-7.0376198,110.4908253,"5810029453 Jl. Pucang Gading Raya, Mranggen, Demak, Jawa Tengah 59567, Indonesia 59567",JL PUCANG GADING RAYA NO 118 BATURSARI MRNGGEN KAB DEMAK ( sebelah toko 29 ),ok,
5810002485,SDN Semarang,-7.038659,110.491456,"5810002485 Jl. Pucang Gading Raya, Mranggen, Demak, Jawa Tengah 59567, Indonesia 59567",JL. PUCANG GADING RAYA 150 SEMARANG -,ok,
5810002426,SDN Semarang,-7.0376198,110.4908253,"5810002426 Jl. Pucang Gading Raya, Mranggen, Demak, Jawa Tengah 59567, Indonesia 59567","PUCANGGADING RAYA NO. 17 RT 004 RW 009, KEL. BATUR SARI KEC. MRANGGEN DEMAK JAWA",ok,
5810011814,SDN Semarang,-6.969988,110.38622,"5810011814 Jl. Puri Anjasmoro, Semarang Bar., Kota Semarang, Jawa Tengah 50144, Indonesia 50144",JL. ANJASMORO B I/14 SEMARANG -,ok,
5810011961,SDN Semarang,-6.969988,110.38622,"5810011961 Jl. Puri Anjasmoro, Semarang Bar., Kota Semarang, Jawa Tengah 50144, Indonesia 50144",JL. PURI ANJASMORO  B I / 19 SEMARANG -,ok,
5810011962,SDN Semarang,-6.969988,110.38622,"5810011962 Jl. Puri Anjasmoro, Semarang Bar., Kota Semarang, Jawa Tengah 50144, Indonesia 50144",JL. PURI ANJASMORO B1 NO.19 SEMARANG -,ok,
5810011888,SDN Semarang,-6.969988,110.38622,"5810011888 Jl. Puri Anjasmoro, Semarang Bar., Kota Semarang, Jawa Tengah 50144, Indonesia 50144",JL. PURI ANJASMORO M4/15 SEMARANG -,ok,
5810011895,SDN Semarang,-6.969988,110.38622,"5810011895 Jl. Puri Anjasmoro, Semarang Bar., Kota Semarang, Jawa Tengah 50144, Indonesia 50144",JL. PURI ANJASMORO NO.11 SEMARANG -,ok,
5820000747,SDN Semarang,-6.969988,110.38622,"5820000747 Jl. Puri Anjasmoro, Semarang Bar., Kota Semarang, Jawa Tengah 50144, Indonesia 50144","KO.BINTARO KOMERSIAL CBD SEKTOR VII B.7/ A.7 RT/RW 003/02, PONDOK AREN, TANGERANG",not ok,
5810019125,SDN Semarang,-6.98777,110.363125,"5810019125 Jl. Purwoyoso 1, Ngaliyan, Kota Semarang, Jawa Tengah 50184, Indonesia 50184",SEMARANG BARAT SEMARANG -,ok,
5810032323,SDN Semarang,-6.9894149,110.4009163,"5810032323 Jl. Puspanjolo Selatan, Semarang Bar., Kota Semarang, Jawa Tengah 50141, Indonesia 50141",JL PUSPANJOLO SELATAN NO 110 KEL BOJONG SALAMAN KEC SEMARANG BARAT,ok,
5810012082,SDN Semarang,-6.987240000000001,110.3947038,"5810012082 Jl. Puspowarno Sel., Semarang Bar., Kota Semarang, Jawa Tengah 50149, Indonesia 50149",JL. PUSPOGIWANG BARAT RAYA SEMARANG -,ok,
5810011942,SDN Semarang,-6.9899171,110.3955116,"5810011942 Jl. Puspowarno, Semarang Bar., Kota Semarang, Jawa Tengah 50148, Indonesia 50148",JL. PUSPUWARNO NO. 55-D BONGSARI SEMARANG,ok,
5810032325,SDN Semarang,-6.9857355,110.3964846,"5810032325 Jl. Puspowarno, Semarang Bar., Kota Semarang, Jawa Tengah 50149, Indonesia 50149",JL. PUSPOWARNO 10 NO. 35 KEL SALAMAN MLOYO KEC. SEMARANG BARAT,ok,
5810032326,SDN Semarang,-6.9857355,110.3964846,"5810032326 Jl. Puspowarno, Semarang Bar., Kota Semarang, Jawa Tengah 50149, Indonesia 50149",JL. PUSPOWARNO RAYA NO. 45 SALAMAN MLOYO SEMARANG,ok,
5810012130,SDN Semarang,-6.987204,110.396507,"5810012130 Jl. Puspowarno, Semarang Bar., Kota Semarang, Jawa Tengah 50149, Indonesia 50149",JL. PUSPOWARNO VIII NO. 23 RT. 003 RW. 004 BOJONG SALAMAN SEMARANG,ok,
5810011920,SDN Semarang,-6.985427,110.433478,"5810011920 Jl. RA. Kartini, Semarang Tim., Kota Semarang, Jawa Tengah 50124, Indonesia 50124",JL. KARTINI RAYA NO 21 SEMARANG -,ok,
5810017302,SDN Semarang,-6.988167,110.413667,"5810017302 Jl. Randusari Pos III, Semarang Sel., Kota Semarang, Jawa Tengah 50244, Indonesia 50244",PS. RANDUSARI SEMARANG -,ok,
5810012138,SDN Semarang,-7.069097,110.41698,"5810012138 Jl. Rasamala Raya, Banyumanik, Kota Semarang, Jawa Tengah 50263, Indonesia 50263",PS. RASAMALA LOS DEPAN NO. 3 JL. RAYA RASAMALA BANYUMANIK SEMARANG,ok,
5810017266,SDN Semarang,-7.069766,110.417084,"5810017266 Jl. Rasamala Raya, Banyumanik, Kota Semarang, Jawa Tengah 50263, Indonesia 50263",PS. RASAMALA SEMARANG -,ok,
5810017240,SDN Semarang,-7.069766,110.417084,"5810017240 Jl. Rasamala Raya, Banyumanik, Kota Semarang, Jawa Tengah 50263, Indonesia 50263",PS. RASAMALA SEMARANG -,ok,
5810017319,SDN Semarang,-7.069766,110.417084,"5810017319 Jl. Rasamala Raya, Banyumanik, Kota Semarang, Jawa Tengah 50263, Indonesia 50263",PS. RASAMALA SEMARANG -,ok,
5810017282,SDN Semarang,-7.069766,110.417084,"5810017282 Jl. Rasamala Raya, Banyumanik, Kota Semarang, Jawa Tengah 50263, Indonesia 50263",PS. RASAMALA SEMARANG -,ok,
5810017355,SDN Semarang,-7.069766,110.417084,"5810017355 Jl. Rasamala Raya, Banyumanik, Kota Semarang, Jawa Tengah 50263, Indonesia 50263",PS. RASAMALA SEMARANG -,ok,
5810032328,SDN Semarang,-7.0705676,110.4172077,"5810032328 Jl. Rasamala Tim. III No.9, Banyumanik, Kota Semarang, Jawa Tengah 50263, Indonesia 50263",JL. RASAMALA ( SAMPING ENGGAL JAYA) NO. 18 KEL. SRONDOL WETAN KEC. BANYUMANIK,ok,
5810029456,SDN Semarang,-7.0225143,110.5033544,"5810029456 Jl. Raya Bandung Rejo Mraggen, Mranggen, Demak, Jawa Tengah 59567, Indonesia 59567",JL. RAYA BANDUNGREJO NO. 64 BANDUNGREJO MRANGGEN DEMAK,ok,
5810011923,SDN Semarang,-6.9828234,110.4763212,"5810011923 Jl. Raya Bangetayu, Genuk, Kota Semarang, Jawa Tengah 50115, Indonesia 50115",JL. RAYA BANGETAYU BANGETAYU KULON SEMARANG,ok,
5810022788,SDN Semarang,-6.982757,110.476972,"5810022788 Jl. Raya Bangetayu, Genuk, Kota Semarang, Jawa Tengah 50115, Indonesia 50115",PS BANGETAYU LOS DEPAN 1 POJOK SELATAN #NAME?,ok,
5810027960,SDN Semarang,-6.982757,110.476972,"5810027960 Jl. Raya Bangetayu, Genuk, Kota Semarang, Jawa Tengah 50115, Indonesia 50115",RUKO STASIUN ALAS TUA NO 36 BANGETAYU WETAN GENUK SEMARANG,ok,
5810012143,SDN Semarang,-7.247178,110.4296,"5810012143 Jl. Raya Bawen-Ambarawa, Bawen, Semarang, Jawa Tengah 50661, Indonesia 50661",PS. HARJOSARI BLOK D NO. 6 JL. RAYA BAWEN UNGARAN,ok,
5810011954,SDN Semarang,-7.091198,110.35827,"5810011954 Jl. Raya Cangkiran-Gunungpati, Gn. Pati, Kota Semarang, Jawa Tengah 50229, Indonesia 50229",JL. PATEMON RAYA RT. 01 RW. 03 GUNUNG PATI SEMARANG,not ok,"-7.064792, 110.396177"
5810021959,SDN Semarang,-7.091106,110.356106,"5810021959 Jl. Raya Cangkiran-Gunungpati, Gn. Pati, Kota Semarang, Jawa Tengah 50229, Indonesia 50229",KANDRI RT. 002 RW. 001 GUNUNG PATI SEMARANG,ok,
5810019155,SDN Semarang,-7.091106,110.356106,"5810019155 Jl. Raya Cangkiran-Gunungpati, Gn. Pati, Kota Semarang, Jawa Tengah 50229, Indonesia 50229",PASAR GUNUNG PATI SEMARANG -,ok,
5810034277,SDN Semarang,-7.091106,110.356106,"5810034277 Jl. Raya Cangkiran-Gunungpati, Gn. Pati, Kota Semarang, Jawa Tengah 50229, Indonesia 50229",PS GUNUNG PATI LOS DALAM KEL / DESA KLIWONAN KEC GUNUNG PATI,ok,
5810021739,SDN Semarang,-7.091106,110.356106,"5810021739 Jl. Raya Cangkiran-Gunungpati, Gn. Pati, Kota Semarang, Jawa Tengah 50229, Indonesia 50229",PS. GUNUNG PATI GUNUNG PATI SEMARANG -,ok,
5810036735,SDN Semarang,-7.097122,110.067992,"5810036735 Jl. Raya Curugsewu, Patean, Kendal, Jawa Tengah 51364, Indonesia 51364",JL. CURUGSEWU RT. 03 RW. 03 NO. 10 CURUGSEWU PATEAN KENDAL,ok,
5810036803,SDN Semarang,-7.097122,110.067992,"5810036803 Jl. Raya Curugsewu, Patean, Kendal, Jawa Tengah 51364, Indonesia 51364",JL. RAYA CURUGSEWU - PATEAN NO. 9 RT. 03 RW. 03 CURUGSEWU PATEAN KENDAL,ok,
5810034031,SDN Semarang,-6.871729,110.724822,"5810034031 Jl. Raya Demak - Kudus, Gajah, Demak, Jawa Tengah 59581, Indonesia 59581",PASAR GAJAH LOS DPN JALAN DEMAK - KUDUS KEL GAJAH KEC GAJAH KAB DEMAK,ok,
5810022203,SDN Semarang,-6.888483,110.647524,"5810022203 Jl. Raya Demak - Kudus, Kec. Demak, Demak, Jawa Tengah 59511, Indonesia 59511",PS BINTORO - DEMAK DEMAK,ok,
5810021580,SDN Semarang,-6.888483,110.647524,"5810021580 Jl. Raya Demak - Kudus, Kec. Demak, Demak, Jawa Tengah 59511, Indonesia 59511",PS BINTORO - DEMAK DEMAK,ok,
5810020437,SDN Semarang,-6.888483,110.647524,"5810020437 Jl. Raya Demak - Kudus, Kec. Demak, Demak, Jawa Tengah 59511, Indonesia 59511",PS. BINTORO ATAS BLOK I NO. 20-21 BINTORO DEMAK,ok,
5810021228,SDN Semarang,-6.888483,110.647524,"5810021228 Jl. Raya Demak - Kudus, Kec. Demak, Demak, Jawa Tengah 59511, Indonesia 59511",PS. BINTORO BLOK H NO. 216 - 217 DEMAK DEMAK,ok,
5810022171,SDN Semarang,-6.888483,110.647524,"5810022171 Jl. Raya Demak - Kudus, Kec. Demak, Demak, Jawa Tengah 59511, Indonesia 59511",PS. BINTORO BLOK I NO. 103 DEMAK DEMAK,ok,
5810021100,SDN Semarang,-6.888483,110.647524,"5810021100 Jl. Raya Demak - Kudus, Kec. Demak, Demak, Jawa Tengah 59511, Indonesia 59511",PS. BINTORO BLOK J NO. 30 LANTAI ATAS BINTORO DEMAK,ok,
5810022455,SDN Semarang,-6.888483,110.647524,"5810022455 Jl. Raya Demak - Kudus, Kec. Demak, Demak, Jawa Tengah 59511, Indonesia 59511",PS. BINTORO LOS ATAS B2 - 19 BINTORO DEMAK,ok,
5810022426,SDN Semarang,-6.888483,110.647524,"5810022426 Jl. Raya Demak - Kudus, Kec. Demak, Demak, Jawa Tengah 59511, Indonesia 59511",PS. BINTORO LOS ATAS BLOK F2 NO. 2-3 BINTORO DEMAK,ok,
5810005507,SDN Semarang,-6.960221,110.253118,"5810005507 Jl. Raya Kaliwungu - Kendal, Kaliwungu, Kendal, Jawa Tengah 51372, Indonesia 51372",JL. RAYA KALIWUNGU 176 KALIWUNGU KENDAL -,ok,
5810006011,SDN Semarang,-6.955869,110.248722,"5810006011 Jl. Raya Kaliwungu - Kendal, Kaliwungu, Kendal, Jawa Tengah 51372, Indonesia 51372",PS. PAGI KALIWUNGU JL. SARIREJO RT. 03 RW. 006 KALIWUNGU KENDAL,ok,
5810012271,SDN Semarang,-7.057607699999999,110.3608003,"5810012271 Jl. Raya Manyaran-Gunungpati, Gn. Pati, Kota Semarang, Jawa Tengah 50222, Indonesia 50222",JL. RAYA MANYARAN KM 11 SEMARANG -,ok,
5810035334,SDN Semarang,-7.066179,110.358962,"5810035334 Jl. Raya Manyaran-Gunungpati, Gn. Pati, Kota Semarang, Jawa Tengah, Indonesia None",JL. RAYA MANYARAN - GUNUNGPATI RUKO NO. 4 NONGKO SAWIT GUNUNGPATI SEMARANG,ok,
5810017236,SDN Semarang,-7.025022,110.511916,"5810017236 Jl. Raya Mranggen No.17, Mranggen, Demak, Jawa Tengah 59567, Indonesia 59567",PS. MRANGGEN LOS TENGAH DEMAK DEMAK,ok,
5810029443,SDN Semarang,-7.0250826,110.5125995,"5810029443 Jl. Raya Mranggen No.29, Mranggen, Demak, Jawa Tengah 59567, Indonesia 59567",PS. MRANGGEN BLOK B / 1 MRANGGEN DEMAK -,ok,
5810029442,SDN Semarang,-7.0250826,110.5125995,"5810029442 Jl. Raya Mranggen No.29, Mranggen, Demak, Jawa Tengah 59567, Indonesia 59567",PS. MRANGGEN BLOK C / 42 MRANGGEN DEMAK -,ok,
5810029444,SDN Semarang,-7.0250826,110.5125995,"5810029444 Jl. Raya Mranggen No.29, Mranggen, Demak, Jawa Tengah 59567, Indonesia 59567",PS. MRANGGEN BLOK E / 100 MRANGGEN -,ok,
5810029441,SDN Semarang,-7.02508259999999, 110.5125995,"5810029441 Jl. Raya Mranggen No.29, Mranggen, Demak, Jawa Tengah 59567, Indonesia 59567",PS. MRANGGEN BLOK G NO. 2 MRANGGEN -,ok,
5810029445,SDN Semarang,-7.0250826,110.5125995,"5810029445 Jl. Raya Mranggen No.29, Mranggen, Demak, Jawa Tengah 59567, Indonesia 59567",PS. MRANGGEN LOS SEMBAKO MRANGGEN DEMAK -,ok,
5810002490,SDN Semarang,-7.0254437,110.5140026,"5810002490 Jl. Raya Mranggen No.31, Mranggen, Demak, Jawa Tengah 59567, Indonesia 59567",YOGYA .  DS MRANGGEN DEMAK JAWA TENGAH,ok,
5810012341,SDN Semarang,-6.9986445,110.3438887,"5810012341 Jl. Raya Ngaliyan, Ngaliyan, Kota Semarang, Jawa Tengah 50181, Indonesia 50181",JL. RAYA NGALIYAN NO.38 PURWOYOSO SEMARA NG 50184,ok,
5810012319,SDN Semarang,-6.997033,110.346465,"5810012319 Jl. Raya Ngaliyan, Ngaliyan, Kota Semarang, Jawa Tengah 50185, Indonesia 50185",AREA PARKIR BELAKANG ANEKA JAYA NGALIYAN JL. RAYA NGALIYAN NO.38,ok,
5810040870,SDN Semarang,-6.9978434,110.3455564,"5810040870 Jl. Raya Ngaliyan, Ngaliyan, Kota Semarang, Jawa Tengah 50185, Indonesia 50185",JL. NGALIYAN DR. HAMKA SEMARANG -,ok,
5810029460,SDN Semarang,-6.8019174,110.615838,"5810029460 Jl. Raya Ngawen Wedung, Wedung, Demak, Jawa Tengah 59554, Indonesia 59554",JL. RAYA NGAWEN - WEDUNG NO. 18 KEL. NGAWEN KEC. WEDUNG DEMAK,ok,
5810017309,SDN Semarang,-6.91999,110.198983,"5810017309 Jl. Raya Soekarno - Hatta No.303, Kendal, Kendal, Jawa Tengah 51313, Indonesia 51313",PS. KENDAL A21 KENDAL -,ok,
5810034186,SDN Semarang,-7.3198821,110.4660095,"5810034186 Jl. Raya Sraten, Tuntang, Semarang, Jawa Tengah 50773, Indonesia 50773",JL. RAYA SERATEN JOMBOR TUNTANG KAB. SEMARANG,ok,
5810011969,SDN Semarang,-7.226261,110.430958,"5810011969 Jl. Raya Suruh - Karanggede, Bawen, Semarang, Jawa Tengah 50661, Indonesia 50661",JL. SUKARNO HATTA KM. 32 BAWEN -,ok,
5810011974,SDN Semarang,-7.0010982,110.4178726,"5810011974 Jl. Raya Suruh - Karanggede, Gajahmungkur, Kota Semarang, Jawa Tengah 50614, Indonesia 50614",JL. DIPONEGORO NO. 43 A RT. 01 RW. 08 LEMPONGSARI GAJAHMUNGKUR SEMARANG,ok,
5810012185,SDN Semarang,-6.986385899999999,110.3752506,"5810012185 Jl. Raya Suruh - Karanggede, Semarang Bar., Kota Semarang, Jawa Tengah 50146, Indonesia 50146",JL. SILIWANGI RAYA NO. 1 KROBOKAN SEMARANG BARAT SEMARANG,ok,
5820000746,SDN Semarang,-6.982311,110.392485,"5820000746 Jl. Raya Suruh - Karanggede, Semarang Bar., Kota Semarang, Jawa Tengah 50149, Indonesia 50149","KO.BINTARO KOMERSIAL CBD SEKTOR VII B.7/ A.7 RT/RW 003/02, PONDOK AREN, TANGERANG",not ok,
5810019040,SDN Semarang,-6.99039,110.424065,"5810019040 Jl. Raya Suruh - Karanggede, Semarang Sel., Kota Semarang, Jawa Tengah 50241, Indonesia 50241",PLAZA SIMPANG LIMA LT IV -,ok,
5810020671,SDN Semarang,-7.3277503, 110.5047178,"5810020671 Jl. Raya Suruh - Karanggede, Sidomukti, Kota Salatiga, Jawa Tengah 50724, Indonesia 50724",PS. RAYA SALATIGA -,ok,
5810011536,SDN Semarang,-7.338597900000001,110.5078636,"5810011536 Jl. Raya Suruh - Karanggede, Tingkir, Kota Salatiga, Jawa Tengah 50743, Indonesia 50743",JL. JEND. SUDIRMAN NO. 2 RT. 002 RW. 002 GENDONGAN TINGKIR SALATIGA,ok,
5820000720,SDN Semarang,-7.338597900000001,110.5078636,"5820000720 Jl. Raya Suruh - Karanggede, Tingkir, Kota Salatiga, Jawa Tengah 50743, Indonesia 50743",JL. JENDRAL SUDIRMAN RT. 002 RW. 004 GEN DONGAN TINGKIR SALATIGA,ok,
5810011808,SDN Semarang,-7.130927,110.40406,"5810011808 Jl. Raya Suruh - Karanggede, Ungaran Bar., Semarang, Jawa Tengah 50511, Indonesia 50511",JL. DIPONEGORO 269 UNGARAN -,ok,
5810011905,SDN Semarang,-7.130927,110.40406,"5810011905 Jl. Raya Suruh - Karanggede, Ungaran Bar., Semarang, Jawa Tengah 50511, Indonesia 50511",JL. DIPONEGORO PO BOX 108 235 GENUK  UN GARAN,ok,
5810012023,SDN Semarang,-6.983480399999999,110.3497038,"5810012023 Jl. Raya Wali Songo No.43, Tugu, Kota Semarang, Jawa Tengah 50185, Indonesia 50185",JL. WALISONGO KM. 10 SEMARANG -,ok,
5810021960,SDN Semarang,-6.797481,110.612062,"5810021960 Jl. Raya Wedung, Wedung, Demak, Jawa Tengah 59554, Indonesia 59554",BERAHAN WETAN RT. 006 RW. 004 BERAHAN WETAN WEDUNG DEMAK,ok,
5810029463,SDN Semarang,-6.7974811,110.612062,"5810029463 Jl. Raya Wedung, Wedung, Demak, Jawa Tengah 59554, Indonesia 59554",PS. WEDUNG LOS DEPAN JL. RAYA WEDUNG KEL. WEDUNG KEC. WEDUNG DEMAK,ok,
5810029462,SDN Semarang,-6.7974811,110.612062,"5810029462 Jl. Raya Wedung, Wedung, Demak, Jawa Tengah 59554, Indonesia 59554",PS. WEDUNG LOS DEPAN JL. RAYA WEDUNG KEL. WEDUNG KEC. WEDUNG DEMAK,ok,
5810020977,SDN Semarang,-7.055401,110.315152,"5810020977 Jl. Rm. Hadi Soebeno Raya, Mijen, Kota Semarang, Jawa Tengah 50215, Indonesia 50215",JATISARI MIJEN SEMARANG -,ok,
5810022780,SDN Semarang,-7.055401,110.315152,"5810022780 Jl. Rm. Hadi Soebeno Raya, Mijen, Kota Semarang, Jawa Tengah 50215, Indonesia 50215",PERUM GRIYA MIJEN PERMAI BLOK E NO 2 MIJEN SMG,ok,
5810012131,SDN Semarang,-7.055401,110.315152,"5810012131 Jl. Rm. Hadi Soebeno Raya, Mijen, Kota Semarang, Jawa Tengah 50215, Indonesia 50215",PS. MIJEM LOS TENGAH NO. 6 JL.RAYA MIJEN SEMARANG,ok,
5810019162,SDN Semarang,-7.055401,110.315152,"5810019162 Jl. Rm. Hadi Soebeno Raya, Mijen, Kota Semarang, Jawa Tengah 50215, Indonesia 50215",PS. MIJEN SEMARANG -,ok,
5810034843,SDN Semarang,-7.288076,110.51419,"5810034843 Jl. Salatiga-Bringin, Pabelan, Semarang, Jawa Tengah 50771, Indonesia 50771",JL. RAYA PABELAN BLOK A NO. 14 KOMP. PASAR PABELAN KAB. SEMARANG,ok,
5820000751,SDN Semarang,-7.03081,110.458786,"5820000751 Jl. Sambiroto Raya No.1, Tembalang, Kota Semarang, Jawa Tengah 50276, Indonesia 50276",JL. SAMBIROTO RAYA RT. 002 RW. 007 SAMBI ROTO TEMBALANG SEMARANG,ok,
5810032335,SDN Semarang,-7.026686,110.458296,"5810032335 Jl. Sambiroto V, Tembalang, Kota Semarang, Jawa Tengah 50276, Indonesia 50276",JL. SAMBIROTO 10 NO. 25 SAMBIROTO TEMBALANG SEMARANG,ok,
5810032339,SDN Semarang,-7.023523,110.48809,"5810032339 Jl. Sarwo Edi Wibowo, Pedurungan, Kota Semarang, Jawa Tengah 50192, Indonesia 50192",JL. SARWO EDI WIBOWO NO 46 PLAMONGANSARI PEDURUNGAN SEMARANG,ok,
5810020235,SDN Semarang,-6.982858,110.456158,"5810020235 Jl. Satrio Wibowo I, Pedurungan, Kota Semarang, Jawa Tengah 50196, Indonesia 50196",PS. SATRIO WIBOWO B-23 TLOGOSARI SEMARANG,ok,
5810011910,SDN Semarang,-6.9818292,110.4538427,"5810011910 Jl. Satrio Wibowo II, Pedurungan, Kota Semarang, Jawa Tengah 50196, Indonesia 50196",JL. SATRIO WIBOWO 2 NO. 2 TLOGOSARI KULON PEDURUNGAN SEMARANG,ok,
5810031031,SDN Semarang,-6.9792852,110.1431317,"5810031031 Jl. Sedayu, Gemuh, Kendal, Jawa Tengah 51356, Indonesia 51356",JL. SEDAYU RT. 03 RW. 01 GEMUH KENDAL -,ok,
5810017500,SDN Semarang,-6.934441,110.209813,"5810017500 Jl. Semarang - Kendal No.30, Kendal, Kendal, Jawa Tengah 51318, Indonesia 51318",SEMARANG KENDAL,ok,
5810034251,SDN Semarang,-6.91895,110.598247,"5810034251 Jl. Semarang-Demak, Karang Tengah, Demak, Jawa Tengah 59561, Indonesia 59561",PS BUYARAN LOS TIMUR 126 - 127 KARANGSARI / KARANGTENGAH DEMAK,ok,
5810022775,SDN Semarang,-6.92794,110.56105,"5810022775 Jl. Semarang-Demak, Karang Tengah, Demak, Jawa Tengah 59561, Indonesia 59561",PS SAYUNG LOS IKAN 1 DERETAN MB UL - SAYUNG DEMAK,ok,
5810021917,SDN Semarang,-6.92794,110.56105,"5810021917 Jl. Semarang-Demak, Karang Tengah, Demak, Jawa Tengah 59561, Indonesia 59561",PS SAYUNG LOS SELATAN B 23 - DEMAK DEMAK,ok,
5810002461,SDN Semarang,-6.891423,110.640652,"5810002461 Jl. Semarang-Demak, Kec. Demak, Demak, Jawa Tengah 59511, Indonesia 59511",PS. BUYARAN LOS BARAT NO. 1 JL. SEMARANG - DEMAK KM. 22 DEMAK,ok,
5810021913,SDN Semarang,-6.94211,110.509,"5810021913 Jl. Semarang-Demak, Sayung, Demak, Jawa Tengah 59563, Indonesia 59563",PS SAYUNG BLOK 36 - DEMAK -,ok,
5810022229,SDN Semarang,-6.94211,110.509,"5810022229 Jl. Semarang-Demak, Sayung, Demak, Jawa Tengah 59563, Indonesia 59563",PS SAYUNG LOS BELAKANG LUAR 1 - DEMAK -,ok,
5810022074,SDN Semarang,-6.94211,110.509,"5810022074 Jl. Semarang-Demak, Sayung, Demak, Jawa Tengah 59563, Indonesia 59563",PS SAYUNG LOS DALAM - DEMAK -,ok,
5810022117,SDN Semarang,-6.94211,110.509,"5810022117 Jl. Semarang-Demak, Sayung, Demak, Jawa Tengah 59563, Indonesia 59563",PS SAYUNG LOS DALAM DPN NOLI PLASTIK - DEMAK,ok,
5810020386,SDN Semarang,-6.94211,110.509,"5810020386 Jl. Semarang-Demak, Sayung, Demak, Jawa Tengah 59563, Indonesia 59563",PS SAYUNG LOS DEPAN SAMPING SALON ZONA #NAME?,ok,
5810012357,SDN Semarang,-7.25514,110.410527,"5810012357 Jl. Semarang-Yogyakarta, Ambarawa, Semarang, Jawa Tengah 50612, Indonesia 50612",JL. JEND SUDIRMAN NO. 239 KUPANG-AMBARAW A  SEMARANG JAWA TENGAH - 5000,ok,
5810011792,SDN Semarang,-7.25514,110.410527,"5810011792 Jl. Semarang-Yogyakarta, Ambarawa, Semarang, Jawa Tengah 50612, Indonesia 50612",JL. JEND. SUDIRMAN  AMBARAWA -,ok,
5810011960,SDN Semarang,-7.25514,110.410527,"5810011960 Jl. Semarang-Yogyakarta, Ambarawa, Semarang, Jawa Tengah 50612, Indonesia 50612",JL. JEND. SUDIRMAN NO.63  AMBARAWA SEMARANG,ok,
5810012318,SDN Semarang,-7.254727,110.412459,"5810012318 Jl. Semarang-Yogyakarta, Ambarawa, Semarang, Jawa Tengah 50612, Indonesia 50612",JL. JENDRAL SUDIRMAN NO. 124 AMBARAWA -,ok,
5810017502,SDN Semarang,-7.255773, 110.408403,"5810017502 Jl. Semarang-Yogyakarta, Ambarawa, Semarang, Jawa Tengah 50612, Indonesia 50612",PS. PROJO AMBARAWA -,ok,
5810019185,SDN Semarang,-7.25568,110.408,"5810019185 Jl. Semarang-Yogyakarta, Ambarawa, Semarang, Jawa Tengah 50612, Indonesia 50612",PS. PROJO AMBARAWA -,ok,
5810019460,SDN Semarang,-7.25568,110.408,"5810019460 Jl. Semarang-Yogyakarta, Ambarawa, Semarang, Jawa Tengah 50612, Indonesia 50612",PS. PROJO AMBARAWA -,ok,
5810019682,SDN Semarang,-7.25568,110.408,"5810019682 Jl. Semarang-Yogyakarta, Ambarawa, Semarang, Jawa Tengah 50612, Indonesia 50612",PS. PROJO AMBARAWA -,ok,
5810022954,SDN Semarang,-7.255773,110.408403,"5810022954 Jl. Semarang-Yogyakarta, Ambarawa, Semarang, Jawa Tengah 50612, Indonesia 50612",PS. PROJO AMBARAWA -,ok,
5810017288,SDN Semarang,-7.255773,110.408403,"5810017288 Jl. Semarang-Yogyakarta, Ambarawa, Semarang, Jawa Tengah 50612, Indonesia 50612",PS. PROJO AMBARAWA -,ok,
5810017272,SDN Semarang,-7.255773,110.408403,"5810017272 Jl. Semarang-Yogyakarta, Ambarawa, Semarang, Jawa Tengah 50612, Indonesia 50612",PS. PROJO AMBARAWA -,ok,
5810017242,SDN Semarang,-7.254642,110.411902,"5810017242 Jl. Semarang-Yogyakarta, Ambarawa, Semarang, Jawa Tengah 50612, Indonesia 50612",PS. PROJO AMBARAWA AMBARAWA SEMARANG -,ok,
5810017407,SDN Semarang,-7.254642,110.411902,"5810017407 Jl. Semarang-Yogyakarta, Ambarawa, Semarang, Jawa Tengah 50612, Indonesia 50612",PS. PROJO AMBARAWA SEMARANG -,ok,
5810017218,SDN Semarang,-7.255773,110.408403,"5810017218 Jl. Semarang-Yogyakarta, Ambarawa, Semarang, Jawa Tengah 50612, Indonesia 50612",PS. PROJO BLOK A NO.14-16 AMBARAWA -,ok,
5810032244,SDN Semarang,-7.254642,110.411902,"5810032244 Jl. Semarang-Yogyakarta, Ambarawa, Semarang, Jawa Tengah 50612, Indonesia 50612",PS. PROJO BLOK T- 5 KUPANG AMBARAWA -,ok,
5810019683,SDN Semarang,-7.254642,110.411902,"5810019683 Jl. Semarang-Yogyakarta, Ambarawa, Semarang, Jawa Tengah 50612, Indonesia 50612",PS. PROJO LOS C11 NO.12 AMBARAWA -,ok,
5810017233,SDN Semarang,-7.254642,110.411902,"5810017233 Jl. Semarang-Yogyakarta, Ambarawa, Semarang, Jawa Tengah 50612, Indonesia 50612",PS. PROJO SEMARANG -,ok,
5810012255,SDN Semarang,-6.9715871,110.4362257,"5810012255 Jl. Senjoyo II, Semarang Tim., Kota Semarang, Jawa Tengah 50126, Indonesia 50126","JL. SENJOYO II NO. 2A BUGANGAN, SEMARANG  TIMUR, SEMARANG, JAWA TENGAH",ok,
5810012320,SDN Semarang,-7.000704,110.466334,"5810012320 Jl. Soekarno Hatta, Pedurungan, Kota Semarang, Jawa Tengah 50246, Indonesia 50246",JL. SOEKARNO HATTA NO. 74 PALEBON SEMARANG,ok,
5810011488,SDN Semarang,-7.3181309,110.5034095,"5810011488 Jl. Somopuro Kidul, Sidorejo, Kota Salatiga, Jawa Tengah 50711, Indonesia 50711",JL. SOMOPURO KIDUL RT. 001 RW. 008 SIDOREJO SALATIGA,ok,
5810011838,SDN Semarang,-6.9988244,110.3920685,"5810011838 Jl. Srinindito Baru, Semarang Bar., Kota Semarang, Jawa Tengah 50148, Indonesia 50148",JL. SRININDITO BARU 16-17 SEMARANG -,ok,
5810031034,SDN Semarang,-7.080527,110.0430209,"5810031034 Jl. Sujono, Sukorejo, Kendal, Jawa Tengah 51363, Indonesia 51363",JL. SUJONO . NO 72 KEL. KEBUMEN KEC. SUKOREJO KENDAL,ok,
5810031035,SDN Semarang,-7.080527,110.0430209,"5810031035 Jl. Sujono, Sukorejo, Kendal, Jawa Tengah 51363, Indonesia 51363",JL.SUJONO NO.102 KEBUMEN SUKOREJO -,ok,
5810034374,SDN Semarang,-7.226495900000001,110.3608827,"5810034374 Jl. Sukorini, Bandungan, Semarang, Jawa Tengah 50614, Indonesia 50614","JL. SUKORINI KM 1,7 KENTENG KAB. SEMARANG",ok,
5810012293,SDN Semarang,-7.0159911,110.4183688,"5810012293 Jl. Sultan Agung No.104, Gajahmungkur, Kota Semarang, Jawa Tengah 50232, Indonesia 50232",JL. SULTAN AGUNG SEMARANG -,ok,
5810034170,SDN Semarang,-6.915998,110.605334,"5810034170 Jl. Sultan Trenggono, Kec. Demak, Demak, Jawa Tengah 59517, Indonesia 59517",JL RAYA BUYARAN 17 SETELAH PS BUYARAN KALIKONDANG/KARANGTENGAH DEMAK,ok,
5810017357,SDN Semarang,-7.1483611,110.2856389,"5810017357 Jl. Sumowono-Boja, Limbangan, Kendal, Jawa Tengah 51383, Indonesia 51383",PASAR KENDAL KENDAL -,not ok,"-6.921250, 110.204327"
5810020170,SDN Semarang,-7.1483611,110.2856389,"5810020170 Jl. Sumowono-Boja, Limbangan, Kendal, Jawa Tengah 51383, Indonesia 51383",PS. KENDAL -KENDAL -,not ok,"-6.921250, 110.204327"
5810031004,SDN Semarang,-7.1483611,110.2856389,"5810031004 Jl. Sumowono-Boja, Limbangan, Kendal, Jawa Tengah 51383, Indonesia 51383",PS. LIMBANGAN NO. 40 LIMBANGAN KENDAL -,ok,
5810002478,SDN Semarang,-6.892516,110.64399,"5810002478 Jl. Sunan Kalijaga, Kec. Demak, Demak, Jawa Tengah 59511, Indonesia 59511",JL. SUNAN KALIJAGA 35 DEMAK -,ok,
5810011821,SDN Semarang,-7.0266078,110.4951494,"5810011821 Jl. Suren, Pedurungan, Kota Semarang, Jawa Tengah 50192, Indonesia 50192",JL. SUREN NO. 771 B PLAMONGAN INDAH RT 0 08 RW 007 PLAMONGANSARI KECAMATAN PEDURU,ok,
5810012193,SDN Semarang,-6.9871039,110.4048839,"5810012193 Jl. Suyudono, Semarang Sel., Kota Semarang, Jawa Tengah 50245, Indonesia 50245","JL. SUYUDONO NO. 29 RT. 006 RW. 001 BULU STALAN, SEMARANG SELATAN- KODYA SEMARANG",ok,
5810011806,SDN Semarang,-6.9871039,110.4048839,"5810011806 Jl. Suyudono, Semarang Sel., Kota Semarang, Jawa Tengah 50245, Indonesia 50245",JL. SUYUDONO NO.79 SEMARANG -,ok,
5810021534,SDN Semarang,-6.987894,110.467204,"5810021534 Jl. Syuhada Raya No.51, Pedurungan, Kota Semarang, Jawa Tengah 50192, Indonesia 50192",TLOGOSARI WETAN RT. 005 RW. 002 TLOGOSARI WETAN SEMARANG,ok,
5810012295,SDN Semarang,-6.994449,110.418998,"5810012295 Jl. Taman Menteri Supeno, Semarang Sel., Kota Semarang, Jawa Tengah 50249, Indonesia 50249", JL. TAMAN MENTERI SUPENO 2 MUGASARI SEM ARANG SELATAN SEMARANG JAWA TENGAH,ok,
5810011477,SDN Semarang,-7.3328697,110.5092511,"5810011477 Jl. Taman Pahlawan, Tingkir, Kota Salatiga, Jawa Tengah 50742, Indonesia 50742",JL. TAMAN PAHLAWAN 29 SALATIGA PS. SALATIGA,ok,
5810034068,SDN Semarang,-7.069985,110.308855,"5810034068 Jl. Taman Rambutan I, Mijen, Kota Semarang, Jawa Tengah 50275, Indonesia 50275",JL. JATISARI INDAH B1 / 25 JATISARI MIJEN SEMARANG,ok,
5810034067,SDN Semarang,-7.069985,110.308855,"5810034067 Jl. Taman Rambutan I, Mijen, Kota Semarang, Jawa Tengah 50275, Indonesia 50275",JL. JATISARI INDAH D1 / 1 JATISARI MIJEN SEMARANG,ok,
5810035205,SDN Semarang,-6.9845069,110.4210959,"5810035205 Jl. Taman Seteran Baru, Semarang Tengah, Kota Semarang, Jawa Tengah 50134, Indonesia 50134",JL. SETERAN DALAM NO. 3 MIROTO SEMARANG TENGAH SEMARANG,ok,
5810012346,SDN Semarang,-7.0504094,110.3949693,"5810012346 Jl. Taman Siswa, Gn. Pati, Kota Semarang, Jawa Tengah 50229, Indonesia 50229",JL. TAMAN SISWA NO. 26 SEMARANG -,ok,
5810012240,SDN Semarang,-6.9838491,110.4612726,"5810012240 Jl. Taman Udan Riris II, Pedurungan, Kota Semarang, Jawa Tengah 50196, Indonesia 50196",JL. TAMAN UDAN RIRIS III NO. 24 RT. 014 RW. 015 TLOGOSARI SEMARANG,ok,
5810011953,SDN Semarang,-6.9571553,110.4047572,"5810011953 Jl. Tambak Mas Barat, Semarang Utara, Kota Semarang, Jawa Tengah 50177, Indonesia 50177",JL. TAMBAK MAS BARAT 12 SEMARANG -,ok,
5810012347,SDN Semarang,-6.9595829,110.4051239,"5810012347 Jl. Tambak Mas Raya, Semarang Utara, Kota Semarang, Jawa Tengah 50177, Indonesia 50177",JL. TAMBAK MAS RAYA 22 SEMARANG -,ok,
5810035207,SDN Semarang,-6.9756421,110.4159638,"5810035207 Jl. Tanjung, Semarang Tengah, Kota Semarang, Jawa Tengah 50132, Indonesia 50132",JL. TANJUNG NO. 3 PANDANSARI SEMARANG TENGAH SEMARANG,ok,
5820000738,SDN Semarang,-6.983463,110.344704,"5820000738 Jl. Tapak Tegalsari I, Tugu, Kota Semarang, Jawa Tengah 50182, Indonesia 50182",Jl. Raya Panjang Kedoya Elok Plaza Blok DE/12 Kedoya Selatan  -  Kebon Jeruk Jak,not ok,
5810032351,SDN Semarang,-7.007,110.425383,"5810032351 Jl. Tegalsari Bar. IIA, Candisari, Kota Semarang, Jawa Tengah 50614, Indonesia 50614",JL. TEGALSARI RAYA NO. 97 CANDISARI SEMARANG,ok,
5810011924,SDN Semarang,-7.0047313,110.4271709,"5810011924 Jl. Tegalsari Bar. Raya, Candisari, Kota Semarang, Jawa Tengah 50614, Indonesia 50614",JL. TEGAL SARI RAYA NO. 31 RT. 04 RW. 13 TEGALSARI SMG,ok,
5810018615,SDN Semarang,-6.989445,110.457998,"5810018615 Jl. Telaga Asmara I, Pedurungan, Kota Semarang, Jawa Tengah 50196, Indonesia 50196",PS. RAYA SLTG B.170 -,not ok,"-7.327942, 110.504643"
5810020255,SDN Semarang,-6.989445,110.457998,"5810020255 Jl. Telaga Asmara I, Pedurungan, Kota Semarang, Jawa Tengah 50196, Indonesia 50196",PS. SURYOKUSUMO LOS DEPAN TLOGOSARI SEMARANG,not ok,"-6.977489, 110.462401"
5810035065,SDN Semarang,-7.144160,110.417708,"5810035065 Jl. Tentara Pelajar, Ungaran Tim., Semarang, Jawa Tengah 50519, Indonesia 50519",JL. TENTARA PELAJAR NO. 21 GEDANGANAK UNGARAN TIMUR KAB. SEMARANG,ok,
5810011811,SDN Semarang,-6.977420,110.440354,"5810011811 Jl. Tirtoyoso II, Semarang Tim., Kota Semarang, Jawa Tengah 50125, Indonesia 50125",JL. TIRTOYOSO II/35 SEMARANG -,ok,
5820000745,SDN Semarang,-6.988494,110.457542,"5820000745 Jl. Tlogosari Raya 2, Pedurungan, Kota Semarang, Jawa Tengah 50196, Indonesia 50196","KO.BINTARO KOMERSIAL CBD SEKTOR VII B.7/ A.7 RT/RW 003/02, PONDOK AREN, TANGERANG",not ok,
5810011800,SDN Semarang,-6.989624,110.458323,"5810011800 Jl. Tlogosari Raya, Pedurungan, Kota Semarang, Jawa Tengah 50196, Indonesia 50196",JL. TLOGOSARI I TEMBALANG,ok,
5810011946,SDN Semarang,-6.989624,110.458323,"5810011946 Jl. Tlogosari Raya, Pedurungan, Kota Semarang, Jawa Tengah 50196, Indonesia 50196",JL. TLOGOSARI RAYA II NO. 51 TLOGOSARI SEMARANG,ok,
5810011978,SDN Semarang,-7.02926,110.493156,"5810011978 Jl. Trembesi, Pedurungan, Kota Semarang, Jawa Tengah 50192, Indonesia 50192",JL. TREMBESI 1357 PLAMONGAN SEMARANG -,ok,
5810012323,SDN Semarang,-6.9892311,110.4181259,"5810012323 Jl. Tri Lomba Juang, Semarang Sel., Kota Semarang, Jawa Tengah 50249, Indonesia 50249",JL. TRI LOMBA JUANG NO. 16 RT.002 RW. 002 SEMARANG TENGAH SEMARANG,ok,
5810011958,SDN Semarang,-6.976241,110.462774,"5810011958 Jl. Truntum Raya, Pedurungan, Kota Semarang, Jawa Tengah 50196, Indonesia 50196",JL. SIDODRAJAT I/7 TLOGOSARI SEMARANG -,ok,
5810011908,SDN Semarang,-6.9802931,110.4599101,"5810011908 Jl. Truntum Raya, Pedurungan, Kota Semarang, Jawa Tengah 50196, Indonesia 50196",JL. TRUMTUM RAYA NO.10 SEMARANG -,ok,
5820000973,SDN Semarang,-6.971714,110.32804,"5820000973 Jl. Tugu Industri II, Tugu, Kota Semarang, Jawa Tengah 50181, Indonesia 50181","JL. ANCOL I/9 - 10, ANCOL PADEMANGAN, JA KARTA UTARA DKI JAKARTA RAYA 14430",ok,
5820000767,SDN Semarang,-6.971015,110.331112,"5820000767 Jl. Tugu Industri III, Tugu, Kota Semarang, Jawa Tengah 50181, Indonesia 50181",SEMARANG -JAWA TENGAH 0,ok,
5810012122,SDN Semarang,-7.056036,110.471504,"5810012122 Jl. Tunggu Raya Meteseh No.3, Tembalang, Kota Semarang, Jawa Tengah 50271, Indonesia 50271",PS. METESEH JL. RAYA METESEH BLOK A-3 NO. 3 METESEH TEMBALANG,ok,
5810022315,SDN Semarang,-7.0997885,110.349135,"5810022315 Jl. Villa Siberi, Boja, Kendal, Jawa Tengah 51381, Indonesia 51381",DESA BANJARREJO VILLA SIBERI BOJA -,ok,
5810011907,SDN Semarang,-7.2971941,110.39492,"5810011907 Jl. Wijaya Kusuma, Banyubiru, Semarang, Jawa Tengah 50664, Indonesia 50664",JL. WIJAYA KUSUMA NO. 76 BANYU BIRU AMBARAWA,ok,
5810032356,SDN Semarang,-6.9981999,110.3477368,"5810032356 Jl. Wismasari Raya, Ngaliyan, Kota Semarang, Jawa Tengah 50181, Indonesia 50181",JL WISMASARI RAYA NO 19 B KEL. NGALIYAN KEC. NGALIYAN,ok,
5810011931,SDN Semarang,-6.998199899999999,110.3477368,"5810011931 Jl. Wismasari Raya, Ngaliyan, Kota Semarang, Jawa Tengah 50181, Indonesia 50181",JL. WISMASRI RAYA 19 B RT. 002 RW. 005 NGALIYAN SEMARANG,ok,
5810017232,SDN Semarang,-6.997578,110.346213,"5810017232 Jl. Wismasari Raya, Ngaliyan, Kota Semarang, Jawa Tengah 50181, Indonesia 50181","KARANGJATI RT 14 RW 39, SINDUADI, MLATI SLEMAN, YOGYAKARTA",not ok,
5810017390,SDN Semarang,-6.997578,110.346213,"5810017390 Jl. Wismasari Raya, Ngaliyan, Kota Semarang, Jawa Tengah 50181, Indonesia 50181",PS. NGALIYAN SEMARANG -,ok,
5810012200,SDN Semarang,-6.982557,110.476975,"5810012200 Jl. Woltermonginsidi, Genuk, Kota Semarang, Jawa Tengah 50115, Indonesia 50115",JL. WOLTER MONGINSIDI NO. 6 SEMARANG -,ok,
5810032358,SDN Semarang,-7.0021914,110.4272168,"5810032358 Jl. Wonodri Sendang Raya, Semarang Sel., Kota Semarang, Jawa Tengah 50242, Indonesia 50242",JL. WONODRI SENDANG NO. 1068 SEMARANG SELATAN SEMARANG,ok,
5810012204,SDN Semarang,-6.979344,110.318014,"5810012204 Jl. Wonosari Utara, Ngaliyan, Kota Semarang, Jawa Tengah 50244, Indonesia 50244",JL. RANDU GARUT SEMARANG -,not ok,
5810011983,SDN Semarang,-6.979344200000001,110.3180138,"5810011983 Jl. Wonosari Utara, Ngaliyan, Kota Semarang, Jawa Tengah 50244, Indonesia 50244",JL. WONOSARI RANDU GARUT RT. 001 RW. 002 TUGU SEMARANG,ok,
5810012198,SDN Semarang,-6.979704,110.423994,"5810012198 Jl. Wotgandul Barat, Semarang Tengah, Kota Semarang, Jawa Tengah 50135, Indonesia 50135",JL. WOT GANDUL SEMARANG -,ok,
5810011822,SDN Semarang,-6.979704,110.423994,"5810011822 Jl. Wotgandul Barat, Semarang Tengah, Kota Semarang, Jawa Tengah 50135, Indonesia 50135",JL. WOT GANDUL SEMARANG -,ok,
5810011825,SDN Semarang,-6.9802733,110.4230034,"5810011825 Jl. Wotgandul Dalam, Semarang Tengah, Kota Semarang, Jawa Tengah 50135, Indonesia 50135",JL. WOTGANDUL DLM 175 SEMARANG -,ok,
5810025126,SDN Semarang,-7.000141,110.392652,"5810025126 lan Srinindito I, Semarang Bar., Kota Semarang, Jawa Tengah 50148, Indonesia 50148",PS. SIMONGAN LOS DEPAN 3 SIMONGAN SEMARANG BARAT,ok,
5810035278,SDN Semarang,-7.090492500000001,110.0504255,"5810035278 Parakan-Sukorejo, Sukorejo, Kendal, Jawa Tengah 51363, Indonesia 51363",JL. RAYA SAPEN NO. 34 SUKOREJO KENDAL -,ok,
5810035550,SDN Semarang,-7.090492500000001,110.0504255,"5810035550 Parakan-Sukorejo, Sukorejo, Kendal, Jawa Tengah 51363, Indonesia 51363",JL. RAYA SAPEN NO. 68 SUKOREJO KENDAL -,ok,
5810005522,SDN Semarang,-7.106368799999999,110.2594144,"5810005522 Pemuda, Boja, Kendal, Jawa Tengah 51381, Indonesia 51381",JL. BEBENGAN NO. 205 RT. 001 RW.003 BOJA KENDAL,not ok,
5810006035,SDN Semarang,-7.103929,110.278262,"5810006035 Pemuda, Boja, Kendal, Jawa Tengah 51381, Indonesia 51381","JL. PEMUDA 234 , BOJA , BOJA KENDAL JAWA  TENGAH",ok,
5810031011,SDN Semarang,-7.137866,110.2742497,"5810031011 Purwogondo, Boja, Kendal, Jawa Tengah 51381, Indonesia 51381",JL. BOJA - LIMBANGAN KM. 5 NO. 5 PURWOGONDO BOJA KENDAL,ok,
5810031020,SDN Semarang,-6.9620842,110.1463144,"5810031020 Taman Gede, Gemuh, Kendal, Jawa Tengah 51356, Indonesia 51356",JL. KYAI PLOSO TAMAN GEDE RT. 06 RW. 01 GEMUH KENDAL,ok,
5810019557,SDN Semarang,-6.97237,110.07,"5810019557 Utama Timur No.117, Weleri, Kendal, Jawa Tengah 51355, Indonesia 51355",PS. WELERI LOS BELAKANG KENDAL -,ok,
5810017301,SDN Semarang,-6.97200449999999, 110.0701236,"5810017301 Utama Timur No.117, Weleri, Kendal, Jawa Tengah 51355, Indonesia 51355",PS. WELERI NO.33 -,ok,
5810005502,SDN Semarang,-6.969947,110.057647,"5810005502 Utama Timur, Weleri, Kendal, Jawa Tengah 51355, Indonesia 51355",JL. UTAMA TENGAH 273 WELERI -,ok,
5810017343,SDN Semarang,-7.15585,110.411183,"5810017343 Jl. Jend. Sudirman No.54A, Ungaran Tim., Semarang, Jawa Tengah 50519, Indonesia 50519","DESA LANGENSARI, UNGARAN UNGARAN SEMARAN G JAWA TENGAH-50511",ok,
5810022790,SDN Semarang,-7.064888,110.397726,"5810022790 Jl. Patemon, Gn. Pati, Kota Semarang, Jawa Tengah 50228, Indonesia 50228",DS. MUNTAL RT. 001 RW. 005 PATEMON GUNUNG PATI SEMARANG,ok,
5810021958,SDN Semarang,-7.081314,110.562462,"5810021958 Karangawen No.02/06, Karangawen, Demak, Jawa Tengah 59566, Indonesia 59566",DS. TLOGOREJO KARANGAWEN DEMAK -,ok,
5810022506,SDN Semarang,-6.989882,110.358542,"5810022506 Jl. Ngaliyan, Ngaliyan, Kota Semarang, Jawa Tengah 50184, Indonesia 50184",GATOT SUBROTO BLOK D PURWOYOSO NGALIYAN SEMARANG,not ok,"-7.000083, 110.366633"
5810022362,SDN Semarang,-7.012425,110.454723,"5810022362 Jl. Sendangguwo Raya, Tembalang, Kota Semarang, Jawa Tengah 50273, Indonesia 50273",GAYAMSARI RT 005 RW. 003 SENDANGGUWO SEMARANG,ok,
5820000756,SDN Semarang,-7.139003,110.405399,"5820000756 Jl. Raya Suruh - Karanggede, Ungaran Bar., Semarang, Jawa Tengah 50512, Indonesia 50512",Gedung Bidakara 2 Lt. 19 Jl. Jend. Gato t Subroto Kav. 71-73 Menteng Dalam - Teb,not ok,
5810012360,SDN Semarang,-6.987964,110.418463,"5810012360 Jl. Raya Suruh - Karanggede, Semarang Sel., Kota Semarang, Jawa Tengah 50249, Indonesia 50249","GEDUNG BURSA EFEK INDONESIA, TOWER II LT . 28; JL, JEND. SUDIRMAN KAV. 52-53 SENA",not ok,
5810024124,SDN Semarang,-7.0725974,110.3070637,"5810024124 Jl. Belimbing I, Mijen, Kota Semarang, Jawa Tengah 50275, Indonesia 50275",JATISARI PERMAI BLOK A3 NO. 3 RT. 002 RW. 009 JATISARI MIJEN SEMARANG,ok,
5810032265,SDN Semarang,-6.995708,110.3344656,"5810032265 Jl. Beringin Raya, Ngaliyan, Kota Semarang, Jawa Tengah 50189, Indonesia 50189",JL BERINGIN RAYA NO 20 KEL BERINGIN KEC NGALIYAN,ok,
5810032271,SDN Semarang,-7.0214019,110.4697357,"5810032271 Jl. Fatmawati No.100, Pedurungan, Kota Semarang, Jawa Tengah 50246, Indonesia 50246",JL FATMAWATI 31 KEDUNG MUNDU TEMBALANG SEMARANG,ok,
5810032273,SDN Semarang,-7.269757,110.455376,"5810032273 Jl. Raya Suruh - Karanggede, Tuntang, Semarang, Jawa Tengah 50773, Indonesia 50773",JL FATMAWATI NO 67 TUNTANG KEL TUNTANG KEC TUNTANG,ok,
5810035070,SDN Semarang,-6.987030,110.398355,"5810035070 Jl. Puspanjolo Selatan, Semarang Bar., Kota Semarang, Jawa Tengah 50141, Indonesia 50141",JL PUSPANJOLO SELATAN NO 213 BOJONGSALAMAN/ SEMARANG BARAT,ok,
5810034169,SDN Semarang,-6.915998,110.605334,"5810034169 Jl. Sultan Trenggono, Kec. Demak, Demak, Jawa Tengah 59517, Indonesia 59517",JL RY BUYARAN 18 STLH PS BUYARAN KALIKONDANG/KARANGTENGAH DEMAK,ok,
5810034421,SDN Semarang,-7.226847,110.430994,"5810034421 Gg. Merak Rejo I, Bawen, Semarang, Jawa Tengah 50661, Indonesia 50661",JL SOEKARNO - HATTA KM 36 KELURAHAN LING HARJOSARI BAWEN,ok,
5810032344,SDN Semarang,-6.9835244,110.3651199,"5810032344 Jl. Sugriwo, Semarang Bar., Kota Semarang, Jawa Tengah 50151, Indonesia 50151",JL SUGRIWO 3 NO. 6 KRAPYAK SEMARANG BARAT SEMARANG,ok,
5810032348,SDN Semarang,-6.965652,110.414219,"5810032348 Jl. Tambra Dalam, Semarang Utara, Kota Semarang, Jawa Tengah 50176, Indonesia 50176",JL TAMBRA NO.68 KUNINGAN SEMARANG UTARA SEMARANG,ok,
5810032355,SDN Semarang,-6.9981999,110.3477368,"5810032355 Jl. Wismasari Raya, Ngaliyan, Kota Semarang, Jawa Tengah 50181, Indonesia 50181",JL WISMASARI RAYA NO 15 KEL NGALIYAN KEC. NGALIYAN,ok,
5810012223,SDN Semarang,-6.982216,110.381962,"5810012223 Jl. Bandara Jendral Ahmad Yani, Semarang Bar., Kota Semarang, Jawa Tengah 50145, Indonesia 50145",JL. A. RAHMAN SALEH RUKO SEMAR DPN ISLAMIC CENTER SEMARANG,not ok,"-7.005159, 110.380176"
5810012372,SDN Semarang,-6.9978477,110.3798275,"5810012372 Jl. Abdul Rahman Saleh, Semarang Bar., Kota Semarang, Jawa Tengah 50183, Indonesia 50183",JL. ABDULRAHMAN SALEH 247 KEMBANG ARUM .  SEMARANG 50148,ok,
5810012308,SDN Semarang,-6.9978477,110.3798275,"5810012308 Jl. Abdul Rahman Saleh, Semarang Bar., Kota Semarang, Jawa Tengah 50183, Indonesia 50183",JL. ABDULRAHMAN SALEH NO.11 . SEMARANG -,ok,
5810012021,SDN Semarang,-6.9978477,110.3798275,"5810012021 Jl. Abdul Rahman Saleh, Semarang Bar., Kota Semarang, Jawa Tengah 50183, Indonesia 50183",JL. ABDURAHMAN SALEH 810 SEMARANG -,ok,
5810012328,SDN Semarang,-6.988147,110.423609,"5810012328 Jl. Anggrek Raya, Semarang Tengah, Kota Semarang, Jawa Tengah 50241, Indonesia 50241",JL. ANGGREK I NO. 14 PEKUNDEN RT. 001 RW. 005 SEMARANG,ok,
5810011843,SDN Semarang,-7.1275484,110.4079922,"5810011843 Jl. Anggur, Ungaran Bar., Semarang, Jawa Tengah 50511, Indonesia 50511",JL. ANGGUR NO.23  UNGARAN BELAKANG PASAR UNGARAN SEMARANG,ok,
5810035402,SDN Semarang,-6.980403,110.390954,"5810035402 Jl. Anjasmoro IV, Semarang Bar., Kota Semarang, Jawa Tengah 50149, Indonesia 50149",JL. ANJASMORO RAYA NO. 49 KARANG AYU/ SEMARANG BARAT,ok,
5810012186,SDN Semarang,-6.978838,110.390921,"5810012186 Jl. Anjasmoro Raya, Semarang Bar., Kota Semarang, Jawa Tengah 50149, Indonesia 50149",JL. ANJASMORO RAYA NO. 51 SEMARANG -,ok,
5810011882,SDN Semarang,-6.978838,110.390921,"5810011882 Jl. Anjasmoro Raya, Semarang Bar., Kota Semarang, Jawa Tengah 50149, Indonesia 50149",JL. ANJASMORO V NO. 11 KARANGAYU SEMARANG BARAT SEMARANG,ok,
5810011509,SDN Semarang,-7.348973,110.508866,"5810011509 Gg. II, Argomulyo, Kota Salatiga, Jawa Tengah 50732, Indonesia 50732",JL. ARGO BOGA NO.8 A SALATIGA -,ok,
5810011528,SDN Semarang,-7.342868,110.511375,"5810011528 Jl. Argowiyoto, Argomulyo, Kota Salatiga, Jawa Tengah 50732, Indonesia 50732",JL. ARGOWIYOTO I / 8 A RT. 005 RW. 002 LEDOK ARGOMULYO SALATIGA,ok,
5810035394,SDN Semarang,-6.973572,110.39697,"5810035394 Jl. Ariloka, Semarang Bar., Kota Semarang, Jawa Tengah 50141, Indonesia 50141",JL. ARILOKA NO. 47 KROBOKAN SEMARANG BARAT SEMARANG,ok,
5810012065,SDN Semarang,-7.000704,110.466334,"5810012065 Jl. Soekarno Hatta, Pedurungan, Kota Semarang, Jawa Tengah 50246, Indonesia 50246",JL. ARTERI SOEKARNO HATTA 41 SEMARANG -,ok,
5810012085,SDN Semarang,-6.9927107,110.4421506,"5810012085 Jalan Badak VI, Gayamsari, Kota Semarang, Jawa Tengah 50249, Indonesia 50249",JL. BADAK VII/31 SEMARANG -,ok,
5810032262,SDN Semarang,-7.0613254,110.4357632,"5810032262 Jl. Banjarsari Selatan No.8, Banyumanik, Kota Semarang, Jawa Tengah 50268, Indonesia 50268",JL. BANJARSARI NO. 64 TEMBALANG -,ok,
5810012327,SDN Semarang,-6.9908747,110.4391592,"5810012327 Jl. Barito, Semarang Tim., Kota Semarang, Jawa Tengah 50232, Indonesia 50232",JL. BARITO NO. 2-A KARANGTEMPEL SEMARANG TIMUR SEMARANG,ok,
5810021715,SDN Semarang,-7.212717,110.367198,"5810021715 Jl. Beringin Raya, Bandungan, Semarang, Jawa Tengah 50614, Indonesia 50614",JL. BERINGIN C / 2 RT. 001 RW. 011 BAWEN UNGARAN,ok,
5810002645,SDN Semarang,-7.053386,110.661588,"5810002645 Jend. S Sudiarto, Gubug, Grobogan, Jawa Tengah 58164, Indonesia 58164",JL. BHAYANGKARA 28 GUBUG -,not ok,
5810002646,SDN Semarang,-7.053386,110.661588,"5810002646 Jend. S Sudiarto, Gubug, Grobogan, Jawa Tengah 58164, Indonesia 58164",JL. BHAYANGKARA GUBUG -,not ok,
5810012084,SDN Semarang,-7.257745,110.405849,"5810012084 Jl. Brigjend Sudiarto No.25, Ambarawa, Semarang, Jawa Tengah 50611, Indonesia 50611",JL. BRIGJEN SUDIARTO NO. 14 RT. 001 RW. 006 KUPANG AMBARAWA,ok,
5810012259,SDN Semarang,-6.97303,110.4085194,"5810012259 Jl. Brotojoyo No.2D/7, Semarang Utara, Kota Semarang, Jawa Tengah 50171, Indonesia 50171",JL. BROTOJOYO 2D NO.11 RT.006 RW.002 PLOMBOKAN SEMARANG,ok,
5820000739,SDN Semarang,-6.9723,110.4084,"5820000739 Jl. Brotojoyo No.2D/7, Semarang Utara, Kota Semarang, Jawa Tengah 50171, Indonesia 50171",JL. BROTOJOYO 3 C / 17 RT. 008 RW. 002 P LOMBOKAN SEMARANG UTARA SEMARANG,ok,
5820000740,SDN Semarang,-6.9723,110.4084,"5820000740 Jl. Brotojoyo No.2D/7, Semarang Utara, Kota Semarang, Jawa Tengah 50171, Indonesia 50171",JL. BROTOJOYO 3 C / 17 RT. 008 RW. 002 P LOMBOKAN SEMARANG UTARA SEMARANG,ok,
5810012235,SDN Semarang,-6.983535,110.4277,"5810012235 Jl. Pringgading, Semarang Tengah, Kota Semarang, Jawa Tengah 50135, Indonesia 50135",JL. BRUMBUNGAN NO. 7 SEMARANG TENGAH SEMARANG,ok,
5810011883,SDN Semarang,-6.9751341,110.4375168,"5810011883 Jl. Bugangan, Semarang Tim., Kota Semarang, Jawa Tengah 50126, Indonesia 50126",JL. BUGANGAN NO.69 SEMARANG -,ok,
5810012285,SDN Semarang,-7.047654,110.471786,"5810012285 Jl. Bukit Seruni, Tembalang, Kota Semarang, Jawa Tengah 50272, Indonesia 50272",JL. BUKIT SERUNI I / 42 RT. 005 RW. 019 SENDANGMULYO TEMBALANG SEMARANG,ok,
5810011478,SDN Semarang,-7.328467,110.503758,"5810011478 Jl. Bungur, Sidomukti, Kota Salatiga, Jawa Tengah 50724, Indonesia 50724",JL. BUNGUR 14 SALATIGA -,ok,
5810012063,SDN Semarang,-7.003737,110.368794,"5810012063 Jl. Candi Kencana Raya, Ngaliyan, Kota Semarang, Jawa Tengah 50211, Indonesia 50211",JL. CANDI KENCANA RAYA E-49 PASADENA KALIPANCUR NGALIYAN SEMARANG,ok,
5810032268,SDN Semarang,-7.0124146,110.3809866,"5810032268 Jl. Candi Pawon Raya, Ngaliyan, Kota Semarang, Jawa Tengah 50183, Indonesia 50183",JL. CANDI PAWON III/30 KALIPANCUR SEMARANG ( samping pabrik paving ),ok,
5810035324,SDN Semarang,-7.013433,110.384395,"5810035324 Jl. Candi Pawon Tim., Ngaliyan, Kota Semarang, Jawa Tengah 50183, Indonesia 50183",JL. CANDI PAWON TIMUR NO. 4 KALIPANCUR SEMARANG BARAT SEMARANG,ok,
5810011839,SDN Semarang,-6.9799775,110.3951463,"5810011839 Jl. Cempolorejo, Semarang Bar., Kota Semarang, Jawa Tengah 50149, Indonesia 50149",JL. CEMPOLO REJO PS. KR AYU SEMARANG -,ok,
5810031012,SDN Semarang,-7.0904223,110.0918409,"5810031012 Jl. Curug Sewu, Patean, Kendal, Jawa Tengah 51364, Indonesia 51364",JL. CURUG SEWU NO. 2 CURUG SEWU PATEAN KENDAL,ok,
5810031013,SDN Semarang,-7.0904223,110.0918409,"5810031013 Jl. Curug Sewu, Patean, Kendal, Jawa Tengah 51364, Indonesia 51364",JL. CURUG SEWU RT. 01 RW. 03 NO. 55 CURUG SEWU PATEAN KENDAL,ok,
5810031016,SDN Semarang,-7.0971219,110.0679921,"5810031016 Jl. Raya Curugsewu, Patean, Kendal, Jawa Tengah 51364, Indonesia 51364",JL. CURUGSEWU RT. 01 RW. 03 CURUGSEWU PATEAN KENDAL,ok,
5810012212,SDN Semarang,-6.977219,110.418741,"5810012212 Jl. Depok, Semarang Tengah, Kota Semarang, Jawa Tengah 50133, Indonesia 50133",JL. DEPOK 50 SEMARANG -,ok,
5810012048,SDN Semarang,-7.021174,110.392452,"5810012048 Jl. Dewi Sartika Timur, Gn. Pati, Kota Semarang, Jawa Tengah 50221, Indonesia 50221",JL. DEWI SARTIKA I NO. 45 SUKOREJO GUNUNG PATI SEMARANG,ok,
5810012214,SDN Semarang,-7.021174,110.392452,"5810012214 Jl. Dewi Sartika Timur, Gn. Pati, Kota Semarang, Jawa Tengah 50221, Indonesia 50221",JL. DEWI SARTIKA TIMUR RT. 001 RW. 005 ( RUKO YTE BLOK I ) SUKOREJO GUNUNG,ok,
5810012363,SDN Semarang,-7.00131,110.417722,"5810012363 Jl. Raya Suruh - Karanggede, Gajahmungkur, Kota Semarang, Jawa Tengah 50231, Indonesia 50231",JL. DIPONEGORO NO. 32-A TEGALSARI - CAND ISARI SEMARANG - JAWA TENGAH,ok,
5810011884,SDN Semarang,-7.256001,110.406422,"5810011884 Jl. Semarang-Yogyakarta, Ambarawa, Semarang, Jawa Tengah 50613, Indonesia 50613",JL. DR. CIPTO NO. 1 C AMBARAWA -,ok,
5810012113,SDN Semarang,-7.014056,110.431184,"5810012113 Jl. Dr. Wahidin, Candisari, Kota Semarang, Jawa Tengah 50257, Indonesia 50257",JL. DR. WAHIDIN NO. 34 SEMARANG -,ok,
5810012329,SDN Semarang,-6.992446,110.425687,"5810012329 Jl. Erlangga Raya, Semarang Sel., Kota Semarang, Jawa Tengah 50241, Indonesia 50241",JL. ERLANGGA RAYA NO. 1 PLEBURAN SEMARANG SELATAN SEMARANG,ok,
5810012106,SDN Semarang,-7.290478,110.465884,"5810012106 Jl. Raya Suruh - Karanggede, Tuntang, Semarang, Jawa Tengah 50773, Indonesia 50773",JL. FATMAWATI NO. 9 KESONGO TUNTANG SALATIGA,ok,
5810034599,SDN Semarang,-6.993315,110.448148,"5810034599 Jl. Gajah Tim. IV, Gayamsari, Kota Semarang, Jawa Tengah 50248, Indonesia 50248",JL. GAJAH TIMUR IV NO. 1 GAYAMSARI SEMARANG,ok,
5810012374,SDN Semarang,-7.126131,110.405402,"5810012374 Jl. Gatot Subroto No.77, Ungaran Bar., Semarang, Jawa Tengah 50517, Indonesia 50517",JL. GATOT SUBROTO 142 BANDARJO-UNGARAN .  KAB SEMARANG 50517,ok,
5810012219,SDN Semarang,-6.994332,110.367515,"5810012219 Jl. Gatot Subroto, Ngaliyan, Kota Semarang, Jawa Tengah 50184, Indonesia 50184",JL. GATOT SUBROTO 6 SEMARANG -,ok,
5810012370,SDN Semarang,-6.994332,110.367515,"5810012370 Jl. Gatot Subroto, Ngaliyan, Kota Semarang, Jawa Tengah 50184, Indonesia 50184",JL. GATOT SUBROTO KAWASAN INDUSTRI CANDI  BLOK H-5 / H-11 PURWOYOSO SEMARANG,ok,
5810012224,SDN Semarang,-6.994332,110.367515,"5810012224 Jl. Gatot Subroto, Ngaliyan, Kota Semarang, Jawa Tengah 50184, Indonesia 50184",JL. GATOT SUBROTO NO. 45 RT. 009 RW. 002 PURWOYOSO NGALIYAN SEMARANG,ok,
5810032281,SDN Semarang,-7.0004987,110.3870183,"5810032281 Jl. Gedong Songo II, Semarang Bar., Kota Semarang, Jawa Tengah 50147, Indonesia 50147",JL. GEDONGSONGO III NO. 20 RT. 03 RW. 02 MANYARAN SEMARANG,ok,
5810012072,SDN Semarang,-7.0001799,110.3888264,"5810012072 Jl. Gedong Songo Raya, Semarang Bar., Kota Semarang, Jawa Tengah 50147, Indonesia 50147",JL. GEDONGSONGO RAYA NO. 5 RT. 004 RW 002 MANYARAN SEMARANG,ok,
5810036473,SDN Semarang,-7.012446,110.466204,"5810036473 Jl. Gemah Raya, Pedurungan, Kota Semarang, Jawa Tengah 50246, Indonesia 50246",JL. GEMAH RAYA I NO. 6 RT. 02 RW 05 PEDURUNGAN SEMARANG,ok,
5810012033,SDN Semarang,-7.091106,110.356106,"5810012033 Jl. Raya Cangkiran-Gunungpati, Gn. Pati, Kota Semarang, Jawa Tengah 50229, Indonesia 50229",JL. GUNUNG PATI RAYA NO. 5 RT. 003  RW. 005 GUNUNG PATI SEMARANG,ok,
5810011837,SDN Semarang,-6.984225,110.37065,"5810011837 Jl. Hanoman Raya, Semarang Bar., Kota Semarang, Jawa Tengah 50146, Indonesia 50146",JL. HANOMAN RAYA 5A SEMARANG -,ok,
5810012211,SDN Semarang,-6.95928,110.410448,"5810012211 Jl. Taman Hasanudin, Semarang Utara, Kota Semarang, Jawa Tengah 50176, Indonesia 50176",JL. HASANUDDIN NO. 624 SEMARANG -,ok,
5810011881,SDN Semarang,-6.972716,110.416559,"5810011881 Jl. Imam Bonjol No.99, Semarang Utara, Kota Semarang, Jawa Tengah 50172, Indonesia 50172",JL. IMAM BONJOL NO. 53 PURWOSARI SEMARANG UTARA SEMARANG,ok,
5820001107,SDN Semarang,-6.971714,110.32804,"5820001107 Jl. Tugu Industri II, Tugu, Kota Semarang, Jawa Tengah 50181, Indonesia 50181",JL. INDUSTRI TUGU I KAV 2-4 SEMARANG RAN DUGARU SEMARANG,ok,
5810012168,SDN Semarang,-7.028929,110.434355,"5810012168 Jl. Jangli Gabeng, Tembalang, Kota Semarang, Jawa Tengah, Indonesia None",JL. JANGLI 307 SEMARANG -,ok,
5810012062,SDN Semarang,-7.033019,110.42379,"5810012062 Jl. Jatingaleh II, Banyumanik, Kota Semarang, Jawa Tengah 50261, Indonesia 50261",JL. JATI LUHUR II NO. 324 NGESREP BANYUMANIK SEMARANG,ok,
5810012111,SDN Semarang,-7.25514,110.410527,"5810012111 Jl. Semarang-Yogyakarta, Ambarawa, Semarang, Jawa Tengah 50612, Indonesia 50612",JL. JEND.SUDIRMAN 112 AMBARAWA -,ok,
5810012371,SDN Semarang,-7.25514,110.410527,"5810012371 Jl. Semarang-Yogyakarta, Ambarawa, Semarang, Jawa Tengah 50612, Indonesia 50612",JL. JEND.SUDIRMAN 154 AMBARAWA SEMARANG -,ok,
5810012016,SDN Semarang,-7.25514,110.410527,"5810012016 Jl. Semarang-Yogyakarta, Ambarawa, Semarang, Jawa Tengah 50612, Indonesia 50612",JL. JEND.SUDIRMAN 175 AMBARAWA -,ok,
5810012087,SDN Semarang,-7.25514,110.410527,"5810012087 Jl. Semarang-Yogyakarta, Ambarawa, Semarang, Jawa Tengah 50612, Indonesia 50612",JL. JENDRAL SUDIRMAN 81 AMBARAWA SEMARANG,ok,
5810012094,SDN Semarang,-7.25514,110.410527,"5810012094 Jl. Semarang-Yogyakarta, Ambarawa, Semarang, Jawa Tengah 50612, Indonesia 50612",JL. JENDRAL SUDIRMAN 88 AMBARAWA SEMARANG,ok,
5810012379,SDN Semarang,-7.0051464,110.4397758,"5810012379 Jl. Jeruk Tim. II, Semarang Sel., Kota Semarang, Jawa Tengah 50249, Indonesia 50249",JL. JERUK TIMUR II / 1626 SEMARANG -,ok,
5810032286,SDN Semarang,-6.9719514,110.3957866,"5810032286 Jl. Taman Jonggring Saloko V, Semarang Bar., Kota Semarang, Jawa Tengah 50141, Indonesia 50141",JL. JONGGRING SALOKA I NO. 6 KROBOKAN SEMARANG BARAT SEMARANG,ok,
5810012096,SDN Semarang,-6.988363,110.426734,"5810012096 Jl. Kyai H. Ahmad Dahlan, Semarang Tengah, Kota Semarang, Jawa Tengah 50241, Indonesia 50241",JL. K.H. AHMAD DAHLAN SEMARANG -,ok,
5810011475,SDN Semarang,-7.3304515,110.5074287,"5810011475 Jl. Kalinyamat, Tingkir, Kota Salatiga, Jawa Tengah 50742, Indonesia 50742",JL. KALIMANYAT SALATIGA -,ok,
5810011486,SDN Semarang,-7.3304515,110.5074287,"5810011486 Jl. Kalinyamat, Tingkir, Kota Salatiga, Jawa Tengah 50742, Indonesia 50742",JL. KALINYAMAT 28 SALATIGA -,ok,
5810011501,SDN Semarang,-7.3304515,110.5074287,"5810011501 Jl. Kalinyamat, Tingkir, Kota Salatiga, Jawa Tengah 50742, Indonesia 50742",JL. KALINYAMAT 76 SALATIGA SEMARANG -,ok,
5810011506,SDN Semarang,-7.3304515,110.5074287,"5810011506 Jl. Kalinyamat, Tingkir, Kota Salatiga, Jawa Tengah 50742, Indonesia 50742",JL. KALINYAMAT E10 SALATIGA SEMARANG -,ok,
5810011510,SDN Semarang,-7.3304515,110.5074287,"5810011510 Jl. Kalinyamat, Tingkir, Kota Salatiga, Jawa Tengah 50742, Indonesia 50742",JL. KALINYAMAT SALATIGA SEMARANG -,ok,
5810002633,SDN Semarang,-7.097275,110.274773,"5810002633 Jl. Kaliwungu No.12-14, Boja, Kendal, Jawa Tengah 51381, Indonesia 51381",JL. KALIWUNGU - NGADIBOLO NO. 3 NGADIBOLO BOJA,ok,
5810012061,SDN Semarang,-7.0282811,110.408947,"5810012061 Jl. Karang Rejo Raya, Gajahmungkur, Kota Semarang, Jawa Tengah 50231, Indonesia 50231",JL. KARANG REJO 92 SEMARANG -,ok,
5810012282,SDN Semarang,-7.0830992,110.4158004,"5810012282 Jl. Karang Anyar, Banyumanik, Kota Semarang, Jawa Tengah 50264, Indonesia 50264","JL. KARANGANYAR 14 BANYUMANIK, BANYUMANI K SEMARANG JAWA TENGAH - 00000",ok,
5810012006,SDN Semarang,-7.2413,110.423613,"5810012006 Jl. Kartini Bawen, Bawen, Semarang, Jawa Tengah 50661, Indonesia 50661",JL. KARTINI KAV. 12 BAWEN AMBARAWA -,ok,
5810011519,SDN Semarang,-7.325202,110.499468,"5810011519 Jl. Kartini No.108, Sidorejo, Kota Salatiga, Jawa Tengah 50711, Indonesia 50711",JL. KARTINI NO 2 SALATIGA -,ok,
5810012182,SDN Semarang,-6.985427,110.433478,"5810012182 Jl. RA. Kartini, Semarang Tim., Kota Semarang, Jawa Tengah 50124, Indonesia 50124",JL. KARTINI RAYA RT. 005 RW. 008 SEMARANG,ok,
5810012022,SDN Semarang,-7.010054,110.424324,"5810012022 Jl. Kawi 5, Candisari, Kota Semarang, Jawa Tengah 50252, Indonesia 50252",JL. KAWI I NO. 46 RT. 002 RW. 006 WONOTINGAL CANDISARI SEMARANG,ok,
5810011829,SDN Semarang,-7.023571,110.458277,"5810011829 Jl. Kedung Mundu Lama, Tembalang, Kota Semarang, Jawa Tengah 50276, Indonesia 50276",JL. KEDUNGMUNDU NO. 6-A SEMARANG -,ok,
5810012093,SDN Semarang,-6.997209,110.441577,"5810012093 Jl. Unta II, Gayamsari, Kota Semarang, Jawa Tengah 50249, Indonesia 50249",JL. KELINCI Gg IV NO. 457 RT. 05 RW. 03 PANDEAN LAMPER SEMARANG,ok,
5810012173,SDN Semarang,-6.997209,110.441577,"5810012173 Jl. Unta II, Gayamsari, Kota Semarang, Jawa Tengah 50249, Indonesia 50249",JL. KELINCI IV NO. 453 RT. 005 RW. 003 PANDEAN LAMPER GAYAMSARI SEMARANG,ok,
5810032294,SDN Semarang,-7.0011158,110.404143,"5810032294 Jl. Kelud Utara IV, Gajahmungkur, Kota Semarang, Jawa Tengah 50237, Indonesia 50237",JL. KELUD UTARA NO. 8 ( PKL ) PETOMPON GAJAHMUNGKUR SEMARANG,ok,
5810012264,SDN Semarang,-6.984155,110.424058,"5810012264 Jl. Kemuning, Semarang Tengah, Kota Semarang, Jawa Tengah 50135, Indonesia 50135",JL. KEMUNING 21 RT. 005 RW. 004 BRUMBUNGAN SEMARANG,ok,
5810011832,SDN Semarang,-6.9799709,110.3944382,"5810011832 Jl. Kenconowungu III, Semarang Bar., Kota Semarang, Jawa Tengah 50149, Indonesia 50149",JL. KENCONO WUNGU I/27 SEMARANG -,ok,
5810012115,SDN Semarang,-6.977494,110.392693,"5810012115 Jl. Kenconowungu Dalam II, Semarang Bar., Kota Semarang, Jawa Tengah 50149, Indonesia 50149",JL. KENCONOWUNGU IV / NO. 2 KARANGAYU SEMARANG,ok,
5810012300,SDN Semarang,-7.0147367,110.3952754,"5810012300 Jl. Kendeng I, Gajahmungkur, Kota Semarang, Jawa Tengah 50233, Indonesia 50233",JL. KENDENG V BENDAN NGISOR - SEMARANG -,ok,
5810012359,SDN Semarang,-6.970719,110.428127,"5810012359 Jl. Kyai H. Agus Salim No.22-23, Semarang Tengah, Kota Semarang, Jawa Tengah 50137, Indonesia 50137",JL. KH. AGUS SALIM KEL.PETERONGAN KEC.SEMARANG TIMUR SEMARANG,ok,
5810035660,SDN Semarang,-6.999515,110.361331,"5810035660 Jl. Raya Klampisan, Ngaliyan, Kota Semarang, Jawa Tengah 50181, Indonesia 50181",JL. KLAMPISAN NO. 88 PURWOYOSO NGALIYAN SEMARANG,ok,
5810012068,SDN Semarang,-7.037346,110.473479,"5810012068 Jl. Klipang Raya, Tembalang, Kota Semarang, Jawa Tengah 50272, Indonesia 50272",JL. KLIPANG RAYA NO. 23 RT. 001 RW. 001 SENDANGMULYO TEMBALANG SEMARANG,ok,
5810012116,SDN Semarang,-7.244677,110.432167,"5810012116 Jl. Semarang-Yogyakarta, Bawen, Semarang, Jawa Tengah 50661, Indonesia 50661",JL. KRAJAN NO. 33 RT. 001 RW. 001 BRINGIN BAWEN,ok,
5810012187,SDN Semarang,-7.006683,110.442849,"5810012187 Jl. Lamper Tengah, Semarang Sel., Kota Semarang, Jawa Tengah 50248, Indonesia 50248",JL. LAMPER TENGAH DEPAN BANK BRI SEMARANG,ok,
5810032296,SDN Semarang,-7.244677,110.432167,"5810032296 Jl. Semarang-Yogyakarta, Bawen, Semarang, Jawa Tengah 50661, Indonesia 50661",JL. LEMAH IRENG ( SAMPING PS. HARJOSARI ) BAWEN,ok,
5810012315,SDN Semarang,-6.984703,110.369439,"5810012315 Jl. Mandasia I, Semarang Bar., Kota Semarang, Jawa Tengah 50146, Indonesia 50146",JL. MANDASIA I NO. 283 KRAPYAK -,ok,
5810012074,SDN Semarang,-7.011828,110.390827,"5810012074 Jl. Menoreh Raya No.53, Gajahmungkur, Kota Semarang, Jawa Tengah 50232, Indonesia 50232",JL. MENOREH RAYA 63 SEMARANG -,ok,
5810032299,SDN Semarang,-7.0179617,110.3892311,"5810032299 Jl. Menoreh Raya No.33, Gajahmungkur, Kota Semarang, Jawa Tengah 50232, Indonesia 50232",JL. MENOREH RAYA NO. 77 BENDAN DUWUR GAJAHMUNGKUR SEMARANG,ok,
5810011508,SDN Semarang,-7.3310386,110.4960954,"5810011508 Jl. Merak, Sidomukti, Kota Salatiga, Jawa Tengah 50721, Indonesia 50721",JL. MERAK NO. 29 KLASEMAN SALATIGA -,ok,
5810032303,SDN Semarang,-7.1233994,110.409886,"5810032303 Jl. Merpati I, Ungaran Bar., Semarang, Jawa Tengah 50517, Indonesia 50517",JL. MERPATI I NO. 8 B RT. 007 RW. 001 BANDARJO UNGARAN,ok,
5810011795,SDN Semarang,-6.980154,110.417183,"5810011795 Jl. MH Thamrin, Semarang Tengah, Kota Semarang, Jawa Tengah 50132, Indonesia 50132",JL. MH. THAMRIN NO. 59 SEMARANG TENGAH K OTA SEMARANG JAWA TENGAH - 0000,ok,
5810012225,SDN Semarang,-7.0520678,110.3169618,"5810012225 Jl. Rm. Hadi Soebeno Raya, Mijen, Kota Semarang, Jawa Tengah 50215, Indonesia 50215",JL. MIJEN RAYA 38 SEMARANG -,ok,
5810012052,SDN Semarang,-6.96786,110.457354,"5810012052 Jl. Muktiharjo Raya, Pedurungan, Kota Semarang, Jawa Tengah 50197, Indonesia 50197",JL. MUKTI HARJO RAYA NO. 1 RT. 003 RW. 16 SEMARANG,ok,
5810032306,SDN Semarang,-7.06814,110.4324553,"5810032306 Jl. Ringin Bakti Raya, Banyumanik, Kota Semarang, Jawa Tengah 50268, Indonesia 50268",JL. MULAWARMAN RAYA NO. 51 PEDALANGAN BANYUMANIK SEMARANG,ok,
5810032307,SDN Semarang,-6.9909689,110.3768428,"5810032307 Jl. Muradi, Semarang Bar., Kota Semarang, Jawa Tengah 50183, Indonesia 50183",JL. MURADI NO. 48 ( SAMPING TK. BANGUNAN ) RT. 06 RW. 06 KALIBANTENG,ok,
5810012049,SDN Semarang,-6.972505,110.465262,"5810012049 Jl. Ngablak Indah, Genuk, Kota Semarang, Jawa Tengah 50115, Indonesia 50115",JL. NGABLAK INDAH II NO. 4 RT. 008 RW. 004 SEMARANG,ok,
5810032309,SDN Semarang,-7.058693,110.321945,"5810032309 Jl. Berlian Slt IV, Mijen, Kota Semarang, Jawa Tengah 50519, Indonesia 50519",JL. NGADIRGO RT. 01 RW. 05 MIJEN KAUMAN SEMARANG,ok,
5810012310,SDN Semarang,-7.000440,110.396958,"5810012310 Jl. Srinindito IV, Semarang Bar., Kota Semarang, Jawa Tengah 50148, Indonesia 50148",JL. ngemplaksimongan 102 SEMARANG -,ok,
5810012284,SDN Semarang,-6.980331,110.463629,"5810012284 Jl. Nogososro, Pedurungan, Kota Semarang, Jawa Tengah 50196, Indonesia 50196",JL. NOGOSOSRONO. 75 TLOGOSARI SEMARANG TLOGOSARI,ok,
5810002631,SDN Semarang,-6.929405,110.200895,"5810002631 Jl. Pahlawan, Kendal, Kendal, Jawa Tengah 51317, Indonesia 51317",JL. PAHLAWAN KENDAL -,ok,
5810032312,SDN Semarang,-6.9939231,110.4211558,"5810032312 Jl. Raya Suruh - Karanggede, Semarang Sel., Kota Semarang, Jawa Tengah 50249, Indonesia 50249",JL. PAHLAWAN NO. 16 PLEBURAN SEMARANG -,ok,
5810012066,SDN Semarang,-6.9597801,110.4080496,"5810012066 Jl. Panggung Mas III, Semarang Utara, Kota Semarang, Jawa Tengah 50177, Indonesia 50177",JL. PANGGUNG MAS UTR NO.3 SEMARANG -,ok,
5810012027,SDN Semarang,-7.0135374,110.4065008,"5810012027 Jl. Papandayan, Gajahmungkur, Kota Semarang, Jawa Tengah 50232, Indonesia 50232",JL. PAPANDAYAN NO.20 SEMARANG -,ok,
5810012227,SDN Semarang,-6.998324,110.448553,"5810012227 Jl. Kijang Selatan, Gayamsari, Kota Semarang, Jawa Tengah 50248, Indonesia 50248",JL. PASAR GAYAM LOS BELAKANG NO. H 16 - SENDANG MULYO - SMG,ok,
5810012071,SDN Semarang,-6.998324,110.448553,"5810012071 Jl. Kijang Selatan, Gayamsari, Kota Semarang, Jawa Tengah 50248, Indonesia 50248",JL. PASAR GAYAM SARI A 17 SEMARANG -,ok,
5810011473,SDN Semarang,-7.3305234,110.5084366,"5810011473 Jl. Kalinyamat, Tingkir, Kota Salatiga, Jawa Tengah 50742, Indonesia 50742",JL. PASAR RAYA I BLOK C2 SALATIGA -,ok,
5810011522,SDN Semarang,-7.3305234,110.5084366,"5810011522 Jl. Kalinyamat, Tingkir, Kota Salatiga, Jawa Tengah 50742, Indonesia 50742",JL. PASAR SALATIGA DALAM SALATIGA -,ok,
5810011518,SDN Semarang,-7.3305234,110.5084366,"5810011518 Jl. Kalinyamat, Tingkir, Kota Salatiga, Jawa Tengah 50742, Indonesia 50742",JL. PASARAYA I BLOK A NO.11-12 SALATIGA SEMARANG,ok,
5810012311,SDN Semarang,-6.980669,110.4133,"5810012311 Jl. Pemuda No.138, Semarang Tengah, Kota Semarang, Jawa Tengah 50139, Indonesia 50139",JL. PEMUDA 145 SEMARANG -,ok,
5810005520,SDN Semarang,-7.103929,110.278262,"5810005520 Pemuda, Boja, Kendal, Jawa Tengah 51381, Indonesia 51381",JL. PEMUDA 150 BOJA KENDAL -,ok,
5810005495,SDN Semarang,-7.103929,110.278262,"5810005495 Pemuda, Boja, Kendal, Jawa Tengah 51381, Indonesia 51381",JL. PEMUDA NO. 206 RT. 006 RW. 002 -,ok,
5810037392,SDN Semarang,-7.012798,110.379153,"5810037392 Jl. Penataran II, Ngaliyan, Kota Semarang, Jawa Tengah 50183, Indonesia 50183",JL. PENATARAN RT. 7 RW. 3 NO. 90 KALIPANCUR NGALIYAN SEMARANG,ok,
5810011793,SDN Semarang,-6.96732,110.41495,"5810011793 Jl. Peres, Semarang Utara, Kota Semarang, Jawa Tengah 50172, Indonesia 50172","JL. PERES G-29 RT. 008 RW. 004 PURWOSARI , SEMARANG UTARA SEMARANG, JAWA TENGAH 5",ok,
5810032315,SDN Semarang,-7.0616589,110.4133484,"5810032315 Jl. Setiabudi No.170, Banyumanik, Kota Semarang, Jawa Tengah 50263, Indonesia 50263",JL. PERINTIS KEMERDEKAAN NO 231 SRONDOL KULON BANYUMANIK SEMARANG,not ok,"-7.095050, 110.409962"
5810011784,SDN Semarang,-6.980286,110.434067,"5810011784 Jl. Petelan Utara, Semarang Tim., Kota Semarang, Jawa Tengah 50124, Indonesia 50124",JL. PETELAN UTARA NO. 909 A RT. 002 RW. 008 SARIREJO SEMARANG TIMUR SEMARANG,ok,
5810011830,SDN Semarang,-7.0002618,110.4357272,"5810011830 Jl. Pandean Lamper II, Semarang Sel., Kota Semarang, Jawa Tengah 50242, Indonesia 50242",JL. PETERONGAN TIMUR 96 SEMARANG -,ok,
5810012005,SDN Semarang,-6.999258,110.425312,"5810012005 Jl. Pleburan VII, Semarang Sel., Kota Semarang, Jawa Tengah 50241, Indonesia 50241",JL. PLEBURAN VII NO. 3 SEMARANG -,ok,
5810032318,SDN Semarang,-7.1070863,110.4060598,"5810032318 Jl. Pramuka, Banyumanik, Kota Semarang, Jawa Tengah 50265, Indonesia 50265",JL. PRAMUKA NO. 234 PUDAK PAYUNG BANYUMANIK SEMARANG,ok,
5810012299,SDN Semarang,-7.052872,110.440421,"5810012299 Prof. Sudharto Building, Tembalang, Tembalang, Semarang City, Central Java 50275, Indonesia 50275","JL. PROF. DR. SUDARTO, SH TEMBALANG SEMARANG 50275",ok,
5810032322,SDN Semarang,-6.969988,110.3862201,"5810032322 Jl. Puri Anjasmoro, Semarang Bar., Kota Semarang, Jawa Tengah 50144, Indonesia 50144",JL. PURI ANJASMORO I - 4 / 8 TAWANGSARI SEMARANG BARAT SEMARANG,ok,
5810012338,SDN Semarang,-6.969988,110.38622,"5810012338 Jl. Puri Anjasmoro, Semarang Bar., Kota Semarang, Jawa Tengah 50144, Indonesia 50144",JL. PURI ANJASMORO N1/56 SEMARANG -,ok,
5810012286,SDN Semarang,-7.021997,110.430678,"5810012286 Jl. Candi Golf Boulevard, Candisari, Kota Semarang, Jawa Tengah 50255, Indonesia 50255",JL. PURI ANJASMORO NO. 68 SEMARANG -,not ok,"-6.968643, 110.386237"
5810012047,SDN Semarang,-6.969988,110.38622,"5810012047 Jl. Puri Anjasmoro, Semarang Bar., Kota Semarang, Jawa Tengah 50144, Indonesia 50144",JL. PURI ANJASMORO SEMARANG -,ok,
5810012054,SDN Semarang,-6.982236,110.396456,"5810012054 Jl. Puspanjolo Bar. I, Semarang Bar., Kota Semarang, Jawa Tengah 50141, Indonesia 50141",JL. PUSPANJOLO 268 SEMARANG -,ok,
5810032324,SDN Semarang,-6.9853029,110.3871416,"5810032324 Jl. Puspogiwang Dalam I, Semarang Bar., Kota Semarang, Jawa Tengah 50149, Indonesia 50149",JL. PUSPOGIWANG DALAM NO. 19 KEL GISIK DRONO KEC. SMG BARAT,ok,
5810012056,SDN Semarang,-6.981819,110.398611,"5810012056 Jl. Puspanjolo Tengah I, Semarang Bar., Kota Semarang, Jawa Tengah 50141, Indonesia 50141",JL. PUSPONJOLO TENGAH 238 SEMARANG -,ok,
5810011918,SDN Semarang,-6.9857355,110.3964846,"5810011918 Jl. Puspowarno, Semarang Bar., Kota Semarang, Jawa Tengah 50149, Indonesia 50149",JL. PUSPOWARNO II NO.2 SEMARANG -,ok,
5810012040,SDN Semarang,-6.985735,110.396485,"5810012040 Jl. Puspowarno, Semarang Bar., Kota Semarang, Jawa Tengah 50149, Indonesia 50149",JL. PUSPOWARNO X NO. 26 RT. 008 RW. 003 SALAMAN MLOYO SEMARANG,ok,
5810002647,SDN Semarang,-7.053386,110.661588,"5810002647 Jend. S Sudiarto, Gubug, Grobogan, Jawa Tengah 58164, Indonesia 58164",JL. RAYA A. YANI GUBUG ( SEBELAH IMA MART ) GUBUG,not ok,
5810012026,SDN Semarang,-7.045233,110.390656,"5810012026 Jl. Kolonel HR Hadijanto, Gn. Pati, Kota Semarang, Jawa Tengah 50229, Indonesia 50229",JL. RAYA BANARAN NO. 1 RT. 002 RW. 004 SEKARAN GUNUNG PATI SEMARANG,ok,
5810012307,SDN Semarang,-7.075656,110.410931,"5810012307 Jl. Raya Suruh - Karanggede, Banyumanik, Kota Semarang, Jawa Tengah 50264, Indonesia 50264","JL. RAYA BANYUMANIK, BANYUMANIK, BANYUMA NIK SEMARANG",ok,
5810029457,SDN Semarang,-6.8721598,110.6185292,"5810029457 Jl. Raya Bonang-Demak, Kec. Demak, Demak, Jawa Tengah 59517, Indonesia 59517",JL. RAYA BONANG NO. 5 (DEPAN BALAI DESA) KARANGMLATI DEMAK DEMAK,ok,
5810035081,SDN Semarang,-7.031138,110.516409,"5810035081 Gg. VI, Mranggen, Demak, Jawa Tengah 59567, Indonesia 59567",JL. RAYA BRUMBUNG NO. 22 MRANGGEN DEMAK -,ok,
5820000216,SDN Semarang,-6.894797,110.638413,"5820000216 Jalan Sultan Fatah, Kec. Demak, Demak, Jawa Tengah 59511, Indonesia 59511",JL. RAYA GAJAH NO.67  RT.03  RW.02 GAJAH  DEMAK DEMAK 59581,ok,
5820000216,SDN Semarang,-6.894797,110.638413,"5820000216 Jalan Sultan Fatah, Kec. Demak, Demak, Jawa Tengah 59511, Indonesia 59511",JL. RAYA GAJAH NO.67  RT.03  RW.02 GAJAH  DEMAK DEMAK 59581,ok,
5810012079,SDN Semarang,-7.091106,110.356106,"5810012079 Jl. Raya Cangkiran-Gunungpati, Gn. Pati, Kota Semarang, Jawa Tengah 50229, Indonesia 50229",JL. RAYA GUNUNG PATI (DPN SD PLALANGAN I ) - GUNUNG PATI SMG,ok,
5810012335,SDN Semarang,-7.091106,110.356106,"5810012335 Jl. Raya Cangkiran-Gunungpati, Gn. Pati, Kota Semarang, Jawa Tengah 50229, Indonesia 50229",JL. RAYA GUNUNG PATI KM. 15 RT. 01 RW. 02 GUNUNG PATI SEMARANG,ok,
5810006031,SDN Semarang,-6.960221,110.253118,"5810006031 Jl. Raya Kaliwungu - Kendal, Kaliwungu, Kendal, Jawa Tengah 51372, Indonesia 51372",JL. RAYA KALIWUNGU 112 KENDAL SEMARANG -,ok,
5810031028,SDN Semarang,-7.137866,110.2742497,"5810031028 Purwogondo, Boja, Kendal, Jawa Tengah 51381, Indonesia 51381",JL. RAYA LIMBANGAN - BOJA NO. 2 (PERTIGAAN SEKATUL ) PURWOGONDO BOJA,ok,
5810012034,SDN Semarang,-7.244677,110.432167,"5810012034 Jl. Semarang-Yogyakarta, Bawen, Semarang, Jawa Tengah 50661, Indonesia 50661","JL. RAYA MERAK REJO KM 13, BAWEN -",ok,
5810002440,SDN Semarang,-7.026162,110.5173104,"5810002440 Jl. Raya Mranggen No.31, Mranggen, Demak, Jawa Tengah 59567, Indonesia 59567",JL. RAYA MRANGGEN 102 SEMARANG -,ok,
5810012044,SDN Semarang,-7.057047,110.3952167,"5810012044 Jl. Raya Sekaran, Gn. Pati, Kota Semarang, Jawa Tengah 50228, Indonesia 50228",JL. RAYA SEKARAN SEMARANG -,ok,
5810011511,SDN Semarang,-7.3619308,110.5145305,"5810011511 Jl. Karebet I, Tingkir, Kota Salatiga, Jawa Tengah 50745, Indonesia 50745",JL. RAYA TINGKIR - SURUH KM 0.5 SALATIGA,ok,
5810012080,SDN Semarang,-7.260991,110.454088,"5810012080 Jl. Tuntang-Bringin, Tuntang, Semarang, Jawa Tengah 50773, Indonesia 50773",JL. RAYA TUNTANG - BRINGIN NO. 02 RT. 003 RW. 004 TUNTANG KABUPATEN SEMARANG,ok,
5810035337,SDN Semarang,-7.137888,110.411078,"5810035337 Gg. Bogowonto Sel. II, Ungaran Tim., Semarang, Jawa Tengah 50514, Indonesia 50514",JL. S PARMAN NO. 4 SIDOMULYO UNGARAN TIMUR KAB. SEMARANG,ok,
5820000757,SDN Semarang,-7.005096,110.411433,"5820000757 Jl. S. Parman No.53, Gajahmungkur, Kota Semarang, Jawa Tengah 50231, Indonesia 50231",JL. S PARMAN NO. 56 GAJAHMUNGKUR SEMARAN G,ok,
5810035567,SDN Semarang,-7.137888,110.411078,"5810035567 Gg. Bogowonto Sel. II, Ungaran Tim., Semarang, Jawa Tengah 50514, Indonesia 50514",JL. S PARMAN NO. 7 SIDOMULYO UNGARAN TIMUR KAB. SEMARANG,ok,
5810032336,SDN Semarang,-7.0308099,110.4587857,"5810032336 Jl. Sambiroto Raya No.1, Tembalang, Kota Semarang, Jawa Tengah 50276, Indonesia 50276",JL. SAMBIROTO RAYA NO. 8 B SAMBIROTO TEMBALANG SEMARANG,ok,
5810032337,SDN Semarang,-7.0308099,110.4587857,"5810032337 Jl. Sambiroto Raya No.1, Tembalang, Kota Semarang, Jawa Tengah 50276, Indonesia 50276",JL. SAMBIROTO RAYA NO. 86 RT 02/RW 02 SAMBIROTO,ok,
5810032338,SDN Semarang,-7.023523,110.48809,"5810032338 Jl. Sarwo Edi Wibowo, Pedurungan, Kota Semarang, Jawa Tengah 50192, Indonesia 50192",JL. SARWO EDI WIBOWO NO 01 PLAMONGANSARI PEDURUNGAN SEMARANG,ok,
5810011816,SDN Semarang,-6.9828581,110.4561576,"5810011816 Jl. Satrio Wibowo I, Pedurungan, Kota Semarang, Jawa Tengah 50196, Indonesia 50196",JL. SATRIO WIBOWO NO. 3 TLOGOSARI SEMARANG,ok,
5810012011,SDN Semarang,-7.053033,110.391038,"5810012011 Jl. Kolonel HR Hadijanto, Gn. Pati, Kota Semarang, Jawa Tengah 50229, Indonesia 50229",JL. SEKARAN RT. 02 RT. 03 SEKARAN GUNUNG PATI SEMARANG,ok,
5810011842,SDN Semarang,-6.9598462,110.40304,"5810011842 Jl. Selomas Raya, Semarang Utara, Kota Semarang, Jawa Tengah 50177, Indonesia 50177",JL. SELOMAS RAYA SEMARANG -,ok,
5810012361,SDN Semarang,-6.9986445,110.3438887,"5810012361 Jl. Raya Ngaliyan, Ngaliyan, Kota Semarang, Jawa Tengah 50181, Indonesia 50181","JL. SEMARANG BOJA  KM. 2,  TAMBAKAJI NGA LIYAN KOTA SEMARANG  JAWA TENGAH - 50185",ok,
5810012273,SDN Semarang,-7.0803346,110.4117871,"5810012273 Jl. Sendang Elo, Banyumanik, Kota Semarang, Jawa Tengah 50264, Indonesia 50264",JL. SENDANG ELO RT.06 RW.16 BANYUMANIK SEMARANG,ok,
5810011870,SDN Semarang,-6.9841022,110.418517,"5810011870 Jl. Seteran Serut, Semarang Tengah, Kota Semarang, Jawa Tengah 50134, Indonesia 50134",JL. SETERAN SERUT NO.30 SEMARANG -,ok,
5810012298,SDN Semarang,-7.0537245,110.4162941,"5810012298 Jl. Setiabudi No.106, Banyumanik, Kota Semarang, Jawa Tengah 50269, Indonesia 50269",JL. SETIABUDI SEMARANG -,ok,
5810012366,SDN Semarang,-7.0578137,110.4361346,"5810012366 Gg. Bharata, Tembalang, Kota Semarang, Jawa Tengah 50275, Indonesia 50275",JL. SIROJUDIN NO. 10 B SEMARANG SELATAN SEMARANG,ok,
5810012018,SDN Semarang,-7.01609,110.426998,"5810012018 Jl. Sisingamangaraja, Candisari, Kota Semarang, Jawa Tengah 50257, Indonesia 50257",JL. SISINGAMANGARAJA NO. 75 CANDI SEMARANG,ok,
5810022224,SDN Semarang,-7.197657,110.424744,"5810022224 Jl. Raya Suruh - Karanggede, Bergas, Semarang, Jawa Tengah 50552, Indonesia 50552",JL. SOEKARNO HATTA NO. 49 A KARANG JATI UNGARAN,ok,
5810011887,SDN Semarang,-6.992352,110.384665,"5810011887 Jl. Sri Rejeki Raya, Semarang Bar., Kota Semarang, Jawa Tengah 50149, Indonesia 50149",JL. SRI REJEKI RAYA NO. 24 GISIKDRONO SEMARANG BARAT SEMARANG,ok,
5810012291,SDN Semarang,-6.98851,110.36492,"5810012291 Jl. Sriwidido Utara, Ngaliyan, Kota Semarang, Jawa Tengah 50184, Indonesia 50184",JL. SRI WIDODO UTARA NO. 404 RT. 005 RW. 001 PURWOYOSO NGALIYAN SEMARANG,ok,
5820000761,SDN Semarang,-7.004632,110.428127,"5820000761 Jl. Sriwijaya No.79, Semarang Sel., Kota Semarang, Jawa Tengah 50242, Indonesia 50242",JL. SRIWIJAYA NO. 70 WONODRI SEMARANG SE LATAN SEMARANG,ok,
5810012151,SDN Semarang,-7.25514,110.410527,"5810012151 Jl. Semarang-Yogyakarta, Ambarawa, Semarang, Jawa Tengah 50612, Indonesia 50612",JL. SUDIRMAN AMBARAWA -,ok,
5810012352,SDN Semarang,-7.0159911,110.4183688,"5810012352 Jl. Sultan Agung No.104, Gajahmungkur, Kota Semarang, Jawa Tengah 50232, Indonesia 50232",JL. SULTAN AGUNG NO.61   RT/RW   04/001 GAJAH MUNGKUR - GAJAH MUNGKUR SEMARANG 5,ok,
5810012003,SDN Semarang,-7.132642,110.406036,"5810012003 Jl. Mayjend Sutoyo, Ungaran Bar., Semarang, Jawa Tengah 50514, Indonesia 50514",JL. SUTOYO 12 UNGARAN SEMARANG -,ok,
5810011835,SDN Semarang,-6.9871039,110.4048839,"5810011835 Jl. Suyudono, Semarang Sel., Kota Semarang, Jawa Tengah 50245, Indonesia 50245",JL. SUYUDONO  38 A SEMARANG -,ok,
5810012215,SDN Semarang,-6.9871039,110.4048839,"5810012215 Jl. Suyudono, Semarang Sel., Kota Semarang, Jawa Tengah 50245, Indonesia 50245",JL. SUYUDONO NO. 15 A SEMARANG -,ok,
5810032346,SDN Semarang,-7.0030105,110.3991873,"5810032346 Jl. Taman Kelud Sel., Gajahmungkur, Kota Semarang, Jawa Tengah 50237, Indonesia 50237",JL. TAMAN KELUD NO. 7 PETOMPON GAJAHMUNGKUR SEMARANG,ok,
5810011481,SDN Semarang,-7.3328697,110.5092511,"5810011481 Jl. Taman Pahlawan, Tingkir, Kota Salatiga, Jawa Tengah 50742, Indonesia 50742",JL. TAMAN PAHLAWAN SALATIGA -,ok,
5810012000,SDN Semarang,-7.050409,110.394969,"5810012000 Jl. Taman Siswa, Gn. Pati, Kota Semarang, Jawa Tengah 50229, Indonesia 50229",JL. TAMAN SISWA I NO. 79 RT. 04 RW. 06 SEKARAN GUNUNG PATI SEMARANG,ok,
5810012008,SDN Semarang,-7.0504094,110.3949693,"5810012008 Jl. Taman Siswa, Gn. Pati, Kota Semarang, Jawa Tengah 50229, Indonesia 50229",JL. TAMAN SISWA NO. 69 RT. 002 RW. 005 SEKARAN GUNUNG PATI SEMARANG,ok,
5810012009,SDN Semarang,-7.050409,110.394969,"5810012009 Jl. Taman Siswa, Gn. Pati, Kota Semarang, Jawa Tengah 50229, Indonesia 50229",JL. TAMAN SISWA NO.1 RT. 003 RW.003 SEKARAN SEMARANG,ok,
5810012010,SDN Semarang,-7.0504094,110.3949693,"5810012010 Jl. Taman Siswa, Gn. Pati, Kota Semarang, Jawa Tengah 50229, Indonesia 50229",JL. TAMAN SISWA SEKARAN GUNUNG PATI -,ok,
5810012304,SDN Semarang,-6.9902561,110.3379019,"5810012304 Jl. Tambak Aji Gg. II, Ngaliyan, Kota Semarang, Jawa Tengah 50185, Indonesia 50185",JL. TAMBAK AJI II/8 SEMARANG -,ok,
5810032350,SDN Semarang,-7.007,110.425383,"5810032350 Jl. Tegalsari Bar. IIA, Candisari, Kota Semarang, Jawa Tengah 50614, Indonesia 50614",JL. TEGALSARI RAYA NO. 11 CANDISARI SEMARANG,ok,
5810032352,SDN Semarang,-7.007,110.425383,"5810032352 Jl. Tegalsari Bar. IIA, Candisari, Kota Semarang, Jawa Tengah 50614, Indonesia 50614",JL. TEGALSARI RAYA NO. 11 TEGALSARI CANDISARI SEMARANG,ok,
5810012007,SDN Semarang,-7.0607279,110.4447168,"5810012007 Jl. Timoho Raya / Jl. Imam Suparto, Tembalang, Kota Semarang, Jawa Tengah 50277, Indonesia 50277",JL. TIMOHO RAYA 212 SEMARANG -,ok,
5810035286,SDN Semarang,-7.060728,110.444717,"5810035286 Jl. Timoho Raya / Jl. Imam Suparto, Tembalang, Kota Semarang, Jawa Tengah 50277, Indonesia 50277",JL. TIMOHO RAYA NO. 358 BULUSAN TEMBALANG SEMARANG,ok,
5810035286,SDN Semarang,-7.060728,110.444717,"5810035286 Jl. Timoho Raya / Jl. Imam Suparto, Tembalang, Kota Semarang, Jawa Tengah 50277, Indonesia 50277",JL. TIMOHO RAYA NO. 358 BULUSAN TEMBALANG SEMARANG,ok,
5810012278,SDN Semarang,-6.979903,110.440552,"5810012278 Jl. Tirtoyoso VIII, Semarang Tim., Kota Semarang, Jawa Tengah 50125, Indonesia 50125",JL. TIRTOYOSO VIII / 1 SEMARANG -,ok,
5810011840,SDN Semarang,-6.9815564,110.4602827,"5810011840 Jl. Tlogosari Raya II, Pedurungan, Kota Semarang, Jawa Tengah 50196, Indonesia 50196",JL. TLOGOSARI RAYA II NO.1 SEMARANG -,ok,
5810011872,SDN Semarang,-6.9815564,110.4602827,"5810011872 Jl. Tlogosari Raya II, Pedurungan, Kota Semarang, Jawa Tengah 50196, Indonesia 50196",JL. TLOGOSARI RAYA II/46 F1 SEMARANG -,ok,
5810012001,SDN Semarang,-6.9898171,110.4582844,"5810012001 Jl. Tlogosari Raya, Pedurungan, Kota Semarang, Jawa Tengah 50196, Indonesia 50196",JL. TLOGOSARI RAYA SEMARANG -,ok,
5810012013,SDN Semarang,-6.98925,110.418165,"5810012013 Jl. Tri Lomba Juang, Semarang Sel., Kota Semarang, Jawa Tengah 50249, Indonesia 50249",JL. TRI LOMBA JUANG NO. 1 SEMARANG -,ok,
5810012037,SDN Semarang,-7.035634,110.4697,"5810012037 Jl. Tulus Harapan Raya, Tembalang, Kota Semarang, Jawa Tengah 50272, Indonesia 50272",JL. TULUS HARAPAN BLOK B 11 B NO. 10 SENDANGMULYO TEMBALANG SEMARANG,ok,
5810032353,SDN Semarang,-7.0356343,110.4696997,"5810032353 Jl. Tulus Harapan Raya, Tembalang, Kota Semarang, Jawa Tengah 50272, Indonesia 50272",JL. TULUS HARAPAN BLOK B-11 NO. 10 SENDANG MULYO TEMBALANG SEMARANG,ok,
5810011799,SDN Semarang,-7.125169,110.408825,"5810011799 Jl. Tunggorono, Ungaran Bar., Semarang, Jawa Tengah 50517, Indonesia 50517",JL. TUNGGORONO - UNGARAN -,ok,
5810012024,SDN Semarang,-7.014446,110.421919,"5810012024 Jl. Ungaran Tim. Raya, Candisari, Kota Semarang, Jawa Tengah 50252, Indonesia 50252",JL. UNGARAN IV NO. 215 WONOTINGAL CANDISARI SEMARANG,ok,
5810011846,SDN Semarang,-7.124496,110.406567,"5810011846 Jl. Jalak II, Ungaran Bar., Semarang, Jawa Tengah 50517, Indonesia 50517","JL. UNGARAN PLAZA BLOK C/9,10,23 UNGARAN SEMARANG",ok,
5810011999,SDN Semarang,-7.009881,110.384512,"5810011999 Jl. Untung Suropati, Semarang Bar., Kota Semarang, Jawa Tengah 50147, Indonesia 50147",JL. UNTUNG SUROPATI NO. 10 RT. 004 RW. 001 MANYARAN SEMARANG,ok,
5810011997,SDN Semarang,-7.267401,110.409824,"5810011997 Jl. Kartini Tambakboyo, Ambarawa, Semarang, Jawa Tengah 50611, Indonesia 50611",JL. WARUNG LANANG NO. 1 RT. 005 / RW. 003 AMBARAWA,not ok,
5810012110,SDN Semarang,-6.9982,110.347737,"5810012110 Jl. Wismasari Raya, Ngaliyan, Kota Semarang, Jawa Tengah 50181, Indonesia 50181",JL. WISMA SARI RAYA NGALIYAN SEMARANG -,ok,
5810012117,SDN Semarang,-7.003729,110.470632,"5810012117 Jl. Woltermonginsidi, Pedurungan, Kota Semarang, Jawa Tengah 50192, Indonesia 50192",JL. WOLTER MANGUNSIDI SEMARANG -,ok,
5810012209,SDN Semarang,-7.003729,110.470632,"5810012209 Jl. Woltermonginsidi, Pedurungan, Kota Semarang, Jawa Tengah 50192, Indonesia 50192",JL. WOLTER MONGINSIDI NO. 108 -,ok,
5810032357,SDN Semarang,-6.9900414,110.4733199,"5810032357 Jl. Woltermonginsidi, Pedurungan, Kota Semarang, Jawa Tengah 50196, Indonesia 50196",JL. WOLTER MONGINSIDI NO. 13 TLOGOSARI WETAN PEDURUNGAN SEMARANG,ok,
5810012046,SDN Semarang,-7.003729,110.470632,"5810012046 Jl. Woltermonginsidi, Pedurungan, Kota Semarang, Jawa Tengah 50192, Indonesia 50192",JL. WOLTER MONGINSIDI SEMARANG -,ok,
5810012078,SDN Semarang,-7.004961,110.427979,"5810012078 Jl. Tegalsari Raya, Semarang Sel., Kota Semarang, Jawa Tengah 50614, Indonesia 50614",JL. WONODRI BARU  -  SEMARANG -,not ok,"-7.002288, 110.430947"
5810011850,SDN Semarang,-7.004961,110.427979,"5810011850 Jl. Tegalsari Raya, Semarang Sel., Kota Semarang, Jawa Tengah 50614, Indonesia 50614",JL. WONODRI BARU 28-30 SEMARANG -,not ok,"-7.002288, 110.430947"
5810011841,SDN Semarang,-7.00341,110.430532,"5810011841 Jl. Wonodri Joho, Semarang Sel., Kota Semarang, Jawa Tengah 50242, Indonesia 50242",JL. WONODRI SEMARANG -,ok,
5810012108,SDN Semarang,-6.977903,110.427402,"5810012108 Jl. Wotgandul Barat, Semarang Tengah, Kota Semarang, Jawa Tengah 50139, Indonesia 50139",JL. WOTGANDUL DALAM NO. 197 SEMARANG -,ok,
5810012216,SDN Semarang,-6.979704,110.423994,"5810012216 Jl. Wotgandul Barat, Semarang Tengah, Kota Semarang, Jawa Tengah 50135, Indonesia 50135",JL. WOTGANDUL TIMUR NO. 24 (DPN TK. HARI JAYA ) SEMARANG,ok,
5810032359,SDN Semarang,-7.1331854,110.401497,"5810032359 Jl. Yos Sudarso, Ungaran Bar., Semarang, Jawa Tengah, Indonesia None",JL. YOS SUDARSO NO. 199 UNGARAN KAB SEMARANG,ok,
5810032285,SDN Semarang,-6.9843318,110.407282,"5810032285 Jl. Bulu Stalan, Semarang Sel., Kota Semarang, Jawa Tengah 50245, Indonesia 50245",JL.JAYENGAN NO 30  BARUSARI SEMARANG TENGAH SEMARANG,ok,
5810012358,SDN Semarang,-6.981479,110.426292,"5810012358 Jl. Karang Anyar, Semarang Tengah, Kota Semarang, Jawa Tengah 50135, Indonesia 50135",JL.KARANGANYAR NO.2 BRUMBUNGAN - SEMARAN G 50135,ok,
5810012358,SDN Semarang,-6.981479,110.426292,"5810012358 Jl. Karang Anyar, Semarang Tengah, Kota Semarang, Jawa Tengah 50135, Indonesia 50135",JL.KARANGANYAR NO.2 BRUMBUNGAN - SEMARAN G 50135,ok,
5810012365,SDN Semarang,-7.0034403,110.3997359,"5810012365 Jl. Kelud Raya, Gajahmungkur, Kota Semarang, Jawa Tengah 50237, Indonesia 50237",JL.KELUD RAYA 52. SEMARANG GAJAH MUNGKUR  SEMARANG JAWA TENGAH,ok,
5810006023,SDN Semarang,-7.085839,110.042794,"5810006023 Sudagaran, Sukorejo, Kendal, Jawa Tengah 51363, Indonesia 51363","JL.NGADIWARNO, SUKOREJO -",ok,
5810012375,SDN Semarang,-6.9764038,110.4175709,"5810012375 Jl. Pemuda, Semarang Tengah, Kota Semarang, Jawa Tengah 50139, Indonesia 50139",JL.PEMUDA 29 - 31 PANDANSARI SEMARANG TE NGAH SEMARANG 50139,ok,
5810012312,SDN Semarang,-6.980669,110.4133,"5810012312 Jl. Pemuda No.138, Semarang Tengah, Kota Semarang, Jawa Tengah 50139, Indonesia 50139",JL.PEMUDA N0.148 SEKAYU - SEMARANG TENGA H SEMARANG 50132,ok,
5810012303,SDN Semarang,-6.9995346,110.3919636,"5810012303 Jl. Srinindito IV, Semarang Bar., Kota Semarang, Jawa Tengah 50148, Indonesia 50148",JL.SIMONGAN NO.131 SEMARANG SEMARANG -,ok,
5810021711,SDN Semarang,-6.989882,110.358542,"5810021711 Jl. Ngaliyan, Ngaliyan, Kota Semarang, Jawa Tengah 50184, Indonesia 50184",KAWASAN INDUSTRI GATOT SUBROTO BLOK D ( DEPAN PABRIK BAJA ) KRAPYAK SEMARANG,not ok,
5810021712,SDN Semarang,-7.091106,110.356106,"5810021712 Jl. Raya Cangkiran-Gunungpati, Gn. Pati, Kota Semarang, Jawa Tengah 50229, Indonesia 50229",KP. KARANGANYAR RT. 002 RW. 005 GUNUNGPATI SEMARANG,ok,
5810022317,SDN Semarang,-6.966865,110.471054,"5810022317 Jl. Genuksari, Genuk, Kota Semarang, Jawa Tengah 50117, Indonesia 50117",NGASEM TLOGOSARI WETAN RT. 002 RW. 004 SEMARANG,not ok,
5810022786,SDN Semarang,-6.990732,110.339794,"5810022786 Jl. Tambak Aji Raya, Ngaliyan, Kota Semarang, Jawa Tengah 50185, Indonesia 50185","PARAGON MALL SEMARANG, JL. PEMUDA NO. 11 8 SEKAYU SEMARANG TENGAH SEMARANG JAWA T",not ok,"-6.978337, 110.415779"
5810034032,SDN Semarang,-6.871729,110.724822,"5810034032 Jl. Raya Demak - Kudus, Gajah, Demak, Jawa Tengah 59581, Indonesia 59581",PASAR GAJAH LOS BELAKANG JL DEMAK - KUDUS KEL GAJAH KEL GAJAH,ok,
5810017483,SDN Semarang,-7.00381,110.45,"5810017483 Jl. Jembawan III, Gayamsari, Kota Semarang, Jawa Tengah 50248, Indonesia 50248",PASAR GAYAMSARI  SEMARANG SEMARANG,ok,
5810020315,SDN Semarang,-7.001755,110.42938,"5810020315 Jl. Wonodri Baru II No.9, Semarang Sel., Kota Semarang, Jawa Tengah 50242, Indonesia 50242",PASAR PETERONGAN RUKO BELAKANG NO. 3 WONODRI SEMARANG SELATAN SEMARANG,ok,
5810032251,SDN Semarang,-7.0214299,110.4801764,"5810032251 Jl. Plamongan Sari Raya, Pedurungan, Kota Semarang, Jawa Tengah 50192, Indonesia 50192",PLAMONGAN SARI NO 6 PLAMONGAN SARI PEDURUNGAN SEMARANG,ok,
5810020324,SDN Semarang,-7.162551,110.413378,"5810020324 Jl. Komp. Ps. Babadan, Ungaran Bar., Semarang, Jawa Tengah 50519, Indonesia 50519",PS BABADAN LOS BUMBON TENGAH BRINGIN - UNGARAN,ok,
5810032237,SDN Semarang,-6.979437,110.470379,"5810032237 Jl. Bangetayu Wetan, Genuk, Kota Semarang, Jawa Tengah 50196, Indonesia 50196",PS BANGETAYU LOS SEMBAKO BANGETAYU KULON GENUK SEMARANG,ok,
5810021211,SDN Semarang,-6.888483,110.647524,"5810021211 Jl. Raya Demak - Kudus, Kec. Demak, Demak, Jawa Tengah 59511, Indonesia 59511",PS BINTORO - KR ANYAR DEMAK -,ok,
5810022005,SDN Semarang,-7.104,110.272907,"5810022005 Jl. Patean - Boja, Boja, Kendal, Jawa Tengah 51381, Indonesia 51381",PS BOJA BLOK C NO 11  BOJA KENDAL -,ok,
5810021716,SDN Semarang,-7.104,110.272907,"5810021716 Jl. Patean - Boja, Boja, Kendal, Jawa Tengah 51381, Indonesia 51381",PS BOJA BLOK C NO 20  BOJA KENDAL -,ok,
5810034250,SDN Semarang,-6.91895,110.598247,"5810034250 Jl. Semarang-Demak, Karang Tengah, Demak, Jawa Tengah 59561, Indonesia 59561",PS BUYARAN LOS BELAKANG 4 KARANGSARI / KARANGTENGAH DEMAK,ok,
5810021093,SDN Semarang,-6.92794,110.56105,"5810021093 Jl. Semarang-Demak, Karang Tengah, Demak, Jawa Tengah 59561, Indonesia 59561",PS BUYARAN LOS SAMPING BARAT I DONOREJO #NAME?,ok,
5810034029,SDN Semarang,-6.871729,110.724822,"5810034029 Jl. Raya Demak - Kudus, Gajah, Demak, Jawa Tengah 59581, Indonesia 59581",PS GAJAH LOS DALAM JL DEMAK - KUDUS KEL GAJAH KEC GAJAH KOTA DEMAK,ok,
5810021491,SDN Semarang,-7.091106,110.356106,"5810021491 Jl. Raya Cangkiran-Gunungpati, Gn. Pati, Kota Semarang, Jawa Tengah 50229, Indonesia 50229",PS GUNUNG PATI 3 A  GUNUNG PATI SMG -,ok,
5810022764,SDN Semarang,-7.055401,110.315152,"5810022764 Jl. Rm. Hadi Soebeno Raya, Mijen, Kota Semarang, Jawa Tengah 50215, Indonesia 50215",PS MIJEN LOS DEPAN SEBELAH BU MEGA MIJEN SMG,ok,
5810032246,SDN Semarang,-7.254642,110.411902,"5810032246 Jl. Semarang-Yogyakarta, Ambarawa, Semarang, Jawa Tengah 50612, Indonesia 50612","PS PROJO AMBARAWA, KUPANG - KEC. AMBARAWA",ok,
5810020304,SDN Semarang,-7.16299,110.413381,"5810020304 Jl. Jaya Baya, Ungaran Bar., Semarang, Jawa Tengah 50518, Indonesia 50518",PS. BABADAN LOS TIMUR NO. C-32 LANGENSARI UNGARAN,ok,
5810022228,SDN Semarang,-6.982757,110.476972,"5810022228 Jl. Raya Bangetayu, Genuk, Kota Semarang, Jawa Tengah 50115, Indonesia 50115",PS. BANGETAYU GENUKSARI GENUK SEMARANG -,ok,
5810022508,SDN Semarang,-6.966865,110.471054,"5810022508 Jl. Genuksari, Genuk, Kota Semarang, Jawa Tengah 50117, Indonesia 50117",PS. BANGETAYU KIOS 36 BANGETAYU GENUKSARI SEMARANG,not ok,"-6.982479, 110.476428"
5810021823,SDN Semarang,-6.888483,110.647524,"5810021823 Jl. Raya Demak - Kudus, Kec. Demak, Demak, Jawa Tengah 59511, Indonesia 59511",PS. BINTORO A1 - 11 DEMAK DEMAK,ok,
5810021740,SDN Semarang,-6.888483,110.647524,"5810021740 Jl. Raya Demak - Kudus, Kec. Demak, Demak, Jawa Tengah 59511, Indonesia 59511",PS. BINTORO A2 - 18 DEMAK DEMAK,ok,
5810022192,SDN Semarang,-6.888483,110.647524,"5810022192 Jl. Raya Demak - Kudus, Kec. Demak, Demak, Jawa Tengah 59511, Indonesia 59511",PS. BINTORO ATAS BLOK JZ - 33 DEMAK -,ok,
5810021696,SDN Semarang,-6.888483,110.647524,"5810021696 Jl. Raya Demak - Kudus, Kec. Demak, Demak, Jawa Tengah 59511, Indonesia 59511",PS. BINTORO BLOK I NO. 85 - 87 DEMAK DEMAK,ok,
5810021738,SDN Semarang,-6.888483,110.647524,"5810021738 Jl. Raya Demak - Kudus, Kec. Demak, Demak, Jawa Tengah 59511, Indonesia 59511",PS. BINTORO BLOK J NO. 187-189 KADILANGU DEMAK,ok,
5810022077,SDN Semarang,-6.888483,110.647524,"5810022077 Jl. Raya Demak - Kudus, Kec. Demak, Demak, Jawa Tengah 59511, Indonesia 59511",PS. BINTORO BLOK K 75-76 ATAS BINTORO DEMAK,ok,
5810017418,SDN Semarang,-6.89059,110.64157,"5810017418 Jl. Semarang-Demak, Kec. Demak, Demak, Jawa Tengah 59511, Indonesia 59511",PS. BINTORO DEMAK -,ok,
5810017365,SDN Semarang,-6.89059,110.64157,"5810017365 Jl. Semarang-Demak, Kec. Demak, Demak, Jawa Tengah 59511, Indonesia 59511",PS. BINTORO DEMAK -,ok,
5810022778,SDN Semarang,-6.888483,110.647524,"5810022778 Jl. Raya Demak - Kudus, Kec. Demak, Demak, Jawa Tengah 59511, Indonesia 59511","PS. BINTORO LANTAI 1 BLOK I NO.226, DEMAK",ok,
5810024625,SDN Semarang,-6.888483,110.647524,"5810024625 Jl. Raya Demak - Kudus, Kec. Demak, Demak, Jawa Tengah 59511, Indonesia 59511",PS. BINTORO LOS BAWAH C I NO. 14 BINTORO DEMAK,ok,
5810022040,SDN Semarang,-6.888483,110.647524,"5810022040 Jl. Raya Demak - Kudus, Kec. Demak, Demak, Jawa Tengah 59511, Indonesia 59511",PS. BINTORO LOS DEPAN ATAS BLOK E-2 NO. 1 BINTORO DEMAK,ok,
5810022312,SDN Semarang,-6.888483,110.647524,"5810022312 Jl. Raya Demak - Kudus, Kec. Demak, Demak, Jawa Tengah 59511, Indonesia 59511",PS. BINTORO LT. 2 BLOK E-2 NO. 2 BINTORO DEMAK,ok,
5810017375,SDN Semarang,-7.329454,110.505083,"5810017375 Jl. Taman Pahlawan, Kota Salatiga, Jawa Tengah, Indonesia None",PS. BLAURAN SALATIGA -,ok,
5810006026,SDN Semarang,-7.103929,110.278262,"5810006026 Pemuda, Boja, Kendal, Jawa Tengah 51381, Indonesia 51381",PS. BOJA BLOK C NO. 11 JL. PEMUDA BOJA -,ok,
5810022963,SDN Semarang,-7.104,110.272907,"5810022963 Jl. Patean - Boja, Boja, Kendal, Jawa Tengah 51381, Indonesia 51381",PS. BOJA BLOK D LOS SAMPING BOJA -,ok,
5810017487,SDN Semarang,-6.972396,110.403865,"5810017487 Jl. Erowati I, Semarang Utara, Kota Semarang, Jawa Tengah 50179, Indonesia 50179",PS. BULU SEMARANG SEMARANG,not ok,"-6.984211, 110.407303"
5810020289,SDN Semarang,-6.91895,110.598247,"5810020289 Jl. Semarang-Demak, Karang Tengah, Demak, Jawa Tengah 59561, Indonesia 59561",PS. BUYARAN LOS BARAT 13 KARANG SARI DEMAK,ok,
5810017341,SDN Semarang,-7.072032,110.429677,"5810017341 Jl. Kanfer Raya, Banyumanik, Kota Semarang, Jawa Tengah 50267, Indonesia 50267",PS. DAMAR SEMARANG -,ok,
5810017402,SDN Semarang,-7.072831,110.431263,"5810017402 Jl. Damar Tim. I, Banyumanik, Kota Semarang, Jawa Tengah 50267, Indonesia 50267",PS. DAMAR SEMARANG SEMARANG,ok,
5810034030,SDN Semarang,-6.871729,110.724822,"5810034030 Jl. Raya Demak - Kudus, Gajah, Demak, Jawa Tengah 59581, Indonesia 59581",PS. GAJAH LOS BELAKANG JL. DEMAK - KUDUS KEL GAJAH KEC GAJAH KAB DEMAK,ok,
5810017328,SDN Semarang,-6.9753401,110.4258922,"5810017328 Jl. Gang Pasar Baru No.15, Semarang Tengah, Kota Semarang, Jawa Tengah 50139, Indonesia 50139",PS. GANG BARU 15 SEMARANG -,ok,
5810012148,SDN Semarang,-7.002592,110.450483,"5810012148 Jl. Beruang Dalam Bar. 2, Gayamsari, Kota Semarang, Jawa Tengah 50248, Indonesia 50248",PS. GAYAM LOS TENGAH / JL. BERUANG DALAM TIMUR II NO.6 RT. 002 RW. 001,ok,
5810012153,SDN Semarang,-6.998637,110.442161,"5810012153 Jend. S Sudiarto, Gayamsari, Kota Semarang, Jawa Tengah 50249, Indonesia 50249",PS. GAYAM LOS TENGAH I JL. MAJAPAHIT SEMARANG,ok,
5810012171,SDN Semarang,-7.002526,110.449208,"5810012171 Jend. S Sudiarto, Gayamsari, Kota Semarang, Jawa Tengah 50248, Indonesia 50248",PS. GAYAM SARI LOS BARAT JL. MAJAPAHIT SEMARANG,ok,
5810017380,SDN Semarang,-6.999250,110.443457,"5810017380 Jl. Kijang Selatan, Gayamsari, Kota Semarang, Jawa Tengah 50248, Indonesia 50248",PS. GAYAMSARI 33 SEMARANG SEMARANG,ok,
5810017516,SDN Semarang,-6.999250,110.443457,"5810017516 Jl. Kijang Selatan, Gayamsari, Kota Semarang, Jawa Tengah 50248, Indonesia 50248",PS. GAYAMSARI BELAKANG SEMARANG SEMARANG,ok,
5810022787,SDN Semarang,-7.004576,110.466201,"5810022787 Jl. Palebon VIII No.8, Pedurungan, Kota Semarang, Jawa Tengah 50246, Indonesia 50246",PS. GAYAMSARI D-2 SEMARANG -,not ok,"-6.999250, 110.443457"
5810026434,SDN Semarang,-7.010177,110.464544,"5810026434 Jl. Gemah Bar., Pedurungan, Kota Semarang, Jawa Tengah 50246, Indonesia 50246",PS. GAYAMSARI LOS A-9 GEMAH PEDURUNGAN SEMARANG,not ok,"-6.999250, 110.443457"
5810021060,SDN Semarang,-7.010177,110.464544,"5810021060 Jl. Gemah Bar., Pedurungan, Kota Semarang, Jawa Tengah 50246, Indonesia 50246",PS. GAYAMSARI LOS TIMUR NO. 45 GEMAH PEDURUNGAN SEMARANG,not ok,"-6.999250, 110.443457"
5810017262,SDN Semarang,-7.00381,110.45,"5810017262 Jl. Jembawan III, Gayamsari, Kota Semarang, Jawa Tengah 50248, Indonesia 50248",PS. GAYAMSARI SEMARANG SEMARANG,not ok,"-6.999250, 110.443457"
5810017349,SDN Semarang,-7.00381,110.45,"5810017349 Jl. Jembawan III, Gayamsari, Kota Semarang, Jawa Tengah 50248, Indonesia 50248",PS. GAYAMSARI SEMARANG SEMARANG,not ok,"-6.999250, 110.443457"
5810022763,SDN Semarang,-6.9523,110.479755,"5810022763 Jl. Kaligawe Raya No.168, Sayung, Demak, Jawa Tengah 50118, Indonesia 50118",PS. GENUK BLOK 1 A LOS DEPAN GENUKSARI GENUK,ok,
5810022087,SDN Semarang,-6.966865,110.471054,"5810022087 Jl. Genuksari, Genuk, Kota Semarang, Jawa Tengah 50117, Indonesia 50117",PS. GENUK BLOK DALAM TIMUR GENUK SEMARANG,not ok,"-6.9523, 110.479755"
5810022369,SDN Semarang,-6.966865,110.471054,"5810022369 Jl. Genuksari, Genuk, Kota Semarang, Jawa Tengah 50117, Indonesia 50117","PS. GENUK LOS DEPAN , GENUK SEMARANG -",not ok,"-6.9523, 110.479755"
5810021724,SDN Semarang,-6.966865,110.471054,"5810021724 Jl. Genuksari, Genuk, Kota Semarang, Jawa Tengah 50117, Indonesia 50117",PS. GENUK LOS DEPAN GENUK SEMARANG -,not ok,"-6.9523, 110.479755"
5810017353,SDN Semarang,-6.9523,110.479755,"5810017353 Jl. Kaligawe Raya No.168, Sayung, Demak, Jawa Tengah 50118, Indonesia 50118",PS. GENUK SEMARANG -,ok,
5810017359,SDN Semarang,-6.9523,110.479755,"5810017359 Jl. Kaligawe Raya No.168, Sayung, Demak, Jawa Tengah 50118, Indonesia 50118",PS. GENUK SEMARANG -,ok,
5810017364,SDN Semarang,-6.9523,110.479755,"5810017364 Jl. Kaligawe Raya No.168, Sayung, Demak, Jawa Tengah 50118, Indonesia 50118",PS. GENUK SEMARANG -,ok,
5810017326,SDN Semarang,-6.9523,110.479755,"5810017326 Jl. Kaligawe Raya No.168, Sayung, Demak, Jawa Tengah 50118, Indonesia 50118",PS. GENUK SEMARANG -,ok,
5810017394,SDN Semarang,-7.052791,110.665257,"5810017394 Jl. Raya Gubug-Kedungjati, Gubug, Grobogan, Jawa Tengah 58164, Indonesia 58164",PS. GUBUG GROBOGAN -,ok,
5810017397,SDN Semarang,-7.052791,110.665257,"5810017397 Jl. Raya Gubug-Kedungjati, Gubug, Grobogan, Jawa Tengah 58164, Indonesia 58164",PS. GUBUG SBLH BARAT SD VII GROBOGAN -,ok,
5810012155,SDN Semarang,-7.091106,110.356106,"5810012155 Jl. Raya Cangkiran-Gunungpati, Gn. Pati, Kota Semarang, Jawa Tengah 50229, Indonesia 50229",PS. GUNUNG PATI LOS SAMPING ( DEKAT LARIS MANIS ) JL. RAYA GUNUNG PATI,ok,
5810017392,SDN Semarang,-7.31133,110.49096,"5810017392 Jl. Raya Suruh - Karanggede, Sidorejo, Kota Salatiga, Jawa Tengah 50714, Indonesia 50714",PS. JETIS SALTIGA -,not ok,
5810022758,SDN Semarang,-6.977054,110.426897,"5810022758 Gg. Tengah No.82-84, Semarang Tengah, Kota Semarang, Jawa Tengah 50139, Indonesia 50139",PS. JOHAR BLOK II NO. E-1 YAIK -,not ok,"-6.971456, 110.423887"
5810022759,SDN Semarang,-6.971824,110.424355,"5810022759 Jl. Ps. Johar, Semarang Tengah, Kota Semarang, Jawa Tengah 50188, Indonesia 50188",PS. JOHAR LOS TENGAH SEMARANG -,ok,
5810034282,SDN Semarang,-6.989882,110.358542,"5810034282 Jl. Ngaliyan, Ngaliyan, Kota Semarang, Jawa Tengah 50184, Indonesia 50184",PS. JRAKAH LOS ATAS PURWOYOSO SEMARANG BARAT SEMARANG,ok,
5810034283,SDN Semarang,-6.989882,110.358542,"5810034283 Jl. Ngaliyan, Ngaliyan, Kota Semarang, Jawa Tengah 50184, Indonesia 50184",PS. JRAKAH LOS BAWAH PURWOYOSO SEMARANG BARAT SEMARANG,ok,
5810017311,SDN Semarang,-6.979871,110.394926,"5810017311 Jl. Pasar Karang Ayu, Semarang Bar., Kota Semarang, Jawa Tengah 50149, Indonesia 50149",PS. KARANG AYU BLOK TIMUR SEMARANG -,ok,
5810017339,SDN Semarang,-6.9798706,110.394926,"5810017339 Jl. Pasar Karang Ayu, Semarang Bar., Kota Semarang, Jawa Tengah 50149, Indonesia 50149",PS. KARANG AYU SEMARANG -,ok,
5810017279,SDN Semarang,-6.9798706,110.394926,"5810017279 Jl. Pasar Karang Ayu, Semarang Bar., Kota Semarang, Jawa Tengah 50149, Indonesia 50149",PS. KARANG AYU SEMARANG -,ok,
5810017382,SDN Semarang,-6.9798706,110.394926,"5810017382 Jl. Pasar Karang Ayu, Semarang Bar., Kota Semarang, Jawa Tengah 50149, Indonesia 50149",PS. KARANG AYU SEMARANG -,ok,
5810017316,SDN Semarang,-6.9798706,110.394926,"5810017316 Jl. Pasar Karang Ayu, Semarang Bar., Kota Semarang, Jawa Tengah 50149, Indonesia 50149",PS. KARANG AYU SEMARANG -,ok,
5810012232,SDN Semarang,-6.979871,110.394926,"5810012232 Jl. Pasar Karang Ayu, Semarang Bar., Kota Semarang, Jawa Tengah 50149, Indonesia 50149",PS. KARANGAYU LOS SAMPING NO. 2 SEMARANG ( JL. JEND. SUDIRMAN ),ok,
5810012175,SDN Semarang,-6.982311,110.392485,"5810012175 Jl. Raya Suruh - Karanggede, Semarang Bar., Kota Semarang, Jawa Tengah 50149, Indonesia 50149",PS. KARANGAYU LOS TENGAH (PINTU MASUK TIMUR) JL. JEND. SUDIRMAN NO. 117,ok,
5810022785,SDN Semarang,-6.987713,110.389678,"5810022785 Jl. Pamularsih, Semarang Bar., Kota Semarang, Jawa Tengah 50149, Indonesia 50149",PS. KARANGAYU NO. 47 / SEMARANG INDAH C 10 NO. 14 SEMARANG,not ok,"-6.982311, 110.392485"
5810020207,SDN Semarang,-6.9798706,110.394926,"5810020207 Jl. Pasar Karang Ayu, Semarang Bar., Kota Semarang, Jawa Tengah 50149, Indonesia 50149",PS. KARANGAYU SEMARANG -,ok,
5810017376,SDN Semarang,-6.983986,110.424035,"5810017376 Jl. Kemuning I, Semarang Tengah, Kota Semarang, Jawa Tengah 50135, Indonesia 50135",PS. KEMUNING SEMARANG -,ok,
5810025795,SDN Semarang,-6.930367,110.20844,"5810025795 Jl. Semarang - Kendal No.81, Kendal, Kendal, Jawa Tengah 51318, Indonesia 51318",PS. KENDAL BARU LOS TIMUR KEBON DALEM KENDAL,ok,
5810017504,SDN Semarang,-6.9798706,110.394926,"5810017504 Jl. Pasar Karang Ayu, Semarang Bar., Kota Semarang, Jawa Tengah 50149, Indonesia 50149",PS. KR. AYU SEMARANG -,ok,
5810017478,SDN Semarang,-6.9798706,110.394926,"5810017478 Jl. Pasar Karang Ayu, Semarang Bar., Kota Semarang, Jawa Tengah 50149, Indonesia 50149",PS. KR. AYU SEMARANG -,ok,
5810022222,SDN Semarang,-7.272989,110.402867,"5810022222 Jl. Pemuda, Ambarawa, Semarang, Jawa Tengah 50614, Indonesia 50614",PS. LANANG LOS DEPAN NO. 6 AMBARAWA -,not ok,"-7.263948, 110.404483"
5810012174,SDN Semarang,-7.056659,110.464758,"5810012174 Jl. Meteseh Wonosari Tengah, Tembalang, Kota Semarang, Jawa Tengah 50271, Indonesia 50271",PS. METESEH JL. RAYA METESEH BLOK T METESEH TEMBALANG,ok,
5810017259,SDN Semarang,-7.02684,110.510777,"5810017259 Jl. Sukaimi, Mranggen, Demak, Jawa Tengah 59567, Indonesia 59567",PS. MRANGGEN DEMAK DEMAK,ok,
5810017360,SDN Semarang,-7.02684,110.510777,"5810017360 Jl. Sukaimi, Mranggen, Demak, Jawa Tengah 59567, Indonesia 59567",PS. MRANGGEN DEMAK DEMAK,ok,
5810017393,SDN Semarang,-7.02684,110.510777,"5810017393 Jl. Sukaimi, Mranggen, Demak, Jawa Tengah 59567, Indonesia 59567",PS. MRANGGEN DEMAK DEMAK,ok,
5810012157,SDN Semarang,-6.997033,110.346465,"5810012157 Jl. Raya Ngaliyan, Ngaliyan, Kota Semarang, Jawa Tengah 50185, Indonesia 50185",PS. NGALIYAN ( SAMPING BU WASIS ) JL. RAYA NGALIYAN SEMARANG,ok,
5810017388,SDN Semarang,-6.997578,110.346213,"5810017388 Jl. Wismasari Raya, Ngaliyan, Kota Semarang, Jawa Tengah 50181, Indonesia 50181",PS. NGALIYAN SEMARANG -,ok,
5810017383,SDN Semarang,-6.997578,110.346213,"5810017383 Jl. Wismasari Raya, Ngaliyan, Kota Semarang, Jawa Tengah 50181, Indonesia 50181",PS. NGALIYAN SEMARANG -,ok,
5810017344,SDN Semarang,-6.997578,110.346213,"5810017344 Jl. Wismasari Raya, Ngaliyan, Kota Semarang, Jawa Tengah 50181, Indonesia 50181",PS. NGALIYAN SEMARANG -,ok,
5810034643,SDN Semarang,-6.961908,110.152331,"5810034643 Jl. Patebon - Pegandon, Pegandon, Kendal, Jawa Tengah 51357, Indonesia 51357",PS. PEGANDON LOS BELAKANG NO. 1 PENANGGULAN PEGANDON KENDAL,ok,
5810017356,SDN Semarang,-7.001952,110.435603,"5810017356 Jl. Peterongan Raya, Semarang Sel., Kota Semarang, Jawa Tengah 50242, Indonesia 50242",PS. PETERONGAN BELAKANG PASAR SEMARANG SEMARANG,ok,
5810019670,SDN Semarang,-7.001952,110.435603,"5810019670 Jl. Peterongan Raya, Semarang Sel., Kota Semarang, Jawa Tengah 50242, Indonesia 50242",PS. PETERONGAN DALAM SEMARANG SEMARANG,ok,
5810019669,SDN Semarang,-7.001952,110.435603,"5810019669 Jl. Peterongan Raya, Semarang Sel., Kota Semarang, Jawa Tengah 50242, Indonesia 50242",PS. PETERONGAN DALAM SEMARANG SEMARANG,ok,
5810020244,SDN Semarang,-7.001952,110.435603,"5810020244 Jl. Peterongan Raya, Semarang Sel., Kota Semarang, Jawa Tengah 50242, Indonesia 50242",PS. PETERONGAN LOS BELAKANG DEKAT PKL SEPATU SEMARANG,ok,
5810022515,SDN Semarang,-7.001952,110.435603,"5810022515 Jl. Peterongan Raya, Semarang Sel., Kota Semarang, Jawa Tengah 50242, Indonesia 50242",PS. PETERONGAN LOS BELAKANG SELATAN PETERONGAN SEMARANG SELATAN SEMARANG,ok,
5810019609,SDN Semarang,-7.001952,110.435603,"5810019609 Jl. Peterongan Raya, Semarang Sel., Kota Semarang, Jawa Tengah 50242, Indonesia 50242",PS. PETERONGAN LOS BELAKANG SEMARANG SEMARANG,ok,
5810022769,SDN Semarang,-7.00289,110.433,"5810022769 Jl. MT. Haryono, Semarang Sel., Kota Semarang, Jawa Tengah 50242, Indonesia 50242",PS. PETERONGAN LOS DALAM PETERONGAN SEMARANG,ok,
5810017458,SDN Semarang,-7.00289,110.433,"5810017458 Jl. MT. Haryono, Semarang Sel., Kota Semarang, Jawa Tengah 50242, Indonesia 50242",PS. PETERONGAN SEMARANG SEMARANG,ok,
5810017401,SDN Semarang,-7.00289,110.433,"5810017401 Jl. MT. Haryono, Semarang Sel., Kota Semarang, Jawa Tengah 50242, Indonesia 50242",PS. PETERONGAN SEMARANG SEMARANG,ok,
5810017358,SDN Semarang,-7.00289,110.433,"5810017358 Jl. MT. Haryono, Semarang Sel., Kota Semarang, Jawa Tengah 50242, Indonesia 50242",PS. PETERONGAN SEMARANG SEMARANG,ok,
5810017386,SDN Semarang,-7.00289,110.433,"5810017386 Jl. MT. Haryono, Semarang Sel., Kota Semarang, Jawa Tengah 50242, Indonesia 50242",PS. PETERONGAN SEMARNG -,ok,
5810034619,SDN Semarang,-6.867077,110.173019,"5810034619 Unnamed Road, Patebon, Kendal, Jawa Tengah 51351, Indonesia 51351",PS. PIDODO KULON LOS DEPAN NO. 4 JL. RAYA PIDODO NO. 1 PIDODO KULON PATEBON,ok,
5810034620,SDN Semarang,-6.867077,110.173019,"5810034620 Unnamed Road, Patebon, Kendal, Jawa Tengah 51351, Indonesia 51351",PS. PIDODO KULON LOS TIMUR NO. 4 JL. RAYA PIDODO NO. 1 PIDODO KULON PATEBON,ok,
5810017285,SDN Semarang,-7.255773,110.408403,"5810017285 Jl. Semarang-Yogyakarta, Ambarawa, Semarang, Jawa Tengah 50612, Indonesia 50612",PS. PROJO AMBARAWA -,ok,
5810017614,SDN Semarang,-7.255773,110.408403,"5810017614 Jl. Semarang-Yogyakarta, Ambarawa, Semarang, Jawa Tengah 50612, Indonesia 50612",PS. PROJO AMBARAWA -,ok,
5810017436,SDN Semarang,-7.255773,110.408403,"5810017436 Jl. Semarang-Yogyakarta, Ambarawa, Semarang, Jawa Tengah 50612, Indonesia 50612",PS. PROJO AMBARAWA -,ok,
5810017413,SDN Semarang,-7.255773,110.408403,"5810017413 Jl. Semarang-Yogyakarta, Ambarawa, Semarang, Jawa Tengah 50612, Indonesia 50612",PS. PROJO AMBARAWA -,ok,
5810017519,SDN Semarang,-7.255773,110.408403,"5810017519 Jl. Semarang-Yogyakarta, Ambarawa, Semarang, Jawa Tengah 50612, Indonesia 50612",PS. PROJO AMBARAWA -,ok,
5810017485,SDN Semarang,-7.255773,110.408403,"5810017485 Jl. Semarang-Yogyakarta, Ambarawa, Semarang, Jawa Tengah 50612, Indonesia 50612",PS. PROJO AMBARAWA -,ok,
5810017498,SDN Semarang,-7.255773,110.408403,"5810017498 Jl. Semarang-Yogyakarta, Ambarawa, Semarang, Jawa Tengah 50612, Indonesia 50612",PS. PROJO F2 AMBARAWA -,ok,
5810032245,SDN Semarang,-7.254642,110.411902,"5810032245 Jl. Semarang-Yogyakarta, Ambarawa, Semarang, Jawa Tengah 50612, Indonesia 50612",PS. PROJO NO. B - 12 KUPANG AMBARAWA -,ok,
5810017332,SDN Semarang,-7.255773,110.408403,"5810017332 Jl. Semarang-Yogyakarta, Ambarawa, Semarang, Jawa Tengah 50612, Indonesia 50612",PS. PROJO T 12 AMBARAWA -,ok,
5810021686,SDN Semarang,-6.989882,110.358542,"5810021686 Jl. Ngaliyan, Ngaliyan, Kota Semarang, Jawa Tengah 50184, Indonesia 50184",PS. PURWOYOSO BLOK 11 PURWOYOSO NGALIYAN SEMARANG,ok,
5810012156,SDN Semarang,-7.070568,110.417208,"5810012156 Jl. Rasamala Tim. III No.9, Banyumanik, Kota Semarang, Jawa Tengah 50263, Indonesia 50263",PS. RASAMALA / JL RASAMALA I NO. 43 RT. 006 RW. 006 SRONDOL WETAN BANYUMANIK,ok,
5810012149,SDN Semarang,-7.069097,110.41698,"5810012149 Jl. Rasamala Raya, Banyumanik, Kota Semarang, Jawa Tengah 50263, Indonesia 50263",PS. RASAMALA BLOK TENGAH JL. RAYA RASAMALA BANYUMANIK SEMARANG,ok,
5810021013,SDN Semarang,-7.069766,110.417084,"5810021013 Jl. Rasamala Raya, Banyumanik, Kota Semarang, Jawa Tengah 50263, Indonesia 50263",PS. RASAMALA LOS TENGAH BANYUMANIK SEMARANG,ok,
5810017520,SDN Semarang,-7.069766,110.417084,"5810017520 Jl. Rasamala Raya, Banyumanik, Kota Semarang, Jawa Tengah 50263, Indonesia 50263",PS. RASAMALA SEMARANG -,ok,
5810017377,SDN Semarang,-7.070568,110.417208,"5810017377 Jl. Rasamala Tim. III No.9, Banyumanik, Kota Semarang, Jawa Tengah 50263, Indonesia 50263",PS. RASAMALA SEMARANG -,ok,
5810017277,SDN Semarang,-7.069766,110.417084,"5810017277 Jl. Rasamala Raya, Banyumanik, Kota Semarang, Jawa Tengah 50263, Indonesia 50263",PS. RASAMALA SEMARANG -,ok,
5810017325,SDN Semarang,-7.070568,110.417208,"5810017325 Jl. Rasamala Tim. III No.9, Banyumanik, Kota Semarang, Jawa Tengah 50263, Indonesia 50263",PS. RASAMALA SEMARANG -,ok,
5810017330,SDN Semarang,-7.069766,110.417084,"5810017330 Jl. Rasamala Raya, Banyumanik, Kota Semarang, Jawa Tengah 50263, Indonesia 50263",PS. RASAMALA SEMARANG -,ok,
5810017238,SDN Semarang,-7.3305234,110.5084366,"5810017238 Jl. Kalinyamat, Tingkir, Kota Salatiga, Jawa Tengah 50742, Indonesia 50742",PS. RAYA C 19 - 20 SALATIGA 0 -,ok,
5810017464,SDN Semarang,-7.3305234,110.5084366,"5810017464 Jl. Kalinyamat, Tingkir, Kota Salatiga, Jawa Tengah 50742, Indonesia 50742",PS. RAYA C 8 - 9 SALATIGA -,ok,
5810017373,SDN Semarang,-7.3305234,110.5084366,"5810017373 Jl. Kalinyamat, Tingkir, Kota Salatiga, Jawa Tengah 50742, Indonesia 50742",PS. RAYA I SALATIGA BLOK B NO.5 -,ok,
5810011520,SDN Semarang,-7.326278,110.504776,"5810011520 Jl. Raya Suruh - Karanggede, Sidorejo, Kota Salatiga, Jawa Tengah 50711, Indonesia 50711",PS. RAYA SALATIGA LANTAI ATAS LOS BUMBON NO. B1 JL. JEND. SUDIRMAN,ok,
5810020476,SDN Semarang,-7.015053,110.42911,"5810020476 Jl. Candi Losmen, Candisari, Kota Semarang, Jawa Tengah 50257, Indonesia 50257",PS. SISINGAMANGARAJA SEMARANG -,ok,
5810017368,SDN Semarang,-7.015053,110.42911,"5810017368 Jl. Candi Losmen, Candisari, Kota Semarang, Jawa Tengah 50257, Indonesia 50257",PS. SISINGAMANGARAJA SEMARANG -,ok,
5810020308,SDN Semarang,-7.085839,110.042794,"5810020308 Sudagaran, Sukorejo, Kendal, Jawa Tengah 51363, Indonesia 51363",PS. SUKOREJO BLOK F-1 SUKOREJO -,not ok,
5810021001,SDN Semarang,-6.987713,110.389678,"5810021001 Jl. Pamularsih, Semarang Bar., Kota Semarang, Jawa Tengah 50149, Indonesia 50149",PS. SURTIKANTI A10 GISIKDRONO SEMARANG -,not ok,
5810020256,SDN Semarang,-6.989445,110.457998,"5810020256 Jl. Telaga Asmara I, Pedurungan, Kota Semarang, Jawa Tengah 50196, Indonesia 50196",PS. SURYOKUSUMO LOS TENGAH TLOGOSARI SEMARANG,not ok,"-6.977388, 110.462465"
5810020851,SDN Semarang,-6.989445,110.457998,"5810020851 Jl. Telaga Asmara I, Pedurungan, Kota Semarang, Jawa Tengah 50196, Indonesia 50196",PS. SURYOKUSUMO SEMARANG -,not ok,"-6.977388, 110.462465"
5810020268,SDN Semarang,-6.964151,110.423453,"5810020268 Jl. Bandarharjo Selatan, Semarang Utara, Kota Semarang, Jawa Tengah 50175, Indonesia 50175",PS. TAMBRA LOS BELAKANG SBLH TK. TAMBRA BANDARHARJO SEMARANG,not ok,
5810019832,SDN Semarang,-7.118556,110.403779,"5810019832 Jl. Patimura, Ungaran Bar., Semarang, Jawa Tengah 50511, Indonesia 50511",PS. UNGARAN -,ok,
5810019831,SDN Semarang,-7.118556,110.403779,"5810019831 Jl. Patimura, Ungaran Bar., Semarang, Jawa Tengah 50511, Indonesia 50511",PS. UNGARAN -,ok,
5810019830,SDN Semarang,-7.118556,110.403779,"5810019830 Jl. Patimura, Ungaran Bar., Semarang, Jawa Tengah 50511, Indonesia 50511",PS. UNGARAN -,ok,
5810029461,SDN Semarang,-6.7974811,110.612062,"5810029461 Jl. Raya Wedung, Wedung, Demak, Jawa Tengah 59554, Indonesia 59554",PS. WEDUNG LOS DEPAN JL. RAYA WEDUNG KEL. WEDUNG KEC. WEDUNG DEMAK,ok,
5810017299,SDN Semarang,-7.001755,110.42938,"5810017299 Jl. Wonodri Baru II No.9, Semarang Sel., Kota Semarang, Jawa Tengah 50242, Indonesia 50242",PS. WONODRI SEMARANG -,ok,
5810019028,SDN Semarang,-6.986311,110.401819,"5810019028 Jl. Bojong Salaman, Semarang Bar., Kota Semarang, Jawa Tengah 50141, Indonesia 50141",PS.RASAMALA SEMARANG -,not ok,"-7.069638, 110.417235"
5810025304,SDN Semarang,-6.97801,110.391949,"5810025304 Jl. Damarwulan II, Semarang Bar., Kota Semarang, Jawa Tengah 50149, Indonesia 50149",PURI ANJASMORO RAYA NO. 56 KARANGAYU SEMARANG BARAT SEMARANG,ok,
5810035053,SDN Semarang,-6.989415,110.400916,"5810035053 Jl. Puspanjolo Selatan, Semarang Bar., Kota Semarang, Jawa Tengah 50141, Indonesia 50141",PUSPANJOLO SELATAN NO 203 BOJONGSALAMAN/SEMARANG BARAT,ok,
5810025139,SDN Semarang,-7.36742,110.49706,"5810025139 Jl. Argosari Raya, Argomulyo, Kota Salatiga, Jawa Tengah 50735, Indonesia 50735",RANDU ACIR RT. 004 RW. 002 ARGOMULYO SALATIGA,ok,
5810022194,SDN Semarang,-7.059073,110.473882,"5810022194 Jl. Meteseh Rowosari, Tembalang, Kota Semarang, Jawa Tengah 50271, Indonesia 50271",RUKO BUKIT EMERALD UTAMA BLOK B-2 METESEH TEMBALANG,ok,
5810035682,SDN Semarang,-7.07175,110.307797,"5810035682 Jl. Jatisari Sel., Mijen, Kota Semarang, Jawa Tengah 50275, Indonesia 50275",RUKO JATISARI INDAH NO. 9 JATISARI MIJEN SEMARANG,ok,
5810012231,SDN Semarang,-6.980154,110.417183,"5810012231 Jl. MH Thamrin, Semarang Tengah, Kota Semarang, Jawa Tengah 50132, Indonesia 50132","RUKO THAMRIN SQUARE B15, JL. MH THAMRIN NO. 5 SEKAYU - SEMARANG TENGAH SEMARANG",ok,
5810025415,SDN Semarang,-6.989882,110.358542,"5810025415 Jl. Ngaliyan, Ngaliyan, Kota Semarang, Jawa Tengah 50184, Indonesia 50184",SRI WIBOWO VIII / 3-D RT. 001 RW. 003 PURWOYOSO NGALIYAN SEMARANG,not ok,"-6.992988, 110.368309"
5820001086,SDN Semarang,-6.997452,110.456686,"5820001086 Jl. Kalicari III No.1, Pedurungan, Kota Semarang, Jawa Tengah 50198, Indonesia 50198",TAMBAK BOYO RAYA NO. 36 RT. 007 RW. 002 KALICARI PEDURUNGAN SEMARANG,ok,
5810021196,SDN Semarang,-7.054007,110.606169,"5810021196 Jend. S Sudiarto, Tegowanu, Grobogan, Jawa Tengah 58165, Indonesia 58165",TEGOWANU KULON RT. 006 RW. 003 ( SAMPING PLN TEGOWANU ) GROBOGAN,ok,
5810017220,SDN Semarang,-7.127253,110.404179,"5810017220 Jl. Pemuda, Ungaran Bar., Semarang, Jawa Tengah 50511, Indonesia 50511",UNGARAN PLAZA BLOK C NO.32 UNGARAN SEMARANG,ok,
5810021807,SDN Semarang,-6.990732,110.339794,"5810021807 Jl. Tambak Aji Raya, Ngaliyan, Kota Semarang, Jawa Tengah 50185, Indonesia 50185",VILLA NGALIYAN PERMAI I BLOK D NO. 10 RT. 003 RW. 014 TAMBAK AJI NGALIYAN,not ok,
